<?xml version="1.0" encoding="UTF-8"?>
<gpx xmlns="http://www.topografix.com/GPX/1/1" creator="turistautak.openstreetmap.hu" version="1.1" xmlns:xsi="http://www.w3.org/2001/XMLSchema-instance" xsi:schemaLocation="http://www.garmin.com/xmlschemas/GpxExtensions/v3 http://www.garmin.com/xmlschemas/GpxExtensions/v3/GpxExtensionsv3.xsd http://www.topografix.com/GPX/1/1 http://www.topografix.com/GPX/1/1/gpx.xsd">
	<metadata>
		<name>1783949220qisu útvonal</name>
		<desc>1783949220qisu útvonal</desc>
	</metadata>
<trk>
  <name>utv</name>
<trkseg><trkpt lat="47.610541" lon="18.984873">
        <ele>240.25</ele>
      </trkpt>
<trkpt lat="47.610414" lon="18.985002">
        <ele>241.2</ele>
      </trkpt>
<trkpt lat="47.610300" lon="18.985026">
        <ele>242</ele>
      </trkpt>
<trkpt lat="47.610161" lon="18.984625">
        <ele>243</ele>
      </trkpt>
<trkpt lat="47.610057" lon="18.984337">
        <ele>245.4</ele>
      </trkpt>
<trkpt lat="47.609974" lon="18.984138">
        <ele>249</ele>
      </trkpt>
<trkpt lat="47.609887" lon="18.983859">
        <ele>252.4</ele>
      </trkpt>
<trkpt lat="47.609331" lon="18.982919">
        <ele>255.2</ele>
      </trkpt>
<trkpt lat="47.609171" lon="18.982684">
        <ele>257.6</ele>
      </trkpt>
<trkpt lat="47.609340" lon="18.982035">
        <ele>258.4</ele>
      </trkpt>
<trkpt lat="47.609713" lon="18.981179">
        <ele>258</ele>
      </trkpt>
<trkpt lat="47.609933" lon="18.980290">
        <ele>256</ele>
      </trkpt>
<trkpt lat="47.610431" lon="18.980130">
        <ele>254.6</ele>
      </trkpt>
<trkpt lat="47.611214" lon="18.979804">
        <ele>254.8</ele>
      </trkpt>
<trkpt lat="47.611510" lon="18.979328">
        <ele>255.2</ele>
      </trkpt>
<trkpt lat="47.611933" lon="18.979174">
        <ele>255.6</ele>
      </trkpt>
<trkpt lat="47.612145" lon="18.979096">
        <ele>256.8</ele>
      </trkpt>
<trkpt lat="47.612431" lon="18.979084">
        <ele>257.6</ele>
      </trkpt>
<trkpt lat="47.612822" lon="18.979094">
        <ele>255.6</ele>
      </trkpt>
<trkpt lat="47.612908" lon="18.978966">
        <ele>254.4</ele>
      </trkpt>
<trkpt lat="47.613025" lon="18.978848">
        <ele>251</ele>
      </trkpt>
<trkpt lat="47.613730" lon="18.978258">
        <ele>247.6</ele>
      </trkpt>
<trkpt lat="47.613769" lon="18.978159">
        <ele>244.6</ele>
      </trkpt>
<trkpt lat="47.613876" lon="18.977860">
        <ele>240.4</ele>
      </trkpt>
<trkpt lat="47.613898" lon="18.977805">
        <ele>234.6</ele>
      </trkpt>
<trkpt lat="47.614038" lon="18.977422">
        <ele>231.2</ele>
      </trkpt>
<trkpt lat="47.614126" lon="18.976735">
        <ele>226.4</ele>
      </trkpt>
<trkpt lat="47.614522" lon="18.975843">
        <ele>221</ele>
      </trkpt>
<trkpt lat="47.615097" lon="18.975470">
        <ele>219</ele>
      </trkpt>
<trkpt lat="47.616107" lon="18.974099">
        <ele>217.8</ele>
      </trkpt>
<trkpt lat="47.616475" lon="18.973438">
        <ele>217</ele>
      </trkpt>
<trkpt lat="47.617188" lon="18.972408">
        <ele>217.6</ele>
      </trkpt>
<trkpt lat="47.617355" lon="18.972335">
        <ele>218.8</ele>
      </trkpt>
<trkpt lat="47.617937" lon="18.971791">
        <ele>219.4</ele>
      </trkpt>
<trkpt lat="47.618063" lon="18.971706">
        <ele>221.4</ele>
      </trkpt>
<trkpt lat="47.618285" lon="18.971624">
        <ele>222.8</ele>
      </trkpt>
<trkpt lat="47.618353" lon="18.971777">
        <ele>224.2</ele>
      </trkpt>
<trkpt lat="47.618404" lon="18.972193">
        <ele>225.6</ele>
      </trkpt>
<trkpt lat="47.618413" lon="18.972263">
        <ele>227</ele>
      </trkpt>
<trkpt lat="47.618330" lon="18.972341">
        <ele>228.8</ele>
      </trkpt>
<trkpt lat="47.618378" lon="18.972666">
        <ele>230.6</ele>
      </trkpt>
<trkpt lat="47.618354" lon="18.972718">
        <ele>229.8</ele>
      </trkpt>
<trkpt lat="47.618113" lon="18.973068">
        <ele>230.6</ele>
      </trkpt>
<trkpt lat="47.618010" lon="18.973320">
        <ele>231.4</ele>
      </trkpt>
<trkpt lat="47.617737" lon="18.973641">
        <ele>235</ele>
      </trkpt>
<trkpt lat="47.617722" lon="18.973785">
        <ele>240.8</ele>
      </trkpt>
<trkpt lat="47.617771" lon="18.973959">
        <ele>251.8</ele>
      </trkpt>
<trkpt lat="47.617952" lon="18.974595">
        <ele>258.6</ele>
      </trkpt>
<trkpt lat="47.618112" lon="18.976058">
        <ele>268</ele>
      </trkpt>
<trkpt lat="47.618072" lon="18.976336">
        <ele>279.4</ele>
      </trkpt>
<trkpt lat="47.618414" lon="18.976042">
        <ele>296.6</ele>
      </trkpt>
<trkpt lat="47.618662" lon="18.976331">
        <ele>311.2</ele>
      </trkpt>
<trkpt lat="47.619869" lon="18.977729">
        <ele>332.2</ele>
      </trkpt>
<trkpt lat="47.621430" lon="18.979540">
        <ele>353.8</ele>
      </trkpt>
<trkpt lat="47.621871" lon="18.979186">
        <ele>368.8</ele>
      </trkpt>
<trkpt lat="47.623491" lon="18.979579">
        <ele>375.8</ele>
      </trkpt>
<trkpt lat="47.623668" lon="18.979585">
        <ele>390.2</ele>
      </trkpt>
<trkpt lat="47.624071" lon="18.979458">
        <ele>396.2</ele>
      </trkpt>
<trkpt lat="47.624551" lon="18.979064">
        <ele>401.4</ele>
      </trkpt>
<trkpt lat="47.624850" lon="18.978767">
        <ele>406.6</ele>
      </trkpt>
<trkpt lat="47.625416" lon="18.978340">
        <ele>415.2</ele>
      </trkpt>
<trkpt lat="47.625864" lon="18.977658">
        <ele>416.4</ele>
      </trkpt>
<trkpt lat="47.626228" lon="18.977314">
        <ele>421.8</ele>
      </trkpt>
<trkpt lat="47.626550" lon="18.977229">
        <ele>424.8</ele>
      </trkpt>
<trkpt lat="47.626743" lon="18.977092">
        <ele>428</ele>
      </trkpt>
<trkpt lat="47.626835" lon="18.976752">
        <ele>427.8</ele>
      </trkpt>
<trkpt lat="47.627071" lon="18.976815">
        <ele>427.6</ele>
      </trkpt>
<trkpt lat="47.627305" lon="18.976608">
        <ele>426.8</ele>
      </trkpt>
<trkpt lat="47.627437" lon="18.976849">
        <ele>428.6</ele>
      </trkpt>
<trkpt lat="47.627612" lon="18.976870">
        <ele>428.8</ele>
      </trkpt>
<trkpt lat="47.628247" lon="18.975959">
        <ele>429</ele>
      </trkpt>
<trkpt lat="47.628585" lon="18.975340">
        <ele>427</ele>
      </trkpt>
<trkpt lat="47.629000" lon="18.975110">
        <ele>426.6</ele>
      </trkpt>
<trkpt lat="47.629199" lon="18.975145">
        <ele>418</ele>
      </trkpt>
<trkpt lat="47.629759" lon="18.975024">
        <ele>410.8</ele>
      </trkpt>
<trkpt lat="47.630544" lon="18.974391">
        <ele>403.6</ele>
      </trkpt>
<trkpt lat="47.631636" lon="18.974219">
        <ele>395</ele>
      </trkpt>
<trkpt lat="47.631805" lon="18.974125">
        <ele>388</ele>
      </trkpt>
<trkpt lat="47.631928" lon="18.973974">
        <ele>386.6</ele>
      </trkpt>
<trkpt lat="47.632167" lon="18.973474">
        <ele>385.2</ele>
      </trkpt>
<trkpt lat="47.632557" lon="18.972068">
        <ele>383.8</ele>
      </trkpt>
<trkpt lat="47.632608" lon="18.971744">
        <ele>386</ele>
      </trkpt>
<trkpt lat="47.632535" lon="18.971687">
        <ele>386</ele>
      </trkpt>
<trkpt lat="47.632608" lon="18.971744">
        <ele>377.2</ele>
      </trkpt>
<trkpt lat="47.632663" lon="18.971547">
        <ele>368.4</ele>
      </trkpt>
<trkpt lat="47.632717" lon="18.971391">
        <ele>352.4</ele>
      </trkpt>
<trkpt lat="47.633167" lon="18.971431">
        <ele>336.4</ele>
      </trkpt>
<trkpt lat="47.633617" lon="18.970933">
        <ele>318.6</ele>
      </trkpt>
<trkpt lat="47.634251" lon="18.969192">
        <ele>307.4</ele>
      </trkpt>
<trkpt lat="47.634332" lon="18.968810">
        <ele>295.2</ele>
      </trkpt>
<trkpt lat="47.634380" lon="18.968230">
        <ele>291.2</ele>
      </trkpt>
<trkpt lat="47.633966" lon="18.967257">
        <ele>288.8</ele>
      </trkpt>
<trkpt lat="47.633951" lon="18.966850">
        <ele>286.6</ele>
      </trkpt>
<trkpt lat="47.633776" lon="18.966131">
        <ele>286.6</ele>
      </trkpt>
<trkpt lat="47.633739" lon="18.965671">
        <ele>287</ele>
      </trkpt>
<trkpt lat="47.633560" lon="18.965249">
        <ele>286.4</ele>
      </trkpt>
<trkpt lat="47.633568" lon="18.965141">
        <ele>282</ele>
      </trkpt>
<trkpt lat="47.633814" lon="18.964519">
        <ele>280</ele>
      </trkpt>
<trkpt lat="47.634232" lon="18.963794">
        <ele>277</ele>
      </trkpt>
<trkpt lat="47.634563" lon="18.963271">
        <ele>274.2</ele>
      </trkpt>
<trkpt lat="47.634667" lon="18.963137">
        <ele>270.8</ele>
      </trkpt>
<trkpt lat="47.635147" lon="18.962588">
        <ele>269.4</ele>
      </trkpt>
<trkpt lat="47.635956" lon="18.961827">
        <ele>265.8</ele>
      </trkpt>
<trkpt lat="47.636353" lon="18.961509">
        <ele>262</ele>
      </trkpt>
<trkpt lat="47.637598" lon="18.959989">
        <ele>258.6</ele>
      </trkpt>
<trkpt lat="47.638732" lon="18.958065">
        <ele>256</ele>
      </trkpt>
<trkpt lat="47.639261" lon="18.956695">
        <ele>253.6</ele>
      </trkpt>
<trkpt lat="47.639903" lon="18.955614">
        <ele>252.6</ele>
      </trkpt>
<trkpt lat="47.640131" lon="18.955405">
        <ele>252.8</ele>
      </trkpt>
<trkpt lat="47.640126" lon="18.955314">
        <ele>252.8</ele>
      </trkpt>
<trkpt lat="47.640131" lon="18.955405">
        <ele>252.6</ele>
      </trkpt>
<trkpt lat="47.640205" lon="18.955298">
        <ele>250.6</ele>
      </trkpt>
<trkpt lat="47.640306" lon="18.955570">
        <ele>245.8</ele>
      </trkpt>
<trkpt lat="47.640377" lon="18.955652">
        <ele>241</ele>
      </trkpt>
<trkpt lat="47.640777" lon="18.955996">
        <ele>236.4</ele>
      </trkpt>
<trkpt lat="47.641251" lon="18.956651">
        <ele>231.8</ele>
      </trkpt>
<trkpt lat="47.641338" lon="18.956685">
        <ele>227.6</ele>
      </trkpt>
<trkpt lat="47.641581" lon="18.956914">
        <ele>227.6</ele>
      </trkpt>
<trkpt lat="47.641654" lon="18.957067">
        <ele>224.4</ele>
      </trkpt>
<trkpt lat="47.641710" lon="18.957086">
        <ele>221.2</ele>
      </trkpt>
<trkpt lat="47.641933" lon="18.956954">
        <ele>218</ele>
      </trkpt>
<trkpt lat="47.642246" lon="18.956662">
        <ele>216.2</ele>
      </trkpt>
<trkpt lat="47.642388" lon="18.956622">
        <ele>212.6</ele>
      </trkpt>
<trkpt lat="47.642551" lon="18.956838">
        <ele>212.2</ele>
      </trkpt>
<trkpt lat="47.642720" lon="18.957062">
        <ele>211.2</ele>
      </trkpt>
<trkpt lat="47.642751" lon="18.957252">
        <ele>209.6</ele>
      </trkpt>
<trkpt lat="47.642746" lon="18.957619">
        <ele>207</ele>
      </trkpt>
<trkpt lat="47.642503" lon="18.958558">
        <ele>204.8</ele>
      </trkpt>
<trkpt lat="47.642802" lon="18.958942">
        <ele>201.4</ele>
      </trkpt>
<trkpt lat="47.643238" lon="18.958764">
        <ele>198.6</ele>
      </trkpt>
<trkpt lat="47.643481" lon="18.958880">
        <ele>196.4</ele>
      </trkpt>
<trkpt lat="47.644234" lon="18.958978">
        <ele>193.6</ele>
      </trkpt>
<trkpt lat="47.644435" lon="18.958949">
        <ele>190.8</ele>
      </trkpt>
<trkpt lat="47.644495" lon="18.959003">
        <ele>187.4</ele>
      </trkpt>
<trkpt lat="47.644943" lon="18.959034">
        <ele>184</ele>
      </trkpt>
<trkpt lat="47.645142" lon="18.959008">
        <ele>180.6</ele>
      </trkpt>
<trkpt lat="47.645595" lon="18.958916">
        <ele>179.8</ele>
      </trkpt>
<trkpt lat="47.645682" lon="18.958886">
        <ele>179</ele>
      </trkpt>
<trkpt lat="47.645840" lon="18.958829">
        <ele>178.8</ele>
      </trkpt>
<trkpt lat="47.645923" lon="18.958715">
        <ele>178.6</ele>
      </trkpt>
<trkpt lat="47.646233" lon="18.958551">
        <ele>178.4</ele>
      </trkpt>
<trkpt lat="47.646480" lon="18.958519">
        <ele>176.8</ele>
      </trkpt>
<trkpt lat="47.646587" lon="18.958635">
        <ele>175.2</ele>
      </trkpt>
<trkpt lat="47.646660" lon="18.958696">
        <ele>174.8</ele>
      </trkpt>
<trkpt lat="47.646637" lon="18.958766">
        <ele>174.4</ele>
      </trkpt>
<trkpt lat="47.646715" lon="18.958991">
        <ele>174</ele>
      </trkpt>
<trkpt lat="47.646678" lon="18.959180">
        <ele>173.4</ele>
      </trkpt>
<trkpt lat="47.646800" lon="18.959188">
        <ele>172.8</ele>
      </trkpt>
<trkpt lat="47.646959" lon="18.959199">
        <ele>172.2</ele>
      </trkpt>
<trkpt lat="47.647067" lon="18.959628">
        <ele>171.6</ele>
      </trkpt>
<trkpt lat="47.647147" lon="18.959949">
        <ele>171.4</ele>
      </trkpt>
<trkpt lat="47.647170" lon="18.960014">
        <ele>171.8</ele>
      </trkpt>
<trkpt lat="47.647491" lon="18.960242">
        <ele>172.2</ele>
      </trkpt>
<trkpt lat="47.647851" lon="18.960492">
        <ele>173.2</ele>
      </trkpt>
<trkpt lat="47.647734" lon="18.960971">
        <ele>175.2</ele>
      </trkpt>
<trkpt lat="47.647511" lon="18.961160">
        <ele>178.4</ele>
      </trkpt>
<trkpt lat="47.647377" lon="18.961986">
        <ele>181.8</ele>
      </trkpt>
<trkpt lat="47.647255" lon="18.962781">
        <ele>185.2</ele>
      </trkpt>
<trkpt lat="47.647284" lon="18.963495">
        <ele>186.8</ele>
      </trkpt>
<trkpt lat="47.647365" lon="18.963866">
        <ele>187.6</ele>
      </trkpt>
<trkpt lat="47.647305" lon="18.964071">
        <ele>186.6</ele>
      </trkpt>
<trkpt lat="47.647812" lon="18.964639">
        <ele>183.4</ele>
      </trkpt>
<trkpt lat="47.648230" lon="18.965043">
        <ele>180.2</ele>
      </trkpt>
<trkpt lat="47.648817" lon="18.965288">
        <ele>179.4</ele>
      </trkpt>
<trkpt lat="47.649074" lon="18.965448">
        <ele>176.6</ele>
      </trkpt>
<trkpt lat="47.649560" lon="18.965990">
        <ele>172.4</ele>
      </trkpt>
<trkpt lat="47.649814" lon="18.966211">
        <ele>170.2</ele>
      </trkpt>
<trkpt lat="47.650133" lon="18.966924">
        <ele>168</ele>
      </trkpt>
<trkpt lat="47.650454" lon="18.967343">
        <ele>163.8</ele>
      </trkpt>
<trkpt lat="47.651065" lon="18.967859">
        <ele>161.4</ele>
      </trkpt>
<trkpt lat="47.651415" lon="18.968291">
        <ele>160.6</ele>
      </trkpt>
<trkpt lat="47.651073" lon="18.968987">
        <ele>159.8</ele>
      </trkpt>
<trkpt lat="47.651028" lon="18.969096">
        <ele>159</ele>
      </trkpt>
<trkpt lat="47.651005" lon="18.969150">
        <ele>159</ele>
      </trkpt>
<trkpt lat="47.651143" lon="18.969446">
        <ele>159</ele>
      </trkpt>
<trkpt lat="47.651299" lon="18.969758">
        <ele>159</ele>
      </trkpt>
<trkpt lat="47.651444" lon="18.970066">
        <ele>160.4</ele>
      </trkpt>
<trkpt lat="47.651800" lon="18.970321">
        <ele>161.8</ele>
      </trkpt>
<trkpt lat="47.651832" lon="18.970344">
        <ele>163.2</ele>
      </trkpt>
<trkpt lat="47.652329" lon="18.970583">
        <ele>166.2</ele>
      </trkpt>
<trkpt lat="47.652385" lon="18.970634">
        <ele>169.2</ele>
      </trkpt>
<trkpt lat="47.652663" lon="18.971084">
        <ele>167.2</ele>
      </trkpt>
<trkpt lat="47.652754" lon="18.971337">
        <ele>166</ele>
      </trkpt>
<trkpt lat="47.652871" lon="18.971662">
        <ele>164.8</ele>
      </trkpt>
<trkpt lat="47.652969" lon="18.972015">
        <ele>162</ele>
      </trkpt>
<trkpt lat="47.653113" lon="18.972799">
        <ele>162</ele>
      </trkpt>
<trkpt lat="47.653070" lon="18.973264">
        <ele>164</ele>
      </trkpt>
<trkpt lat="47.652978" lon="18.973123">
        <ele>171.2</ele>
      </trkpt>
<trkpt lat="47.652355" lon="18.971274">
        <ele>178.4</ele>
      </trkpt>
<trkpt lat="47.652243" lon="18.971110">
        <ele>185.6</ele>
      </trkpt>
<trkpt lat="47.651879" lon="18.971402">
        <ele>191.6</ele>
      </trkpt>
<trkpt lat="47.651593" lon="18.971480">
        <ele>199.2</ele>
      </trkpt>
<trkpt lat="47.651473" lon="18.971556">
        <ele>200.8</ele>
      </trkpt>
<trkpt lat="47.651085" lon="18.971702">
        <ele>200.8</ele>
      </trkpt>
<trkpt lat="47.650559" lon="18.971750">
        <ele>206</ele>
      </trkpt>
<trkpt lat="47.651040" lon="18.972001">
        <ele>209.6</ele>
      </trkpt>
<trkpt lat="47.651265" lon="18.972031">
        <ele>217.6</ele>
      </trkpt>
<trkpt lat="47.651540" lon="18.972149">
        <ele>225.6</ele>
      </trkpt>
<trkpt lat="47.651764" lon="18.972747">
        <ele>235.2</ele>
      </trkpt>
<trkpt lat="47.651751" lon="18.973272">
        <ele>246.4</ele>
      </trkpt>
<trkpt lat="47.651535" lon="18.973440">
        <ele>257.6</ele>
      </trkpt>
<trkpt lat="47.651368" lon="18.973360">
        <ele>264.4</ele>
      </trkpt>
<trkpt lat="47.650900" lon="18.973928">
        <ele>273.6</ele>
      </trkpt>
<trkpt lat="47.650699" lon="18.974048">
        <ele>282.6</ele>
      </trkpt>
<trkpt lat="47.650487" lon="18.974227">
        <ele>286</ele>
      </trkpt>
<trkpt lat="47.650270" lon="18.974511">
        <ele>289</ele>
      </trkpt>
<trkpt lat="47.649682" lon="18.974906">
        <ele>292</ele>
      </trkpt>
<trkpt lat="47.649268" lon="18.975224">
        <ele>293.2</ele>
      </trkpt>
<trkpt lat="47.649116" lon="18.975418">
        <ele>294.6</ele>
      </trkpt>
<trkpt lat="47.648843" lon="18.975715">
        <ele>294.8</ele>
      </trkpt>
<trkpt lat="47.648577" lon="18.975881">
        <ele>295</ele>
      </trkpt>
<trkpt lat="47.648364" lon="18.975903">
        <ele>295.2</ele>
      </trkpt>
<trkpt lat="47.648260" lon="18.976103">
        <ele>294.8</ele>
      </trkpt>
<trkpt lat="47.647535" lon="18.976395">
        <ele>294.4</ele>
      </trkpt>
<trkpt lat="47.647343" lon="18.976308">
        <ele>294</ele>
      </trkpt>
<trkpt lat="47.647535" lon="18.976395">
        <ele>292.8</ele>
      </trkpt>
<trkpt lat="47.647589" lon="18.976614">
        <ele>291</ele>
      </trkpt>
<trkpt lat="47.647543" lon="18.976949">
        <ele>287.4</ele>
      </trkpt>
<trkpt lat="47.647909" lon="18.978000">
        <ele>281</ele>
      </trkpt>
<trkpt lat="47.648341" lon="18.978733">
        <ele>270.2</ele>
      </trkpt>
<trkpt lat="47.648749" lon="18.979070">
        <ele>260.6</ele>
      </trkpt>
<trkpt lat="47.649035" lon="18.979615">
        <ele>248</ele>
      </trkpt>
<trkpt lat="47.649373" lon="18.982126">
        <ele>237.2</ele>
      </trkpt>
<trkpt lat="47.649355" lon="18.982840">
        <ele>227.2</ele>
      </trkpt>
<trkpt lat="47.649239" lon="18.983841">
        <ele>219.8</ele>
      </trkpt>
<trkpt lat="47.649237" lon="18.983907">
        <ele>210.4</ele>
      </trkpt>
<trkpt lat="47.649135" lon="18.984872">
        <ele>203.2</ele>
      </trkpt>
<trkpt lat="47.648969" lon="18.985820">
        <ele>196</ele>
      </trkpt>
<trkpt lat="47.648855" lon="18.986906">
        <ele>190.8</ele>
      </trkpt>
<trkpt lat="47.648907" lon="18.987501">
        <ele>185.4</ele>
      </trkpt>
<trkpt lat="47.649141" lon="18.987599">
        <ele>182</ele>
      </trkpt>
<trkpt lat="47.649326" lon="18.987801">
        <ele>180.2</ele>
      </trkpt>
<trkpt lat="47.649115" lon="18.988903">
        <ele>178.4</ele>
      </trkpt>
<trkpt lat="47.649035" lon="18.989294">
        <ele>176.6</ele>
      </trkpt>
<trkpt lat="47.648516" lon="18.989888">
        <ele>177.8</ele>
      </trkpt>
<trkpt lat="47.648293" lon="18.990090">
        <ele>179</ele>
      </trkpt>
<trkpt lat="47.647953" lon="18.990396">
        <ele>180</ele>
      </trkpt>
<trkpt lat="47.647822" lon="18.990460">
        <ele>181</ele>
      </trkpt>
<trkpt lat="47.647505" lon="18.990523">
        <ele>186.6</ele>
      </trkpt>
<trkpt lat="47.647234" lon="18.990887">
        <ele>191.2</ele>
      </trkpt>
<trkpt lat="47.647155" lon="18.990725">
        <ele>195.8</ele>
      </trkpt>
<trkpt lat="47.645964" lon="18.989230">
        <ele>200.2</ele>
      </trkpt>
<trkpt lat="47.645710" lon="18.989254">
        <ele>203.8</ele>
      </trkpt>
<trkpt lat="47.645609" lon="18.989464">
        <ele>201.8</ele>
      </trkpt>
<trkpt lat="47.645267" lon="18.990170">
        <ele>199.8</ele>
      </trkpt>
<trkpt lat="47.644190" lon="18.990807">
        <ele>197.8</ele>
      </trkpt>
<trkpt lat="47.643591" lon="18.991807">
        <ele>196</ele>
      </trkpt>
<trkpt lat="47.643573" lon="18.992123">
        <ele>195.4</ele>
      </trkpt>
<trkpt lat="47.643584" lon="18.992264">
        <ele>195.8</ele>
      </trkpt>
<trkpt lat="47.643432" lon="18.992798">
        <ele>196</ele>
      </trkpt>
<trkpt lat="47.643512" lon="18.993301">
        <ele>196.8</ele>
      </trkpt>
<trkpt lat="47.643447" lon="18.993634">
        <ele>197.6</ele>
      </trkpt>
<trkpt lat="47.643541" lon="18.993977">
        <ele>198</ele>
      </trkpt>
<trkpt lat="47.644220" lon="18.994718">
        <ele>198.4</ele>
      </trkpt>
<trkpt lat="47.644415" lon="18.995329">
        <ele>198.6</ele>
      </trkpt>
<trkpt lat="47.644329" lon="18.995812">
        <ele>198.2</ele>
      </trkpt>
<trkpt lat="47.644321" lon="18.996123">
        <ele>197.8</ele>
      </trkpt>
<trkpt lat="47.644249" lon="18.996488">
        <ele>197</ele>
      </trkpt>
<trkpt lat="47.644277" lon="18.996810">
        <ele>196.2</ele>
      </trkpt>
<trkpt lat="47.644364" lon="18.997035">
        <ele>195.8</ele>
      </trkpt>
<trkpt lat="47.644513" lon="18.997134">
        <ele>195.2</ele>
      </trkpt>
<trkpt lat="47.644575" lon="18.997175">
        <ele>194.6</ele>
      </trkpt>
<trkpt lat="47.644879" lon="18.997546">
        <ele>194.4</ele>
      </trkpt>
<trkpt lat="47.645130" lon="18.997958">
        <ele>193.8</ele>
      </trkpt>
<trkpt lat="47.645229" lon="18.998296">
        <ele>192.8</ele>
      </trkpt>
<trkpt lat="47.645217" lon="18.998459">
        <ele>192</ele>
      </trkpt>
<trkpt lat="47.644932" lon="18.999443">
        <ele>191.2</ele>
      </trkpt>
<trkpt lat="47.644716" lon="18.999901">
        <ele>190.2</ele>
      </trkpt>
<trkpt lat="47.644230" lon="19.000958">
        <ele>189.8</ele>
      </trkpt>
<trkpt lat="47.643722" lon="19.002172">
        <ele>190</ele>
      </trkpt>
<trkpt lat="47.643613" lon="19.002072">
        <ele>190.2</ele>
      </trkpt>
<trkpt lat="47.643722" lon="19.002172">
        <ele>190</ele>
      </trkpt>
<trkpt lat="47.644239" lon="19.002578">
        <ele>190</ele>
      </trkpt>
<trkpt lat="47.644364" lon="19.002694">
        <ele>190</ele>
      </trkpt>
<trkpt lat="47.645063" lon="19.003363">
        <ele>189.8</ele>
      </trkpt>
<trkpt lat="47.645147" lon="19.003465">
        <ele>189.6</ele>
      </trkpt>
<trkpt lat="47.645171" lon="19.003784">
        <ele>190.2</ele>
      </trkpt>
<trkpt lat="47.645301" lon="19.004057">
        <ele>190.8</ele>
      </trkpt>
<trkpt lat="47.645286" lon="19.004389">
        <ele>191.2</ele>
      </trkpt>
<trkpt lat="47.645199" lon="19.004693">
        <ele>190.6</ele>
      </trkpt>
<trkpt lat="47.645134" lon="19.004876">
        <ele>190</ele>
      </trkpt>
<trkpt lat="47.645357" lon="19.005083">
        <ele>189</ele>
      </trkpt>
<trkpt lat="47.645845" lon="19.005517">
        <ele>188</ele>
      </trkpt>
<trkpt lat="47.645964" lon="19.005630">
        <ele>187</ele>
      </trkpt>
<trkpt lat="47.646008" lon="19.005671">
        <ele>187</ele>
      </trkpt>
<trkpt lat="47.646202" lon="19.005836">
        <ele>187</ele>
      </trkpt>
<trkpt lat="47.646146" lon="19.005891">
        <ele>187</ele>
      </trkpt>
<trkpt lat="47.646202" lon="19.005836">
        <ele>187</ele>
      </trkpt>
<trkpt lat="47.646008" lon="19.005671">
        <ele>187</ele>
      </trkpt>
<trkpt lat="47.645964" lon="19.005630">
        <ele>188</ele>
      </trkpt>
<trkpt lat="47.645845" lon="19.005517">
        <ele>188.8</ele>
      </trkpt>
<trkpt lat="47.645643" lon="19.005511">
        <ele>189.6</ele>
      </trkpt>
<trkpt lat="47.645059" lon="19.005349">
        <ele>190</ele>
      </trkpt>
<trkpt lat="47.644966" lon="19.005800">
        <ele>190.4</ele>
      </trkpt>
<trkpt lat="47.644989" lon="19.006056">
        <ele>189.4</ele>
      </trkpt>
<trkpt lat="47.644928" lon="19.006286">
        <ele>188.6</ele>
      </trkpt>
<trkpt lat="47.644641" lon="19.006808">
        <ele>187.8</ele>
      </trkpt>
<trkpt lat="47.644332" lon="19.007494">
        <ele>187.4</ele>
      </trkpt>
<trkpt lat="47.644218" lon="19.007908">
        <ele>187</ele>
      </trkpt>
<trkpt lat="47.643981" lon="19.008340">
        <ele>186.8</ele>
      </trkpt>
<trkpt lat="47.643796" lon="19.008573">
        <ele>186.6</ele>
      </trkpt>
<trkpt lat="47.643326" lon="19.009525">
        <ele>186.2</ele>
      </trkpt>
<trkpt lat="47.642671" lon="19.010978">
        <ele>186</ele>
      </trkpt>
<trkpt lat="47.642522" lon="19.010998">
        <ele>186</ele>
      </trkpt>
<trkpt lat="47.642263" lon="19.011277">
        <ele>186</ele>
      </trkpt>
<trkpt lat="47.641795" lon="19.011544">
        <ele>186</ele>
      </trkpt>
<trkpt lat="47.641523" lon="19.012359">
        <ele>185.8</ele>
      </trkpt>
<trkpt lat="47.641147" lon="19.013785">
        <ele>185.4</ele>
      </trkpt>
<trkpt lat="47.641101" lon="19.013874">
        <ele>184.4</ele>
      </trkpt>
<trkpt lat="47.640719" lon="19.014585">
        <ele>183.4</ele>
      </trkpt>
<trkpt lat="47.640586" lon="19.014964">
        <ele>182.4</ele>
      </trkpt>
<trkpt lat="47.639695" lon="19.016174">
        <ele>181</ele>
      </trkpt>
<trkpt lat="47.639414" lon="19.016434">
        <ele>179.8</ele>
      </trkpt>
<trkpt lat="47.639031" lon="19.017046">
        <ele>178.8</ele>
      </trkpt>
<trkpt lat="47.638899" lon="19.017374">
        <ele>177.6</ele>
      </trkpt>
<trkpt lat="47.638163" lon="19.018449">
        <ele>176.4</ele>
      </trkpt>
<trkpt lat="47.637777" lon="19.019157">
        <ele>175.6</ele>
      </trkpt>
<trkpt lat="47.637552" lon="19.019609">
        <ele>174.6</ele>
      </trkpt>
<trkpt lat="47.637125" lon="19.020412">
        <ele>173.8</ele>
      </trkpt>
<trkpt lat="47.636978" lon="19.020687">
        <ele>173.4</ele>
      </trkpt>
<trkpt lat="47.636961" lon="19.020721">
        <ele>173</ele>
      </trkpt>
<trkpt lat="47.636947" lon="19.020750">
        <ele>173</ele>
      </trkpt>
<trkpt lat="47.636903" lon="19.020836">
        <ele>173.4</ele>
      </trkpt>
<trkpt lat="47.636797" lon="19.021073">
        <ele>173.8</ele>
      </trkpt>
<trkpt lat="47.636559" lon="19.021182">
        <ele>174.2</ele>
      </trkpt>
<trkpt lat="47.635922" lon="19.021224">
        <ele>174.6</ele>
      </trkpt>
<trkpt lat="47.635829" lon="19.021215">
        <ele>174.8</ele>
      </trkpt>
<trkpt lat="47.635499" lon="19.021228">
        <ele>174.6</ele>
      </trkpt>
<trkpt lat="47.635233" lon="19.020959">
        <ele>174.4</ele>
      </trkpt>
<trkpt lat="47.634545" lon="19.020192">
        <ele>173.2</ele>
      </trkpt>
<trkpt lat="47.634438" lon="19.020413">
        <ele>171.8</ele>
      </trkpt>
<trkpt lat="47.634106" lon="19.021072">
        <ele>170.6</ele>
      </trkpt>
<trkpt lat="47.633716" lon="19.021717">
        <ele>169.4</ele>
      </trkpt>
<trkpt lat="47.633492" lon="19.022283">
        <ele>167</ele>
      </trkpt>
<trkpt lat="47.633113" lon="19.022858">
        <ele>165.6</ele>
      </trkpt>
<trkpt lat="47.632967" lon="19.022703">
        <ele>163.8</ele>
      </trkpt>
<trkpt lat="47.632856" lon="19.023008">
        <ele>157.6</ele>
      </trkpt>
<trkpt lat="47.632577" lon="19.023738">
        <ele>150</ele>
      </trkpt>
<trkpt lat="47.631786" lon="19.025500">
        <ele>143.6</ele>
      </trkpt>
<trkpt lat="47.630477" lon="19.024434">
        <ele>137.6</ele>
      </trkpt>
<trkpt lat="47.630037" lon="19.023835">
        <ele>132.2</ele>
      </trkpt>
<trkpt lat="47.629657" lon="19.023450">
        <ele>131.2</ele>
      </trkpt>
<trkpt lat="47.629432" lon="19.023120">
        <ele>132</ele>
      </trkpt>
<trkpt lat="47.629350" lon="19.023034">
        <ele>132.8</ele>
      </trkpt>
<trkpt lat="47.629227" lon="19.023046">
        <ele>136.4</ele>
      </trkpt>
<trkpt lat="47.628463" lon="19.022717">
        <ele>141.8</ele>
      </trkpt>
<trkpt lat="47.628347" lon="19.022663">
        <ele>147.4</ele>
      </trkpt>
<trkpt lat="47.627849" lon="19.022482">
        <ele>152.6</ele>
      </trkpt>
<trkpt lat="47.626425" lon="19.021381">
        <ele>157.8</ele>
      </trkpt>
<trkpt lat="47.626473" lon="19.020663">
        <ele>159.8</ele>
      </trkpt>
<trkpt lat="47.626527" lon="19.020532">
        <ele>160</ele>
      </trkpt>
<trkpt lat="47.626532" lon="19.020389">
        <ele>160.6</ele>
      </trkpt>
<trkpt lat="47.626541" lon="19.019246">
        <ele>161.6</ele>
      </trkpt>
<trkpt lat="47.626501" lon="19.018814">
        <ele>162.6</ele>
      </trkpt>
<trkpt lat="47.626324" lon="19.018321">
        <ele>163.6</ele>
      </trkpt>
<trkpt lat="47.626107" lon="19.018097">
        <ele>164.6</ele>
      </trkpt>
<trkpt lat="47.625844" lon="19.018026">
        <ele>166.4</ele>
      </trkpt>
<trkpt lat="47.625553" lon="19.017895">
        <ele>168.6</ele>
      </trkpt>
<trkpt lat="47.625494" lon="19.017838">
        <ele>171.6</ele>
      </trkpt>
<trkpt lat="47.625108" lon="19.017770">
        <ele>176.2</ele>
      </trkpt>
<trkpt lat="47.624471" lon="19.017379">
        <ele>181.2</ele>
      </trkpt>
<trkpt lat="47.623824" lon="19.016692">
        <ele>185.4</ele>
      </trkpt>
<trkpt lat="47.623246" lon="19.015807">
        <ele>191.2</ele>
      </trkpt>
<trkpt lat="47.623215" lon="19.015130">
        <ele>196.2</ele>
      </trkpt>
<trkpt lat="47.623068" lon="19.014079">
        <ele>199.6</ele>
      </trkpt>
<trkpt lat="47.622820" lon="19.013216">
        <ele>202.6</ele>
      </trkpt>
<trkpt lat="47.622797" lon="19.013122">
        <ele>205.2</ele>
      </trkpt>
<trkpt lat="47.622790" lon="19.012823">
        <ele>205.4</ele>
      </trkpt>
<trkpt lat="47.622790" lon="19.012466">
        <ele>206.4</ele>
      </trkpt>
<trkpt lat="47.622726" lon="19.011821">
        <ele>207.4</ele>
      </trkpt>
<trkpt lat="47.622529" lon="19.011400">
        <ele>212</ele>
      </trkpt>
<trkpt lat="47.621785" lon="19.009360">
        <ele>218.2</ele>
      </trkpt>
<trkpt lat="47.621489" lon="19.009020">
        <ele>230.6</ele>
      </trkpt>
<trkpt lat="47.621121" lon="19.009463">
        <ele>242.2</ele>
      </trkpt>
<trkpt lat="47.620635" lon="19.009854">
        <ele>255</ele>
      </trkpt>
<trkpt lat="47.620134" lon="19.010477">
        <ele>264.2</ele>
      </trkpt>
<trkpt lat="47.619970" lon="19.010571">
        <ele>271.6</ele>
      </trkpt>
<trkpt lat="47.619545" lon="19.010671">
        <ele>271.8</ele>
      </trkpt>
<trkpt lat="47.619342" lon="19.010800">
        <ele>272</ele>
      </trkpt>
<trkpt lat="47.619001" lon="19.011154">
        <ele>271</ele>
      </trkpt>
<trkpt lat="47.618713" lon="19.011335">
        <ele>270</ele>
      </trkpt>
<trkpt lat="47.618548" lon="19.011402">
        <ele>268.8</ele>
      </trkpt>
<trkpt lat="47.618366" lon="19.011518">
        <ele>266.6</ele>
      </trkpt>
<trkpt lat="47.618135" lon="19.011268">
        <ele>264.4</ele>
      </trkpt>
<trkpt lat="47.617942" lon="19.011059">
        <ele>262.2</ele>
      </trkpt>
<trkpt lat="47.617559" lon="19.010975">
        <ele>259.8</ele>
      </trkpt>
<trkpt lat="47.617457" lon="19.011026">
        <ele>257.6</ele>
      </trkpt>
<trkpt lat="47.617330" lon="19.010831">
        <ele>257.4</ele>
      </trkpt>
<trkpt lat="47.617024" lon="19.010810">
        <ele>257.2</ele>
      </trkpt>
<trkpt lat="47.616901" lon="19.010880">
        <ele>257.8</ele>
      </trkpt>
<trkpt lat="47.616800" lon="19.010783">
        <ele>258.6</ele>
      </trkpt>
<trkpt lat="47.616726" lon="19.010885">
        <ele>259</ele>
      </trkpt>
<trkpt lat="47.615904" lon="19.010420">
        <ele>259.4</ele>
      </trkpt>
<trkpt lat="47.615532" lon="19.010926">
        <ele>259.8</ele>
      </trkpt>
<trkpt lat="47.615369" lon="19.011476">
        <ele>259.4</ele>
      </trkpt>
<trkpt lat="47.615024" lon="19.011411">
        <ele>259.8</ele>
      </trkpt>
<trkpt lat="47.614664" lon="19.011561">
        <ele>260.6</ele>
      </trkpt>
<trkpt lat="47.613764" lon="19.012696">
        <ele>264.4</ele>
      </trkpt>
<trkpt lat="47.613479" lon="19.012661">
        <ele>268.2</ele>
      </trkpt>
<trkpt lat="47.613371" lon="19.012513">
        <ele>272</ele>
      </trkpt>
<trkpt lat="47.613329" lon="19.011960">
        <ele>278.2</ele>
      </trkpt>
<trkpt lat="47.613146" lon="19.011491">
        <ele>284.4</ele>
      </trkpt>
<trkpt lat="47.613081" lon="19.011441">
        <ele>287.6</ele>
      </trkpt>
<trkpt lat="47.612904" lon="19.011201">
        <ele>293.2</ele>
      </trkpt>
<trkpt lat="47.612681" lon="19.011073">
        <ele>303</ele>
      </trkpt>
<trkpt lat="47.612551" lon="19.010876">
        <ele>309.8</ele>
      </trkpt>
<trkpt lat="47.612299" lon="19.010386">
        <ele>318.8</ele>
      </trkpt>
<trkpt lat="47.611256" lon="19.008959">
        <ele>329.4</ele>
      </trkpt>
<trkpt lat="47.611205" lon="19.008763">
        <ele>335.4</ele>
      </trkpt>
<trkpt lat="47.611439" lon="19.008148">
        <ele>337.2</ele>
      </trkpt>
<trkpt lat="47.611354" lon="19.007902">
        <ele>336.8</ele>
      </trkpt>
<trkpt lat="47.610885" lon="19.008160">
        <ele>334.2</ele>
      </trkpt>
<trkpt lat="47.610644" lon="19.008190">
        <ele>330</ele>
      </trkpt>
<trkpt lat="47.610381" lon="19.008177">
        <ele>328</ele>
      </trkpt>
<trkpt lat="47.610225" lon="19.007977">
        <ele>325.4</ele>
      </trkpt>
<trkpt lat="47.610139" lon="19.007867">
        <ele>324.8</ele>
      </trkpt>
<trkpt lat="47.609864" lon="19.007133">
        <ele>322.6</ele>
      </trkpt>
<trkpt lat="47.609896" lon="19.006979">
        <ele>318.6</ele>
      </trkpt>
<trkpt lat="47.610047" lon="19.006529">
        <ele>314.6</ele>
      </trkpt>
<trkpt lat="47.610079" lon="19.006190">
        <ele>316</ele>
      </trkpt>
<trkpt lat="47.610061" lon="19.005323">
        <ele>317.4</ele>
      </trkpt>
<trkpt lat="47.610197" lon="19.004886">
        <ele>320.4</ele>
      </trkpt>
<trkpt lat="47.610496" lon="19.004424">
        <ele>316.6</ele>
      </trkpt>
<trkpt lat="47.610554" lon="19.004241">
        <ele>312.8</ele>
      </trkpt>
<trkpt lat="47.610448" lon="19.004044">
        <ele>306.2</ele>
      </trkpt>
<trkpt lat="47.610357" lon="19.003536">
        <ele>299.6</ele>
      </trkpt>
<trkpt lat="47.610383" lon="19.002974">
        <ele>293</ele>
      </trkpt>
<trkpt lat="47.610605" lon="19.002056">
        <ele>292.4</ele>
      </trkpt>
<trkpt lat="47.610663" lon="19.001616">
        <ele>290</ele>
      </trkpt>
<trkpt lat="47.610650" lon="19.001343">
        <ele>285.6</ele>
      </trkpt>
<trkpt lat="47.610774" lon="19.000820">
        <ele>281.2</ele>
      </trkpt>
<trkpt lat="47.610933" lon="19.000415">
        <ele>276.2</ele>
      </trkpt>
<trkpt lat="47.610935" lon="19.000072">
        <ele>273.4</ele>
      </trkpt>
<trkpt lat="47.611037" lon="18.999928">
        <ele>274.6</ele>
      </trkpt>
<trkpt lat="47.611093" lon="18.999339">
        <ele>275.8</ele>
      </trkpt>
<trkpt lat="47.611230" lon="18.998503">
        <ele>277</ele>
      </trkpt>
<trkpt lat="47.611323" lon="18.998374">
        <ele>281.6</ele>
      </trkpt>
<trkpt lat="47.611544" lon="18.998280">
        <ele>286.6</ele>
      </trkpt>
<trkpt lat="47.611816" lon="18.998043">
        <ele>291.2</ele>
      </trkpt>
<trkpt lat="47.612247" lon="18.997792">
        <ele>291.8</ele>
      </trkpt>
<trkpt lat="47.612689" lon="18.997334">
        <ele>292.4</ele>
      </trkpt>
<trkpt lat="47.612918" lon="18.996925">
        <ele>287</ele>
      </trkpt>
<trkpt lat="47.612692" lon="18.996722">
        <ele>281</ele>
      </trkpt>
<trkpt lat="47.612597" lon="18.996645">
        <ele>273.2</ele>
      </trkpt>
<trkpt lat="47.611395" lon="18.995669">
        <ele>268.2</ele>
      </trkpt>
<trkpt lat="47.611446" lon="18.995279">
        <ele>262.6</ele>
      </trkpt>
<trkpt lat="47.611406" lon="18.995086">
        <ele>259.4</ele>
      </trkpt>
<trkpt lat="47.610552" lon="18.994500">
        <ele>254.2</ele>
      </trkpt>
<trkpt lat="47.610659" lon="18.993458">
        <ele>247.8</ele>
      </trkpt>
<trkpt lat="47.610927" lon="18.992910">
        <ele>242.6</ele>
      </trkpt>
<trkpt lat="47.610416" lon="18.991427">
        <ele>238</ele>
      </trkpt>
<trkpt lat="47.610816" lon="18.991180">
        <ele>232.8</ele>
      </trkpt>
<trkpt lat="47.611176" lon="18.990669">
        <ele>230.2</ele>
      </trkpt>
<trkpt lat="47.610798" lon="18.990372">
        <ele>229.4</ele>
      </trkpt>
<trkpt lat="47.609928" lon="18.989522">
        <ele>230</ele>
      </trkpt>
<trkpt lat="47.610062" lon="18.989148">
        <ele>230.6</ele>
      </trkpt>
<trkpt lat="47.610346" lon="18.988207">
        <ele>232.6</ele>
      </trkpt>
<trkpt lat="47.610531" lon="18.987983">
        <ele>234.8</ele>
      </trkpt>
<trkpt lat="47.610565" lon="18.987780">
        <ele>236.4</ele>
      </trkpt>
<trkpt lat="47.610481" lon="18.987261">
        <ele>236.6</ele>
      </trkpt>
<trkpt lat="47.610525" lon="18.986763">
        <ele>237</ele>
      </trkpt>
<trkpt lat="47.610575" lon="18.986454">
        <ele>237.4</ele>
      </trkpt>
<trkpt lat="47.610591" lon="18.986341">
        <ele>237.6</ele>
      </trkpt>
<trkpt lat="47.610627" lon="18.986188">
        <ele>238.4</ele>
      </trkpt>
<trkpt lat="47.610833" lon="18.985689">
        <ele>239.2</ele>
      </trkpt>
<trkpt lat="47.610932" lon="18.985448">
        <ele>239.5</ele>
      </trkpt>
<trkpt lat="47.610646" lon="18.984987">
        <ele>240</ele>
      </trkpt>
<trkpt lat="47.610541" lon="18.984873">
        <ele>241</ele>
      </trkpt>
</trkseg>
</trk>
</gpx>



