<?xml version="1.0" encoding="UTF-8"?>
<gpx xmlns="http://www.topografix.com/GPX/1/1" creator="turistautak.openstreetmap.hu" version="1.1" xmlns:xsi="http://www.w3.org/2001/XMLSchema-instance" xsi:schemaLocation="http://www.garmin.com/xmlschemas/GpxExtensions/v3 http://www.garmin.com/xmlschemas/GpxExtensions/v3/GpxExtensionsv3.xsd http://www.topografix.com/GPX/1/1 http://www.topografix.com/GPX/1/1/gpx.xsd">
	<metadata>
		<name>1779370149p0fi útvonal</name>
		<desc>1779370149p0fi útvonal</desc>
	</metadata>
<trk>
  <name>utv</name>
<trkseg><trkpt lat="47.763724" lon="18.910986">
        <ele>113</ele>
      </trkpt>
<trkpt lat="47.763744" lon="18.910916">
        <ele>113</ele>
      </trkpt>
<trkpt lat="47.764227" lon="18.909444">
        <ele>113.8</ele>
      </trkpt>
<trkpt lat="47.764842" lon="18.907529">
        <ele>114.6</ele>
      </trkpt>
<trkpt lat="47.764753" lon="18.907358">
        <ele>118</ele>
      </trkpt>
<trkpt lat="47.764331" lon="18.906794">
        <ele>120.6</ele>
      </trkpt>
<trkpt lat="47.763789" lon="18.906283">
        <ele>125.4</ele>
      </trkpt>
<trkpt lat="47.763690" lon="18.905979">
        <ele>130.4</ele>
      </trkpt>
<trkpt lat="47.763760" lon="18.905547">
        <ele>135.4</ele>
      </trkpt>
<trkpt lat="47.763817" lon="18.905312">
        <ele>140</ele>
      </trkpt>
<trkpt lat="47.763952" lon="18.904098">
        <ele>145</ele>
      </trkpt>
<trkpt lat="47.763788" lon="18.903833">
        <ele>148.6</ele>
      </trkpt>
<trkpt lat="47.763632" lon="18.903268">
        <ele>151.8</ele>
      </trkpt>
<trkpt lat="47.763556" lon="18.903006">
        <ele>156</ele>
      </trkpt>
<trkpt lat="47.763418" lon="18.902869">
        <ele>159.4</ele>
      </trkpt>
<trkpt lat="47.762943" lon="18.901754">
        <ele>162.8</ele>
      </trkpt>
<trkpt lat="47.762558" lon="18.901294">
        <ele>165.4</ele>
      </trkpt>
<trkpt lat="47.762264" lon="18.900974">
        <ele>169.6</ele>
      </trkpt>
<trkpt lat="47.762201" lon="18.900820">
        <ele>175</ele>
      </trkpt>
<trkpt lat="47.762169" lon="18.900485">
        <ele>179.6</ele>
      </trkpt>
<trkpt lat="47.762419" lon="18.899719">
        <ele>184.2</ele>
      </trkpt>
<trkpt lat="47.762423" lon="18.899579">
        <ele>192.4</ele>
      </trkpt>
<trkpt lat="47.762380" lon="18.899209">
        <ele>205.2</ele>
      </trkpt>
<trkpt lat="47.762147" lon="18.898764">
        <ele>219</ele>
      </trkpt>
<trkpt lat="47.761610" lon="18.898432">
        <ele>234.8</ele>
      </trkpt>
<trkpt lat="47.760128" lon="18.895996">
        <ele>250.6</ele>
      </trkpt>
<trkpt lat="47.759108" lon="18.894886">
        <ele>267.2</ele>
      </trkpt>
<trkpt lat="47.758545" lon="18.894521">
        <ele>281.8</ele>
      </trkpt>
<trkpt lat="47.758068" lon="18.894481">
        <ele>293.2</ele>
      </trkpt>
<trkpt lat="47.757644" lon="18.894327">
        <ele>302.6</ele>
      </trkpt>
<trkpt lat="47.756234" lon="18.893518">
        <ele>312</ele>
      </trkpt>
<trkpt lat="47.755929" lon="18.893107">
        <ele>318.8</ele>
      </trkpt>
<trkpt lat="47.755748" lon="18.893014">
        <ele>323.8</ele>
      </trkpt>
<trkpt lat="47.755597" lon="18.893027">
        <ele>329.4</ele>
      </trkpt>
<trkpt lat="47.755055" lon="18.892639">
        <ele>335</ele>
      </trkpt>
<trkpt lat="47.754345" lon="18.892144">
        <ele>342.4</ele>
      </trkpt>
<trkpt lat="47.753395" lon="18.891682">
        <ele>348</ele>
      </trkpt>
<trkpt lat="47.753105" lon="18.891651">
        <ele>349.2</ele>
      </trkpt>
<trkpt lat="47.752876" lon="18.891785">
        <ele>349.8</ele>
      </trkpt>
<trkpt lat="47.752896" lon="18.891506">
        <ele>349.6</ele>
      </trkpt>
<trkpt lat="47.752641" lon="18.890975">
        <ele>347.6</ele>
      </trkpt>
<trkpt lat="47.752546" lon="18.890781">
        <ele>345.6</ele>
      </trkpt>
<trkpt lat="47.752381" lon="18.890293">
        <ele>344.8</ele>
      </trkpt>
<trkpt lat="47.752323" lon="18.889495">
        <ele>344</ele>
      </trkpt>
<trkpt lat="47.752239" lon="18.889280">
        <ele>343.4</ele>
      </trkpt>
<trkpt lat="47.751905" lon="18.888880">
        <ele>342.8</ele>
      </trkpt>
<trkpt lat="47.751534" lon="18.888757">
        <ele>341.8</ele>
      </trkpt>
<trkpt lat="47.751198" lon="18.888583">
        <ele>340.8</ele>
      </trkpt>
<trkpt lat="47.750963" lon="18.888000">
        <ele>339.6</ele>
      </trkpt>
<trkpt lat="47.750713" lon="18.887444">
        <ele>339</ele>
      </trkpt>
<trkpt lat="47.750687" lon="18.887040">
        <ele>337.2</ele>
      </trkpt>
<trkpt lat="47.750185" lon="18.886731">
        <ele>337.8</ele>
      </trkpt>
<trkpt lat="47.749739" lon="18.886288">
        <ele>338.4</ele>
      </trkpt>
<trkpt lat="47.749560" lon="18.885991">
        <ele>341.8</ele>
      </trkpt>
<trkpt lat="47.748461" lon="18.884225">
        <ele>345.2</ele>
      </trkpt>
<trkpt lat="47.748212" lon="18.884260">
        <ele>349.8</ele>
      </trkpt>
<trkpt lat="47.747575" lon="18.883517">
        <ele>354</ele>
      </trkpt>
<trkpt lat="47.747453" lon="18.883461">
        <ele>357.2</ele>
      </trkpt>
<trkpt lat="47.747313" lon="18.883397">
        <ele>357.8</ele>
      </trkpt>
<trkpt lat="47.746455" lon="18.882769">
        <ele>358.4</ele>
      </trkpt>
<trkpt lat="47.746077" lon="18.883027">
        <ele>360</ele>
      </trkpt>
<trkpt lat="47.745904" lon="18.883043">
        <ele>362.8</ele>
      </trkpt>
<trkpt lat="47.745704" lon="18.882989">
        <ele>366.6</ele>
      </trkpt>
<trkpt lat="47.744901" lon="18.882534">
        <ele>372.2</ele>
      </trkpt>
<trkpt lat="47.744294" lon="18.881938">
        <ele>377.8</ele>
      </trkpt>
<trkpt lat="47.743941" lon="18.881682">
        <ele>377.8</ele>
      </trkpt>
<trkpt lat="47.743690" lon="18.881675">
        <ele>375</ele>
      </trkpt>
<trkpt lat="47.743307" lon="18.881951">
        <ele>377.6</ele>
      </trkpt>
<trkpt lat="47.742956" lon="18.882166">
        <ele>375.6</ele>
      </trkpt>
<trkpt lat="47.742659" lon="18.882153">
        <ele>380</ele>
      </trkpt>
<trkpt lat="47.742356" lon="18.881938">
        <ele>389</ele>
      </trkpt>
<trkpt lat="47.741760" lon="18.881339">
        <ele>398</ele>
      </trkpt>
<trkpt lat="47.741192" lon="18.880938">
        <ele>401.6</ele>
      </trkpt>
<trkpt lat="47.740917" lon="18.880948">
        <ele>403</ele>
      </trkpt>
<trkpt lat="47.740716" lon="18.881090">
        <ele>401.2</ele>
      </trkpt>
<trkpt lat="47.740662" lon="18.881166">
        <ele>399.4</ele>
      </trkpt>
<trkpt lat="47.740461" lon="18.881642">
        <ele>397.8</ele>
      </trkpt>
<trkpt lat="47.740306" lon="18.882592">
        <ele>396.2</ele>
      </trkpt>
<trkpt lat="47.740169" lon="18.882821">
        <ele>399.6</ele>
      </trkpt>
<trkpt lat="47.739348" lon="18.883252">
        <ele>401.4</ele>
      </trkpt>
<trkpt lat="47.739181" lon="18.883178">
        <ele>403.2</ele>
      </trkpt>
<trkpt lat="47.739078" lon="18.882966">
        <ele>404</ele>
      </trkpt>
<trkpt lat="47.738947" lon="18.882288">
        <ele>404.8</ele>
      </trkpt>
<trkpt lat="47.738777" lon="18.882131">
        <ele>405.6</ele>
      </trkpt>
<trkpt lat="47.738525" lon="18.882140">
        <ele>405.4</ele>
      </trkpt>
<trkpt lat="47.738327" lon="18.882507">
        <ele>405.2</ele>
      </trkpt>
<trkpt lat="47.738286" lon="18.882904">
        <ele>407.6</ele>
      </trkpt>
<trkpt lat="47.738323" lon="18.883166">
        <ele>410</ele>
      </trkpt>
<trkpt lat="47.738433" lon="18.883431">
        <ele>412.4</ele>
      </trkpt>
<trkpt lat="47.738426" lon="18.883929">
        <ele>414.2</ele>
      </trkpt>
<trkpt lat="47.738518" lon="18.884172">
        <ele>416</ele>
      </trkpt>
<trkpt lat="47.738441" lon="18.884448">
        <ele>418.2</ele>
      </trkpt>
<trkpt lat="47.738237" lon="18.884560">
        <ele>420.6</ele>
      </trkpt>
<trkpt lat="47.738129" lon="18.884528">
        <ele>421.4</ele>
      </trkpt>
<trkpt lat="47.737716" lon="18.884920">
        <ele>422.2</ele>
      </trkpt>
<trkpt lat="47.738443" lon="18.885128">
        <ele>423</ele>
      </trkpt>
<trkpt lat="47.739090" lon="18.884997">
        <ele>419.4</ele>
      </trkpt>
<trkpt lat="47.739265" lon="18.885143">
        <ele>422.8</ele>
      </trkpt>
<trkpt lat="47.739460" lon="18.885171">
        <ele>427.8</ele>
      </trkpt>
<trkpt lat="47.739627" lon="18.885321">
        <ele>436.4</ele>
      </trkpt>
<trkpt lat="47.739207" lon="18.885618">
        <ele>445</ele>
      </trkpt>
<trkpt lat="47.739068" lon="18.885700">
        <ele>457.8</ele>
      </trkpt>
<trkpt lat="47.738661" lon="18.886815">
        <ele>463.4</ele>
      </trkpt>
<trkpt lat="47.738637" lon="18.887043">
        <ele>469</ele>
      </trkpt>
<trkpt lat="47.738830" lon="18.887272">
        <ele>471</ele>
      </trkpt>
<trkpt lat="47.738878" lon="18.887386">
        <ele>473</ele>
      </trkpt>
<trkpt lat="47.738801" lon="18.887558">
        <ele>471</ele>
      </trkpt>
<trkpt lat="47.738878" lon="18.887386">
        <ele>469</ele>
      </trkpt>
<trkpt lat="47.738830" lon="18.887272">
        <ele>463.4</ele>
      </trkpt>
<trkpt lat="47.738637" lon="18.887043">
        <ele>457.8</ele>
      </trkpt>
<trkpt lat="47.738661" lon="18.886815">
        <ele>452.2</ele>
      </trkpt>
<trkpt lat="47.739068" lon="18.885700">
        <ele>443.6</ele>
      </trkpt>
<trkpt lat="47.739207" lon="18.885618">
        <ele>436.6</ele>
      </trkpt>
<trkpt lat="47.739133" lon="18.885495">
        <ele>434.4</ele>
      </trkpt>
<trkpt lat="47.738831" lon="18.885342">
        <ele>432.2</ele>
      </trkpt>
<trkpt lat="47.738027" lon="18.885413">
        <ele>428.6</ele>
      </trkpt>
<trkpt lat="47.737439" lon="18.885642">
        <ele>429</ele>
      </trkpt>
<trkpt lat="47.737218" lon="18.885853">
        <ele>427.8</ele>
      </trkpt>
<trkpt lat="47.736922" lon="18.886157">
        <ele>424</ele>
      </trkpt>
<trkpt lat="47.736797" lon="18.886433">
        <ele>420.8</ele>
      </trkpt>
<trkpt lat="47.736785" lon="18.886626">
        <ele>417.6</ele>
      </trkpt>
<trkpt lat="47.736300" lon="18.887146">
        <ele>415.4</ele>
      </trkpt>
<trkpt lat="47.735722" lon="18.887829">
        <ele>411.8</ele>
      </trkpt>
<trkpt lat="47.735561" lon="18.887948">
        <ele>410.4</ele>
      </trkpt>
<trkpt lat="47.735261" lon="18.888941">
        <ele>408.4</ele>
      </trkpt>
<trkpt lat="47.734876" lon="18.889692">
        <ele>409.8</ele>
      </trkpt>
<trkpt lat="47.734483" lon="18.890188">
        <ele>411.2</ele>
      </trkpt>
<trkpt lat="47.733966" lon="18.890410">
        <ele>416</ele>
      </trkpt>
<trkpt lat="47.733624" lon="18.890684">
        <ele>420</ele>
      </trkpt>
<trkpt lat="47.733314" lon="18.891031">
        <ele>424</ele>
      </trkpt>
<trkpt lat="47.732953" lon="18.891542">
        <ele>430.6</ele>
      </trkpt>
<trkpt lat="47.732963" lon="18.891943">
        <ele>438.4</ele>
      </trkpt>
<trkpt lat="47.732938" lon="18.892063">
        <ele>444.2</ele>
      </trkpt>
<trkpt lat="47.732726" lon="18.892855">
        <ele>449.6</ele>
      </trkpt>
<trkpt lat="47.732775" lon="18.893287">
        <ele>456</ele>
      </trkpt>
<trkpt lat="47.732639" lon="18.893505">
        <ele>457.8</ele>
      </trkpt>
<trkpt lat="47.732283" lon="18.893802">
        <ele>457.4</ele>
      </trkpt>
<trkpt lat="47.731951" lon="18.894262">
        <ele>457</ele>
      </trkpt>
<trkpt lat="47.731618" lon="18.894399">
        <ele>457</ele>
      </trkpt>
<trkpt lat="47.731242" lon="18.894789">
        <ele>456</ele>
      </trkpt>
<trkpt lat="47.731151" lon="18.894816">
        <ele>455</ele>
      </trkpt>
<trkpt lat="47.731027" lon="18.894462">
        <ele>454</ele>
      </trkpt>
<trkpt lat="47.730863" lon="18.894274">
        <ele>453</ele>
      </trkpt>
<trkpt lat="47.730621" lon="18.894661">
        <ele>452</ele>
      </trkpt>
<trkpt lat="47.730347" lon="18.895052">
        <ele>451</ele>
      </trkpt>
<trkpt lat="47.730272" lon="18.895087">
        <ele>450.8</ele>
      </trkpt>
<trkpt lat="47.730212" lon="18.895114">
        <ele>451.6</ele>
      </trkpt>
<trkpt lat="47.729878" lon="18.895103">
        <ele>452.4</ele>
      </trkpt>
<trkpt lat="47.729403" lon="18.894948">
        <ele>453.8</ele>
      </trkpt>
<trkpt lat="47.729126" lon="18.895063">
        <ele>457.2</ele>
      </trkpt>
<trkpt lat="47.728833" lon="18.895362">
        <ele>459.8</ele>
      </trkpt>
<trkpt lat="47.728714" lon="18.895531">
        <ele>462.4</ele>
      </trkpt>
<trkpt lat="47.728451" lon="18.895337">
        <ele>465.6</ele>
      </trkpt>
<trkpt lat="47.728174" lon="18.895298">
        <ele>473.8</ele>
      </trkpt>
<trkpt lat="47.728015" lon="18.895347">
        <ele>480</ele>
      </trkpt>
<trkpt lat="47.727323" lon="18.895536">
        <ele>484</ele>
      </trkpt>
<trkpt lat="47.726943" lon="18.895798">
        <ele>489.8</ele>
      </trkpt>
<trkpt lat="47.726621" lon="18.896118">
        <ele>495</ele>
      </trkpt>
<trkpt lat="47.726363" lon="18.896561">
        <ele>496.4</ele>
      </trkpt>
<trkpt lat="47.726208" lon="18.896667">
        <ele>496.4</ele>
      </trkpt>
<trkpt lat="47.725896" lon="18.896642">
        <ele>498.6</ele>
      </trkpt>
<trkpt lat="47.725065" lon="18.896752">
        <ele>500</ele>
      </trkpt>
<trkpt lat="47.724880" lon="18.897123">
        <ele>501.4</ele>
      </trkpt>
<trkpt lat="47.724851" lon="18.897231">
        <ele>505.2</ele>
      </trkpt>
<trkpt lat="47.724709" lon="18.898001">
        <ele>508.6</ele>
      </trkpt>
<trkpt lat="47.724688" lon="18.898147">
        <ele>513.4</ele>
      </trkpt>
<trkpt lat="47.724397" lon="18.898549">
        <ele>523.8</ele>
      </trkpt>
<trkpt lat="47.724105" lon="18.898937">
        <ele>534.2</ele>
      </trkpt>
<trkpt lat="47.723183" lon="18.899723">
        <ele>541.2</ele>
      </trkpt>
<trkpt lat="47.722679" lon="18.899991">
        <ele>546.6</ele>
      </trkpt>
<trkpt lat="47.722632" lon="18.900210">
        <ele>550.6</ele>
      </trkpt>
<trkpt lat="47.722790" lon="18.900476">
        <ele>548</ele>
      </trkpt>
<trkpt lat="47.723132" lon="18.901329">
        <ele>545.4</ele>
      </trkpt>
<trkpt lat="47.723537" lon="18.901693">
        <ele>543.2</ele>
      </trkpt>
<trkpt lat="47.723716" lon="18.902047">
        <ele>544.4</ele>
      </trkpt>
<trkpt lat="47.723758" lon="18.902743">
        <ele>546.8</ele>
      </trkpt>
<trkpt lat="47.723535" lon="18.903308">
        <ele>549.2</ele>
      </trkpt>
<trkpt lat="47.723481" lon="18.903266">
        <ele>557.2</ele>
      </trkpt>
<trkpt lat="47.723257" lon="18.902640">
        <ele>564</ele>
      </trkpt>
<trkpt lat="47.722943" lon="18.902571">
        <ele>578.8</ele>
      </trkpt>
<trkpt lat="47.722641" lon="18.902410">
        <ele>592.4</ele>
      </trkpt>
<trkpt lat="47.722358" lon="18.902280">
        <ele>606</ele>
      </trkpt>
<trkpt lat="47.722062" lon="18.902057">
        <ele>614</ele>
      </trkpt>
<trkpt lat="47.721756" lon="18.901957">
        <ele>629.6</ele>
      </trkpt>
<trkpt lat="47.721284" lon="18.901949">
        <ele>637.2</ele>
      </trkpt>
<trkpt lat="47.721261" lon="18.901738">
        <ele>644.8</ele>
      </trkpt>
<trkpt lat="47.721142" lon="18.901682">
        <ele>658.4</ele>
      </trkpt>
<trkpt lat="47.720587" lon="18.901721">
        <ele>672</ele>
      </trkpt>
<trkpt lat="47.720453" lon="18.901640">
        <ele>678</ele>
      </trkpt>
<trkpt lat="47.720170" lon="18.901561">
        <ele>683.8</ele>
      </trkpt>
<trkpt lat="47.720013" lon="18.901400">
        <ele>689.6</ele>
      </trkpt>
<trkpt lat="47.719877" lon="18.901346">
        <ele>688</ele>
      </trkpt>
<trkpt lat="47.719534" lon="18.902207">
        <ele>686.2</ele>
      </trkpt>
<trkpt lat="47.719129" lon="18.902912">
        <ele>684.4</ele>
      </trkpt>
<trkpt lat="47.718991" lon="18.903334">
        <ele>682.8</ele>
      </trkpt>
<trkpt lat="47.718447" lon="18.904758">
        <ele>680.6</ele>
      </trkpt>
<trkpt lat="47.718458" lon="18.904923">
        <ele>680.2</ele>
      </trkpt>
<trkpt lat="47.718058" lon="18.905275">
        <ele>680</ele>
      </trkpt>
<trkpt lat="47.718045" lon="18.905684">
        <ele>680.4</ele>
      </trkpt>
<trkpt lat="47.717875" lon="18.905987">
        <ele>680.8</ele>
      </trkpt>
<trkpt lat="47.717660" lon="18.906182">
        <ele>681.6</ele>
      </trkpt>
<trkpt lat="47.716539" lon="18.908886">
        <ele>683</ele>
      </trkpt>
<trkpt lat="47.716362" lon="18.908831">
        <ele>684</ele>
      </trkpt>
<trkpt lat="47.715728" lon="18.909531">
        <ele>683.4</ele>
      </trkpt>
<trkpt lat="47.715676" lon="18.909725">
        <ele>681.6</ele>
      </trkpt>
<trkpt lat="47.715704" lon="18.910532">
        <ele>676.6</ele>
      </trkpt>
<trkpt lat="47.715467" lon="18.911300">
        <ele>670.4</ele>
      </trkpt>
<trkpt lat="47.714963" lon="18.912087">
        <ele>664.4</ele>
      </trkpt>
<trkpt lat="47.714047" lon="18.914653">
        <ele>658.2</ele>
      </trkpt>
<trkpt lat="47.713602" lon="18.915470">
        <ele>653.2</ele>
      </trkpt>
<trkpt lat="47.713852" lon="18.916006">
        <ele>650.4</ele>
      </trkpt>
<trkpt lat="47.713879" lon="18.916280">
        <ele>647.8</ele>
      </trkpt>
<trkpt lat="47.713757" lon="18.916975">
        <ele>644</ele>
      </trkpt>
<trkpt lat="47.713765" lon="18.917198">
        <ele>640.8</ele>
      </trkpt>
<trkpt lat="47.713908" lon="18.917809">
        <ele>636.8</ele>
      </trkpt>
<trkpt lat="47.713928" lon="18.918532">
        <ele>634</ele>
      </trkpt>
<trkpt lat="47.714069" lon="18.919246">
        <ele>629.6</ele>
      </trkpt>
<trkpt lat="47.714064" lon="18.919727">
        <ele>624.8</ele>
      </trkpt>
<trkpt lat="47.714155" lon="18.920158">
        <ele>620.6</ele>
      </trkpt>
<trkpt lat="47.714120" lon="18.921089">
        <ele>615.6</ele>
      </trkpt>
<trkpt lat="47.714127" lon="18.921506">
        <ele>610.6</ele>
      </trkpt>
<trkpt lat="47.714069" lon="18.921898">
        <ele>604.8</ele>
      </trkpt>
<trkpt lat="47.714114" lon="18.922241">
        <ele>600.8</ele>
      </trkpt>
<trkpt lat="47.714053" lon="18.922465">
        <ele>594.4</ele>
      </trkpt>
<trkpt lat="47.714091" lon="18.923438">
        <ele>587.8</ele>
      </trkpt>
<trkpt lat="47.714158" lon="18.923645">
        <ele>581.2</ele>
      </trkpt>
<trkpt lat="47.714632" lon="18.924245">
        <ele>577</ele>
      </trkpt>
<trkpt lat="47.714792" lon="18.924586">
        <ele>572.8</ele>
      </trkpt>
<trkpt lat="47.714893" lon="18.925088">
        <ele>567.2</ele>
      </trkpt>
<trkpt lat="47.714973" lon="18.925264">
        <ele>563.4</ele>
      </trkpt>
<trkpt lat="47.715106" lon="18.925393">
        <ele>559.6</ele>
      </trkpt>
<trkpt lat="47.715486" lon="18.925584">
        <ele>555.8</ele>
      </trkpt>
<trkpt lat="47.715704" lon="18.925839">
        <ele>546.6</ele>
      </trkpt>
<trkpt lat="47.716087" lon="18.925941">
        <ele>541.2</ele>
      </trkpt>
<trkpt lat="47.716215" lon="18.926095">
        <ele>532</ele>
      </trkpt>
<trkpt lat="47.716325" lon="18.926560">
        <ele>522.8</ele>
      </trkpt>
<trkpt lat="47.716526" lon="18.926803">
        <ele>509</ele>
      </trkpt>
<trkpt lat="47.717461" lon="18.926751">
        <ele>499.2</ele>
      </trkpt>
<trkpt lat="47.717721" lon="18.926960">
        <ele>489</ele>
      </trkpt>
<trkpt lat="47.718178" lon="18.927620">
        <ele>480.8</ele>
      </trkpt>
<trkpt lat="47.717300" lon="18.929481">
        <ele>471.2</ele>
      </trkpt>
<trkpt lat="47.717015" lon="18.930223">
        <ele>463.8</ele>
      </trkpt>
<trkpt lat="47.717084" lon="18.930522">
        <ele>457.8</ele>
      </trkpt>
<trkpt lat="47.717175" lon="18.931456">
        <ele>452.2</ele>
      </trkpt>
<trkpt lat="47.717352" lon="18.932176">
        <ele>445.4</ele>
      </trkpt>
<trkpt lat="47.717350" lon="18.932488">
        <ele>440</ele>
      </trkpt>
<trkpt lat="47.717477" lon="18.932632">
        <ele>437</ele>
      </trkpt>
<trkpt lat="47.717611" lon="18.933011">
        <ele>434</ele>
      </trkpt>
<trkpt lat="47.717624" lon="18.933406">
        <ele>431.2</ele>
      </trkpt>
<trkpt lat="47.717786" lon="18.933476">
        <ele>431.4</ele>
      </trkpt>
<trkpt lat="47.717766" lon="18.933591">
        <ele>431.6</ele>
      </trkpt>
<trkpt lat="47.717346" lon="18.933939">
        <ele>433.4</ele>
      </trkpt>
<trkpt lat="47.717127" lon="18.934214">
        <ele>438.2</ele>
      </trkpt>
<trkpt lat="47.717307" lon="18.934565">
        <ele>442.8</ele>
      </trkpt>
<trkpt lat="47.717538" lon="18.934758">
        <ele>450.6</ele>
      </trkpt>
<trkpt lat="47.717934" lon="18.935391">
        <ele>462.8</ele>
      </trkpt>
<trkpt lat="47.718433" lon="18.935794">
        <ele>476.8</ele>
      </trkpt>
<trkpt lat="47.719395" lon="18.936228">
        <ele>488.6</ele>
      </trkpt>
<trkpt lat="47.720371" lon="18.936868">
        <ele>500.4</ele>
      </trkpt>
<trkpt lat="47.720460" lon="18.936932">
        <ele>513.8</ele>
      </trkpt>
<trkpt lat="47.720983" lon="18.937445">
        <ele>518</ele>
      </trkpt>
<trkpt lat="47.721145" lon="18.937519">
        <ele>518.8</ele>
      </trkpt>
<trkpt lat="47.721599" lon="18.938036">
        <ele>518</ele>
      </trkpt>
<trkpt lat="47.721145" lon="18.937519">
        <ele>517.6</ele>
      </trkpt>
<trkpt lat="47.721144" lon="18.937109">
        <ele>514.4</ele>
      </trkpt>
<trkpt lat="47.720943" lon="18.936557">
        <ele>516.8</ele>
      </trkpt>
<trkpt lat="47.721541" lon="18.936249">
        <ele>521.6</ele>
      </trkpt>
<trkpt lat="47.722668" lon="18.935845">
        <ele>527.2</ele>
      </trkpt>
<trkpt lat="47.723099" lon="18.936033">
        <ele>532.4</ele>
      </trkpt>
<trkpt lat="47.723469" lon="18.936536">
        <ele>537.6</ele>
      </trkpt>
<trkpt lat="47.723636" lon="18.936533">
        <ele>540.4</ele>
      </trkpt>
<trkpt lat="47.723712" lon="18.936468">
        <ele>542.8</ele>
      </trkpt>
<trkpt lat="47.723806" lon="18.936375">
        <ele>545.2</ele>
      </trkpt>
<trkpt lat="47.724234" lon="18.935602">
        <ele>548.8</ele>
      </trkpt>
<trkpt lat="47.724711" lon="18.935081">
        <ele>551.6</ele>
      </trkpt>
<trkpt lat="47.725109" lon="18.934831">
        <ele>556.8</ele>
      </trkpt>
<trkpt lat="47.726006" lon="18.934776">
        <ele>559.6</ele>
      </trkpt>
<trkpt lat="47.727617" lon="18.933727">
        <ele>562.4</ele>
      </trkpt>
<trkpt lat="47.728038" lon="18.933672">
        <ele>564.8</ele>
      </trkpt>
<trkpt lat="47.728759" lon="18.933873">
        <ele>566</ele>
      </trkpt>
<trkpt lat="47.729266" lon="18.934130">
        <ele>565.4</ele>
      </trkpt>
<trkpt lat="47.729665" lon="18.934281">
        <ele>568.6</ele>
      </trkpt>
<trkpt lat="47.729878" lon="18.934301">
        <ele>570.6</ele>
      </trkpt>
<trkpt lat="47.730676" lon="18.933865">
        <ele>574.8</ele>
      </trkpt>
<trkpt lat="47.731041" lon="18.933551">
        <ele>580.4</ele>
      </trkpt>
<trkpt lat="47.731312" lon="18.933062">
        <ele>586.6</ele>
      </trkpt>
<trkpt lat="47.731704" lon="18.932576">
        <ele>589.4</ele>
      </trkpt>
<trkpt lat="47.731887" lon="18.931943">
        <ele>595.4</ele>
      </trkpt>
<trkpt lat="47.732180" lon="18.931687">
        <ele>598.8</ele>
      </trkpt>
<trkpt lat="47.732411" lon="18.931554">
        <ele>600.2</ele>
      </trkpt>
<trkpt lat="47.733058" lon="18.930855">
        <ele>602</ele>
      </trkpt>
<trkpt lat="47.733535" lon="18.929769">
        <ele>605</ele>
      </trkpt>
<trkpt lat="47.733948" lon="18.929316">
        <ele>602.4</ele>
      </trkpt>
<trkpt lat="47.734006" lon="18.929089">
        <ele>602.8</ele>
      </trkpt>
<trkpt lat="47.734532" lon="18.928740">
        <ele>603.8</ele>
      </trkpt>
<trkpt lat="47.735456" lon="18.927917">
        <ele>605</ele>
      </trkpt>
<trkpt lat="47.735707" lon="18.927457">
        <ele>604.4</ele>
      </trkpt>
<trkpt lat="47.735729" lon="18.927176">
        <ele>609.2</ele>
      </trkpt>
<trkpt lat="47.735600" lon="18.926538">
        <ele>610.6</ele>
      </trkpt>
<trkpt lat="47.735658" lon="18.924900">
        <ele>614.6</ele>
      </trkpt>
<trkpt lat="47.735499" lon="18.924245">
        <ele>617</ele>
      </trkpt>
<trkpt lat="47.735499" lon="18.924017">
        <ele>622</ele>
      </trkpt>
<trkpt lat="47.735889" lon="18.923400">
        <ele>626</ele>
      </trkpt>
<trkpt lat="47.736874" lon="18.923048">
        <ele>630.2</ele>
      </trkpt>
<trkpt lat="47.737825" lon="18.922535">
        <ele>631.8</ele>
      </trkpt>
<trkpt lat="47.738520" lon="18.921367">
        <ele>634.8</ele>
      </trkpt>
<trkpt lat="47.739102" lon="18.920819">
        <ele>635.6</ele>
      </trkpt>
<trkpt lat="47.739317" lon="18.920724">
        <ele>634.8</ele>
      </trkpt>
<trkpt lat="47.739102" lon="18.920819">
        <ele>631.8</ele>
      </trkpt>
<trkpt lat="47.738520" lon="18.921367">
        <ele>630.2</ele>
      </trkpt>
<trkpt lat="47.737825" lon="18.922535">
        <ele>626</ele>
      </trkpt>
<trkpt lat="47.736874" lon="18.923048">
        <ele>622</ele>
      </trkpt>
<trkpt lat="47.735889" lon="18.923400">
        <ele>617</ele>
      </trkpt>
<trkpt lat="47.735499" lon="18.924017">
        <ele>614.6</ele>
      </trkpt>
<trkpt lat="47.735499" lon="18.924245">
        <ele>610.6</ele>
      </trkpt>
<trkpt lat="47.735658" lon="18.924900">
        <ele>609.2</ele>
      </trkpt>
<trkpt lat="47.735600" lon="18.926538">
        <ele>602</ele>
      </trkpt>
<trkpt lat="47.735729" lon="18.927176">
        <ele>602.4</ele>
      </trkpt>
<trkpt lat="47.736070" lon="18.927281">
        <ele>602.2</ele>
      </trkpt>
<trkpt lat="47.736314" lon="18.927507">
        <ele>596.4</ele>
      </trkpt>
<trkpt lat="47.736147" lon="18.927659">
        <ele>590.6</ele>
      </trkpt>
<trkpt lat="47.736186" lon="18.927744">
        <ele>590.6</ele>
      </trkpt>
<trkpt lat="47.736426" lon="18.927595">
        <ele>584.8</ele>
      </trkpt>
<trkpt lat="47.736475" lon="18.927637">
        <ele>572</ele>
      </trkpt>
<trkpt lat="47.736503" lon="18.927661">
        <ele>565</ele>
      </trkpt>
<trkpt lat="47.736969" lon="18.927870">
        <ele>552.8</ele>
      </trkpt>
<trkpt lat="47.737225" lon="18.927940">
        <ele>540.6</ele>
      </trkpt>
<trkpt lat="47.737797" lon="18.928125">
        <ele>528.4</ele>
      </trkpt>
<trkpt lat="47.738297" lon="18.928524">
        <ele>523.2</ele>
      </trkpt>
<trkpt lat="47.738368" lon="18.928638">
        <ele>515.6</ele>
      </trkpt>
<trkpt lat="47.738490" lon="18.928694">
        <ele>516.6</ele>
      </trkpt>
<trkpt lat="47.738496" lon="18.928586">
        <ele>526.4</ele>
      </trkpt>
<trkpt lat="47.738105" lon="18.927797">
        <ele>526.8</ele>
      </trkpt>
<trkpt lat="47.737358" lon="18.926739">
        <ele>530.8</ele>
      </trkpt>
<trkpt lat="47.737054" lon="18.925768">
        <ele>533.4</ele>
      </trkpt>
<trkpt lat="47.737150" lon="18.925425">
        <ele>529.6</ele>
      </trkpt>
<trkpt lat="47.737302" lon="18.925243">
        <ele>517</ele>
      </trkpt>
<trkpt lat="47.738377" lon="18.925031">
        <ele>508.8</ele>
      </trkpt>
<trkpt lat="47.739142" lon="18.925138">
        <ele>502.6</ele>
      </trkpt>
<trkpt lat="47.739425" lon="18.925078">
        <ele>500.2</ele>
      </trkpt>
<trkpt lat="47.739595" lon="18.924912">
        <ele>500.8</ele>
      </trkpt>
<trkpt lat="47.739798" lon="18.924187">
        <ele>501.4</ele>
      </trkpt>
<trkpt lat="47.739981" lon="18.923934">
        <ele>501.4</ele>
      </trkpt>
<trkpt lat="47.740283" lon="18.923922">
        <ele>490.6</ele>
      </trkpt>
<trkpt lat="47.740403" lon="18.924025">
        <ele>483.8</ele>
      </trkpt>
<trkpt lat="47.740821" lon="18.924691">
        <ele>477</ele>
      </trkpt>
<trkpt lat="47.741205" lon="18.925609">
        <ele>470.2</ele>
      </trkpt>
<trkpt lat="47.741337" lon="18.925734">
        <ele>471</ele>
      </trkpt>
<trkpt lat="47.741690" lon="18.925697">
        <ele>468.4</ele>
      </trkpt>
<trkpt lat="47.741953" lon="18.925810">
        <ele>461.8</ele>
      </trkpt>
<trkpt lat="47.742230" lon="18.926243">
        <ele>454</ele>
      </trkpt>
<trkpt lat="47.743299" lon="18.927245">
        <ele>444</ele>
      </trkpt>
<trkpt lat="47.743493" lon="18.927240">
        <ele>442.8</ele>
      </trkpt>
<trkpt lat="47.743869" lon="18.926296">
        <ele>450.2</ele>
      </trkpt>
<trkpt lat="47.743850" lon="18.926075">
        <ele>459</ele>
      </trkpt>
<trkpt lat="47.742753" lon="18.922615">
        <ele>469</ele>
      </trkpt>
<trkpt lat="47.742733" lon="18.922267">
        <ele>476.6</ele>
      </trkpt>
<trkpt lat="47.742778" lon="18.922055">
        <ele>467.2</ele>
      </trkpt>
<trkpt lat="47.742864" lon="18.921922">
        <ele>455.2</ele>
      </trkpt>
<trkpt lat="47.743205" lon="18.921891">
        <ele>439.4</ele>
      </trkpt>
<trkpt lat="47.744099" lon="18.922213">
        <ele>423.6</ele>
      </trkpt>
<trkpt lat="47.745456" lon="18.923072">
        <ele>409.8</ele>
      </trkpt>
<trkpt lat="47.746829" lon="18.924434">
        <ele>402.2</ele>
      </trkpt>
<trkpt lat="47.747076" lon="18.924430">
        <ele>394.4</ele>
      </trkpt>
<trkpt lat="47.748104" lon="18.923679">
        <ele>387.8</ele>
      </trkpt>
<trkpt lat="47.748654" lon="18.923630">
        <ele>380.4</ele>
      </trkpt>
<trkpt lat="47.749290" lon="18.924086">
        <ele>375.6</ele>
      </trkpt>
<trkpt lat="47.749623" lon="18.924472">
        <ele>368.2</ele>
      </trkpt>
<trkpt lat="47.749877" lon="18.924939">
        <ele>363.6</ele>
      </trkpt>
<trkpt lat="47.749893" lon="18.925233">
        <ele>362.4</ele>
      </trkpt>
<trkpt lat="47.749740" lon="18.925428">
        <ele>362</ele>
      </trkpt>
<trkpt lat="47.749605" lon="18.925467">
        <ele>361.8</ele>
      </trkpt>
<trkpt lat="47.749053" lon="18.925321">
        <ele>364.2</ele>
      </trkpt>
<trkpt lat="47.748772" lon="18.925382">
        <ele>359.2</ele>
      </trkpt>
<trkpt lat="47.748655" lon="18.925556">
        <ele>356.2</ele>
      </trkpt>
<trkpt lat="47.748671" lon="18.926035">
        <ele>350.4</ele>
      </trkpt>
<trkpt lat="47.748764" lon="18.927097">
        <ele>341.6</ele>
      </trkpt>
<trkpt lat="47.748650" lon="18.927601">
        <ele>332.8</ele>
      </trkpt>
<trkpt lat="47.748327" lon="18.928632">
        <ele>331.4</ele>
      </trkpt>
<trkpt lat="47.748402" lon="18.928941">
        <ele>324.4</ele>
      </trkpt>
<trkpt lat="47.748501" lon="18.929028">
        <ele>323</ele>
      </trkpt>
<trkpt lat="47.748614" lon="18.929030">
        <ele>324.4</ele>
      </trkpt>
<trkpt lat="47.748782" lon="18.928858">
        <ele>325.6</ele>
      </trkpt>
<trkpt lat="47.749278" lon="18.927433">
        <ele>322.6</ele>
      </trkpt>
<trkpt lat="47.749511" lon="18.927101">
        <ele>321</ele>
      </trkpt>
<trkpt lat="47.749784" lon="18.927019">
        <ele>315.6</ele>
      </trkpt>
<trkpt lat="47.750867" lon="18.927248">
        <ele>308.6</ele>
      </trkpt>
<trkpt lat="47.751167" lon="18.927397">
        <ele>299.8</ele>
      </trkpt>
<trkpt lat="47.751376" lon="18.927438">
        <ele>295.2</ele>
      </trkpt>
<trkpt lat="47.752886" lon="18.927413">
        <ele>290.6</ele>
      </trkpt>
<trkpt lat="47.752941" lon="18.927412">
        <ele>287.2</ele>
      </trkpt>
<trkpt lat="47.753065" lon="18.927296">
        <ele>288.4</ele>
      </trkpt>
<trkpt lat="47.753036" lon="18.927154">
        <ele>291.6</ele>
      </trkpt>
<trkpt lat="47.752115" lon="18.926475">
        <ele>291.4</ele>
      </trkpt>
<trkpt lat="47.751979" lon="18.926219">
        <ele>290.2</ele>
      </trkpt>
<trkpt lat="47.752050" lon="18.925928">
        <ele>288.8</ele>
      </trkpt>
<trkpt lat="47.752360" lon="18.925688">
        <ele>282.4</ele>
      </trkpt>
<trkpt lat="47.753074" lon="18.925407">
        <ele>276</ele>
      </trkpt>
<trkpt lat="47.753323" lon="18.925241">
        <ele>273</ele>
      </trkpt>
<trkpt lat="47.753393" lon="18.925447">
        <ele>271</ele>
      </trkpt>
<trkpt lat="47.753328" lon="18.926130">
        <ele>266</ele>
      </trkpt>
<trkpt lat="47.753399" lon="18.926158">
        <ele>263</ele>
      </trkpt>
<trkpt lat="47.753507" lon="18.925998">
        <ele>259.2</ele>
      </trkpt>
<trkpt lat="47.753822" lon="18.925181">
        <ele>255.4</ele>
      </trkpt>
<trkpt lat="47.754333" lon="18.924917">
        <ele>247.8</ele>
      </trkpt>
<trkpt lat="47.754675" lon="18.924578">
        <ele>239.6</ele>
      </trkpt>
<trkpt lat="47.755146" lon="18.924313">
        <ele>231.4</ele>
      </trkpt>
<trkpt lat="47.755471" lon="18.924202">
        <ele>225</ele>
      </trkpt>
<trkpt lat="47.756333" lon="18.924200">
        <ele>218.6</ele>
      </trkpt>
<trkpt lat="47.756629" lon="18.923774">
        <ele>214.2</ele>
      </trkpt>
<trkpt lat="47.756794" lon="18.923354">
        <ele>213.4</ele>
      </trkpt>
<trkpt lat="47.756802" lon="18.923141">
        <ele>212.6</ele>
      </trkpt>
<trkpt lat="47.756701" lon="18.922885">
        <ele>210.8</ele>
      </trkpt>
<trkpt lat="47.756492" lon="18.922698">
        <ele>204</ele>
      </trkpt>
<trkpt lat="47.756516" lon="18.922540">
        <ele>199</ele>
      </trkpt>
<trkpt lat="47.756770" lon="18.922599">
        <ele>194</ele>
      </trkpt>
<trkpt lat="47.757226" lon="18.922199">
        <ele>189</ele>
      </trkpt>
<trkpt lat="47.757420" lon="18.922177">
        <ele>178.2</ele>
      </trkpt>
<trkpt lat="47.757621" lon="18.922465">
        <ele>168.2</ele>
      </trkpt>
<trkpt lat="47.757897" lon="18.922274">
        <ele>158.2</ele>
      </trkpt>
<trkpt lat="47.757985" lon="18.922341">
        <ele>148.2</ele>
      </trkpt>
<trkpt lat="47.758935" lon="18.922359">
        <ele>138.2</ele>
      </trkpt>
<trkpt lat="47.759422" lon="18.922474">
        <ele>134</ele>
      </trkpt>
<trkpt lat="47.759485" lon="18.922044">
        <ele>131</ele>
      </trkpt>
<trkpt lat="47.759575" lon="18.922016">
        <ele>128</ele>
      </trkpt>
<trkpt lat="47.759582" lon="18.921929">
        <ele>125</ele>
      </trkpt>
<trkpt lat="47.759642" lon="18.921434">
        <ele>119.6</ele>
      </trkpt>
<trkpt lat="47.760155" lon="18.921666">
        <ele>113.4</ele>
      </trkpt>
<trkpt lat="47.760411" lon="18.921771">
        <ele>110.2</ele>
      </trkpt>
<trkpt lat="47.760843" lon="18.921810">
        <ele>107.2</ele>
      </trkpt>
<trkpt lat="47.761525" lon="18.920310">
        <ele>104.2</ele>
      </trkpt>
<trkpt lat="47.761651" lon="18.919983">
        <ele>104.2</ele>
      </trkpt>
<trkpt lat="47.762311" lon="18.919015">
        <ele>105.2</ele>
      </trkpt>
<trkpt lat="47.762424" lon="18.918901">
        <ele>106.2</ele>
      </trkpt>
<trkpt lat="47.762845" lon="18.917826">
        <ele>107.6</ele>
      </trkpt>
<trkpt lat="47.763276" lon="18.916735">
        <ele>109</ele>
      </trkpt>
<trkpt lat="47.763338" lon="18.916496">
        <ele>109.8</ele>
      </trkpt>
<trkpt lat="47.763409" lon="18.916124">
        <ele>110.6</ele>
      </trkpt>
<trkpt lat="47.763413" lon="18.915588">
        <ele>111.4</ele>
      </trkpt>
<trkpt lat="47.763410" lon="18.915515">
        <ele>111.6</ele>
      </trkpt>
<trkpt lat="47.763619" lon="18.915239">
        <ele>112</ele>
      </trkpt>
<trkpt lat="47.763625" lon="18.915078">
        <ele>111.2</ele>
      </trkpt>
<trkpt lat="47.763670" lon="18.914718">
        <ele>110</ele>
      </trkpt>
<trkpt lat="47.763694" lon="18.914524">
        <ele>110</ele>
      </trkpt>
<trkpt lat="47.763819" lon="18.913642">
        <ele>109.8</ele>
      </trkpt>
<trkpt lat="47.763772" lon="18.912845">
        <ele>110</ele>
      </trkpt>
<trkpt lat="47.763650" lon="18.912189">
        <ele>110.75</ele>
      </trkpt>
<trkpt lat="47.763621" lon="18.911712">
        <ele>112.33333333333</ele>
      </trkpt>
<trkpt lat="47.763724" lon="18.910986">
        <ele>112.5</ele>
      </trkpt>
</trkseg>
</trk>
</gpx>



