<?xml version='1.0' encoding='UTF-8'?>
<gpx version="1.1" creator="https://www.komoot.de" xmlns="http://www.topografix.com/GPX/1/1" xmlns:xsi="http://www.w3.org/2001/XMLSchema-instance" xsi:schemaLocation="http://www.topografix.com/GPX/1/1 http://www.topografix.com/GPX/1/1/gpx.xsd">
  <metadata>
    <name>predikalo_dobogoko21.2</name>
    <author>
      <link href="https://www.komoot.de">
        <text>komoot</text>
        <type>text/html</type>
      </link>
    </author>
  </metadata>
  <trk>
    <name>predikalo_dobogoko21.2</name>
    <trkseg>
      <trkpt lat="47.718994" lon="18.897447">
        <ele>690.554396</ele>
        <time>2026-06-10T13:15:37.794Z</time>
      </trkpt>
      <trkpt lat="47.718993" lon="18.897454">
        <ele>690.554396</ele>
        <time>2026-06-10T13:15:38.294Z</time>
      </trkpt>
      <trkpt lat="47.718936" lon="18.898063">
        <ele>690.554396</ele>
        <time>2026-06-10T13:16:20.638Z</time>
      </trkpt>
      <trkpt lat="47.718988" lon="18.897998">
        <ele>690.554396</ele>
        <time>2026-06-10T13:16:27.523Z</time>
      </trkpt>
      <trkpt lat="47.719089" lon="18.898096">
        <ele>690.554396</ele>
        <time>2026-06-10T13:16:39.626Z</time>
      </trkpt>
      <trkpt lat="47.719333" lon="18.898386">
        <ele>690.525123</ele>
        <time>2026-06-10T13:17:11.013Z</time>
      </trkpt>
      <trkpt lat="47.719488" lon="18.898498">
        <ele>690.274417</ele>
        <time>2026-06-10T13:17:28.353Z</time>
      </trkpt>
      <trkpt lat="47.719545" lon="18.898632">
        <ele>690.119262</ele>
        <time>2026-06-10T13:17:39.048Z</time>
      </trkpt>
      <trkpt lat="47.719838" lon="18.898756">
        <ele>689.676101</ele>
        <time>2026-06-10T13:18:09.622Z</time>
      </trkpt>
      <trkpt lat="47.719830" lon="18.898917">
        <ele>689.518109</ele>
        <time>2026-06-10T13:18:20.493Z</time>
      </trkpt>
      <trkpt lat="47.719783" lon="18.899219">
        <ele>689.214752</ele>
        <time>2026-06-10T13:18:41.748Z</time>
      </trkpt>
      <trkpt lat="47.719695" lon="18.899467">
        <ele>688.940356</ele>
        <time>2026-06-10T13:19:01.272Z</time>
      </trkpt>
      <trkpt lat="47.719657" lon="18.899697">
        <ele>688.708578</ele>
        <time>2026-06-10T13:19:17.867Z</time>
      </trkpt>
      <trkpt lat="47.719640" lon="18.900094">
        <ele>688.319267</ele>
        <time>2026-06-10T13:19:46.272Z</time>
      </trkpt>
      <trkpt lat="47.719628" lon="18.900584">
        <ele>687.624364</ele>
        <time>2026-06-10T13:20:21.454Z</time>
      </trkpt>
      <trkpt lat="47.719665" lon="18.900974">
        <ele>686.397630</ele>
        <time>2026-06-10T13:20:50.008Z</time>
      </trkpt>
      <trkpt lat="47.719873" lon="18.901227">
        <ele>685.153335</ele>
        <time>2026-06-10T13:21:19.418Z</time>
      </trkpt>
      <trkpt lat="47.719877" lon="18.901347">
        <ele>684.779119</ele>
        <time>2026-06-10T13:21:28.320Z</time>
      </trkpt>
      <trkpt lat="47.719535" lon="18.902207">
        <ele>681.667544</ele>
        <time>2026-06-10T13:22:43.321Z</time>
      </trkpt>
      <trkpt lat="47.719129" lon="18.902912">
        <ele>679.187155</ele>
        <time>2026-06-10T13:23:51.947Z</time>
      </trkpt>
      <trkpt lat="47.718991" lon="18.903334">
        <ele>678.444539</ele>
        <time>2026-06-10T13:24:25.930Z</time>
      </trkpt>
      <trkpt lat="47.718826" lon="18.903838">
        <ele>677.557432</ele>
        <time>2026-06-10T13:25:05.872Z</time>
      </trkpt>
      <trkpt lat="47.718447" lon="18.904758">
        <ele>675.850057</ele>
        <time>2026-06-10T13:26:20.461Z</time>
      </trkpt>
      <trkpt lat="47.718458" lon="18.904923">
        <ele>675.587631</ele>
        <time>2026-06-10T13:26:31.743Z</time>
      </trkpt>
      <trkpt lat="47.718388" lon="18.904947">
        <ele>675.418632</ele>
        <time>2026-06-10T13:26:39.022Z</time>
      </trkpt>
      <trkpt lat="47.718058" lon="18.905274">
        <ele>675.435622</ele>
        <time>2026-06-10T13:27:19.092Z</time>
      </trkpt>
      <trkpt lat="47.718045" lon="18.905683">
        <ele>675.476324</ele>
        <time>2026-06-10T13:27:46.715Z</time>
      </trkpt>
      <trkpt lat="47.717876" lon="18.905987">
        <ele>675.515524</ele>
        <time>2026-06-10T13:28:13.454Z</time>
      </trkpt>
      <trkpt lat="47.717660" lon="18.906182">
        <ele>675.552863</ele>
        <time>2026-06-10T13:28:39.084Z</time>
      </trkpt>
      <trkpt lat="47.716539" lon="18.908886">
        <ele>676.296223</ele>
        <time>2026-06-10T13:32:18.277Z</time>
      </trkpt>
      <trkpt lat="47.716362" lon="18.908831">
        <ele>676.374093</ele>
        <time>2026-06-10T13:32:36.538Z</time>
      </trkpt>
      <trkpt lat="47.715989" lon="18.909268">
        <ele>675.670875</ele>
        <time>2026-06-10T13:33:24.476Z</time>
      </trkpt>
      <trkpt lat="47.715728" lon="18.909531">
        <ele>675.030613</ele>
        <time>2026-06-10T13:33:56.553Z</time>
      </trkpt>
      <trkpt lat="47.715676" lon="18.909725">
        <ele>674.745329</ele>
        <time>2026-06-10T13:34:10.948Z</time>
      </trkpt>
      <trkpt lat="47.715704" lon="18.910532">
        <ele>673.641408</ele>
        <time>2026-06-10T13:35:07.708Z</time>
      </trkpt>
      <trkpt lat="47.715466" lon="18.911300">
        <ele>671.823724</ele>
        <time>2026-06-10T13:36:08.910Z</time>
      </trkpt>
      <trkpt lat="47.714963" lon="18.912087">
        <ele>666.849529</ele>
        <time>2026-06-10T13:37:31.458Z</time>
      </trkpt>
      <trkpt lat="47.714243" lon="18.914186">
        <ele>656.644180</ele>
        <time>2026-06-10T13:40:36.012Z</time>
      </trkpt>
      <trkpt lat="47.714047" lon="18.914653">
        <ele>654.455947</ele>
        <time>2026-06-10T13:41:17.457Z</time>
      </trkpt>
      <trkpt lat="47.713602" lon="18.915470">
        <ele>650.276912</ele>
        <time>2026-06-10T13:42:34.313Z</time>
      </trkpt>
      <trkpt lat="47.713852" lon="18.916006">
        <ele>647.709524</ele>
        <time>2026-06-10T13:43:21.325Z</time>
      </trkpt>
      <trkpt lat="47.713878" lon="18.916280">
        <ele>646.622140</ele>
        <time>2026-06-10T13:43:41.353Z</time>
      </trkpt>
      <trkpt lat="47.713758" lon="18.916975">
        <ele>643.802527</ele>
        <time>2026-06-10T13:44:34.103Z</time>
      </trkpt>
      <trkpt lat="47.713765" lon="18.917198">
        <ele>642.925256</ele>
        <time>2026-06-10T13:44:50.866Z</time>
      </trkpt>
      <trkpt lat="47.713908" lon="18.917809">
        <ele>640.383117</ele>
        <time>2026-06-10T13:45:40.981Z</time>
      </trkpt>
      <trkpt lat="47.713928" lon="18.918532">
        <ele>635.641283</ele>
        <time>2026-06-10T13:46:38.749Z</time>
      </trkpt>
      <trkpt lat="47.714070" lon="18.919246">
        <ele>629.705161</ele>
        <time>2026-06-10T13:47:39.913Z</time>
      </trkpt>
      <trkpt lat="47.714064" lon="18.919727">
        <ele>625.869548</ele>
        <time>2026-06-10T13:48:20.228Z</time>
      </trkpt>
      <trkpt lat="47.714155" lon="18.920158">
        <ele>622.268020</ele>
        <time>2026-06-10T13:48:58.417Z</time>
      </trkpt>
      <trkpt lat="47.714120" lon="18.921089">
        <ele>613.894294</ele>
        <time>2026-06-10T13:50:18.174Z</time>
      </trkpt>
      <trkpt lat="47.714127" lon="18.921506">
        <ele>609.603524</ele>
        <time>2026-06-10T13:50:54.367Z</time>
      </trkpt>
      <trkpt lat="47.714069" lon="18.921898">
        <ele>605.474901</ele>
        <time>2026-06-10T13:51:29.567Z</time>
      </trkpt>
      <trkpt lat="47.714115" lon="18.922241">
        <ele>601.877253</ele>
        <time>2026-06-10T13:52:00.274Z</time>
      </trkpt>
      <trkpt lat="47.714053" lon="18.922465">
        <ele>599.385745</ele>
        <time>2026-06-10T13:52:21.552Z</time>
      </trkpt>
      <trkpt lat="47.714091" lon="18.923438">
        <ele>589.311642</ele>
        <time>2026-06-10T13:53:47.253Z</time>
      </trkpt>
      <trkpt lat="47.714157" lon="18.923646">
        <ele>586.851340</ele>
        <time>2026-06-10T13:54:07.410Z</time>
      </trkpt>
      <trkpt lat="47.714632" lon="18.924245">
        <ele>576.946286</ele>
        <time>2026-06-10T13:55:28.216Z</time>
      </trkpt>
      <trkpt lat="47.714792" lon="18.924586">
        <ele>572.498705</ele>
        <time>2026-06-10T13:56:04.282Z</time>
      </trkpt>
      <trkpt lat="47.714893" lon="18.925088">
        <ele>566.893229</ele>
        <time>2026-06-10T13:56:49.960Z</time>
      </trkpt>
      <trkpt lat="47.714973" lon="18.925264">
        <ele>564.620933</ele>
        <time>2026-06-10T13:57:08.697Z</time>
      </trkpt>
      <trkpt lat="47.715105" lon="18.925393">
        <ele>562.108996</ele>
        <time>2026-06-10T13:57:29.596Z</time>
      </trkpt>
      <trkpt lat="47.715486" lon="18.925584">
        <ele>553.901266</ele>
        <time>2026-06-10T13:58:24.452Z</time>
      </trkpt>
      <trkpt lat="47.715704" lon="18.925838">
        <ele>548.219889</ele>
        <time>2026-06-10T13:59:03.979Z</time>
      </trkpt>
      <trkpt lat="47.715989" lon="18.925952">
        <ele>542.166435</ele>
        <time>2026-06-10T13:59:47.778Z</time>
      </trkpt>
      <trkpt lat="47.716086" lon="18.925941">
        <ele>540.171142</ele>
        <time>2026-06-10T14:00:02.569Z</time>
      </trkpt>
      <trkpt lat="47.716215" lon="18.926095">
        <ele>536.777526</ele>
        <time>2026-06-10T14:00:28.004Z</time>
      </trkpt>
      <trkpt lat="47.716325" lon="18.926560">
        <ele>529.975699</ele>
        <time>2026-06-10T14:01:20.836Z</time>
      </trkpt>
      <trkpt lat="47.716526" lon="18.926802">
        <ele>524.676499</ele>
        <time>2026-06-10T14:02:02.720Z</time>
      </trkpt>
      <trkpt lat="47.716635" lon="18.926833">
        <ele>522.434792</ele>
        <time>2026-06-10T14:02:20.719Z</time>
      </trkpt>
      <trkpt lat="47.717208" lon="18.926738">
        <ele>510.788602</ele>
        <time>2026-06-10T14:03:54.127Z</time>
      </trkpt>
      <trkpt lat="47.717461" lon="18.926752">
        <ele>505.674547</ele>
        <time>2026-06-10T14:04:34.753Z</time>
      </trkpt>
      <trkpt lat="47.717720" lon="18.926959">
        <ele>499.734466</ele>
        <time>2026-06-10T14:05:18.939Z</time>
      </trkpt>
      <trkpt lat="47.718178" lon="18.927620">
        <ele>487.712128</ele>
        <time>2026-06-10T14:06:43.488Z</time>
      </trkpt>
      <trkpt lat="47.717300" lon="18.929481">
        <ele>470.927672</ele>
        <time>2026-06-10T14:09:44.953Z</time>
      </trkpt>
      <trkpt lat="47.717015" lon="18.930222">
        <ele>463.551878</ele>
        <time>2026-06-10T14:10:54.705Z</time>
      </trkpt>
      <trkpt lat="47.717084" lon="18.930522">
        <ele>460.637731</ele>
        <time>2026-06-10T14:11:21.506Z</time>
      </trkpt>
      <trkpt lat="47.717096" lon="18.930812">
        <ele>457.967143</ele>
        <time>2026-06-10T14:11:46.622Z</time>
      </trkpt>
      <trkpt lat="47.717175" lon="18.931456">
        <ele>451.950196</ele>
        <time>2026-06-10T14:12:43.789Z</time>
      </trkpt>
      <trkpt lat="47.717351" lon="18.932176">
        <ele>444.909024</ele>
        <time>2026-06-10T14:13:51.246Z</time>
      </trkpt>
      <trkpt lat="47.717329" lon="18.932381">
        <ele>443.622951</ele>
        <time>2026-06-10T14:14:09.170Z</time>
      </trkpt>
      <trkpt lat="47.717351" lon="18.932488">
        <ele>443.040211</ele>
        <time>2026-06-10T14:14:18.735Z</time>
      </trkpt>
      <trkpt lat="47.717477" lon="18.932633">
        <ele>441.806596</ele>
        <time>2026-06-10T14:14:38.820Z</time>
      </trkpt>
      <trkpt lat="47.717560" lon="18.932796">
        <ele>440.741889</ele>
        <time>2026-06-10T14:14:55.998Z</time>
      </trkpt>
      <trkpt lat="47.717612" lon="18.933011">
        <ele>439.551933</ele>
        <time>2026-06-10T14:15:14.866Z</time>
      </trkpt>
      <trkpt lat="47.717613" lon="18.933395">
        <ele>437.551910</ele>
        <time>2026-06-10T14:15:45.976Z</time>
      </trkpt>
      <trkpt lat="47.717775" lon="18.933439">
        <ele>436.277024</ele>
        <time>2026-06-10T14:16:05.036Z</time>
      </trkpt>
      <trkpt lat="47.717786" lon="18.933485">
        <ele>436.022757</ele>
        <time>2026-06-10T14:16:08.812Z</time>
      </trkpt>
      <trkpt lat="47.717766" lon="18.933591">
        <ele>435.449373</ele>
        <time>2026-06-10T14:16:17.166Z</time>
      </trkpt>
      <trkpt lat="47.717460" lon="18.933822">
        <ele>432.792463</ele>
        <time>2026-06-10T14:16:54.796Z</time>
      </trkpt>
      <trkpt lat="47.717127" lon="18.934214">
        <ele>431.664110</ele>
        <time>2026-06-10T14:17:37.357Z</time>
      </trkpt>
      <trkpt lat="47.717245" lon="18.934507">
        <ele>433.696423</ele>
        <time>2026-06-10T14:18:02.874Z</time>
      </trkpt>
      <trkpt lat="47.717308" lon="18.934565">
        <ele>434.351958</ele>
        <time>2026-06-10T14:18:11.410Z</time>
      </trkpt>
      <trkpt lat="47.717411" lon="18.934617">
        <ele>435.314210</ele>
        <time>2026-06-10T14:18:24.319Z</time>
      </trkpt>
      <trkpt lat="47.717506" lon="18.934714">
        <ele>436.333753</ele>
        <time>2026-06-10T14:18:38.192Z</time>
      </trkpt>
      <trkpt lat="47.717620" lon="18.934871">
        <ele>437.708520</ele>
        <time>2026-06-10T14:18:57.769Z</time>
      </trkpt>
      <trkpt lat="47.717700" lon="18.935037">
        <ele>438.923760</ele>
        <time>2026-06-10T14:19:15.664Z</time>
      </trkpt>
      <trkpt lat="47.717790" lon="18.935108">
        <ele>439.825077</ele>
        <time>2026-06-10T14:19:29.321Z</time>
      </trkpt>
      <trkpt lat="47.717934" lon="18.935392">
        <ele>441.941519</ele>
        <time>2026-06-10T14:20:04.008Z</time>
      </trkpt>
      <trkpt lat="47.718333" lon="18.935730">
        <ele>446.004010</ele>
        <time>2026-06-10T14:21:19.657Z</time>
      </trkpt>
      <trkpt lat="47.718653" lon="18.935910">
        <ele>451.866474</ele>
        <time>2026-06-10T14:22:21.861Z</time>
      </trkpt>
      <trkpt lat="47.719071" lon="18.936084">
        <ele>459.881894</ele>
        <time>2026-06-10T14:23:44.500Z</time>
      </trkpt>
      <trkpt lat="47.719245" lon="18.936200">
        <ele>463.403202</ele>
        <time>2026-06-10T14:24:22.314Z</time>
      </trkpt>
      <trkpt lat="47.719492" lon="18.936250">
        <ele>468.006209</ele>
        <time>2026-06-10T14:25:12.907Z</time>
      </trkpt>
      <trkpt lat="47.720460" lon="18.936932">
        <ele>485.881986</ele>
        <time>2026-06-10T14:28:37.014Z</time>
      </trkpt>
      <trkpt lat="47.720669" lon="18.936931">
        <ele>488.839466</ele>
        <time>2026-06-10T14:29:12.512Z</time>
      </trkpt>
      <trkpt lat="47.720804" lon="18.936864">
        <ele>490.853455</ele>
        <time>2026-06-10T14:29:35.706Z</time>
      </trkpt>
      <trkpt lat="47.720943" lon="18.936557">
        <ele>494.376246</ele>
        <time>2026-06-10T14:30:14.405Z</time>
      </trkpt>
      <trkpt lat="47.721541" lon="18.936248">
        <ele>503.334969</ele>
        <time>2026-06-10T14:31:41.485Z</time>
      </trkpt>
      <trkpt lat="47.722147" lon="18.936046">
        <ele>509.776998</ele>
        <time>2026-06-10T14:33:04.240Z</time>
      </trkpt>
      <trkpt lat="47.722462" lon="18.935886">
        <ele>512.916816</ele>
        <time>2026-06-10T14:33:49.083Z</time>
      </trkpt>
      <trkpt lat="47.722668" lon="18.935845">
        <ele>514.877193</ele>
        <time>2026-06-10T14:34:16.857Z</time>
      </trkpt>
      <trkpt lat="47.722840" lon="18.935889">
        <ele>516.523383</ele>
        <time>2026-06-10T14:34:39.629Z</time>
      </trkpt>
      <trkpt lat="47.723099" lon="18.936033">
        <ele>519.131610</ele>
        <time>2026-06-10T14:35:15.529Z</time>
      </trkpt>
      <trkpt lat="47.723395" lon="18.936468">
        <ele>522.823755</ele>
        <time>2026-06-10T14:36:08.922Z</time>
      </trkpt>
      <trkpt lat="47.723469" lon="18.936536">
        <ele>523.453503</ele>
        <time>2026-06-10T14:36:19.933Z</time>
      </trkpt>
      <trkpt lat="47.723543" lon="18.936560">
        <ele>524.001768</ele>
        <time>2026-06-10T14:36:29.439Z</time>
      </trkpt>
      <trkpt lat="47.723635" lon="18.936533">
        <ele>524.680583</ele>
        <time>2026-06-10T14:36:41.302Z</time>
      </trkpt>
      <trkpt lat="47.723712" lon="18.936468">
        <ele>525.321564</ele>
        <time>2026-06-10T14:36:52.199Z</time>
      </trkpt>
      <trkpt lat="47.723807" lon="18.936375">
        <ele>526.144963</ele>
        <time>2026-06-10T14:37:06.336Z</time>
      </trkpt>
      <trkpt lat="47.724234" lon="18.935602">
        <ele>531.015528</ele>
        <time>2026-06-10T14:38:28.661Z</time>
      </trkpt>
      <trkpt lat="47.724530" lon="18.935233">
        <ele>533.811878</ele>
        <time>2026-06-10T14:39:16.281Z</time>
      </trkpt>
      <trkpt lat="47.724712" lon="18.935081">
        <ele>535.328561</ele>
        <time>2026-06-10T14:39:42.636Z</time>
      </trkpt>
      <trkpt lat="47.724929" lon="18.934913">
        <ele>537.138850</ele>
        <time>2026-06-10T14:40:13.749Z</time>
      </trkpt>
      <trkpt lat="47.725109" lon="18.934831">
        <ele>538.531815</ele>
        <time>2026-06-10T14:40:37.849Z</time>
      </trkpt>
      <trkpt lat="47.725875" lon="18.934809">
        <ele>544.200555</ele>
        <time>2026-06-10T14:42:15.388Z</time>
      </trkpt>
      <trkpt lat="47.726136" lon="18.934723">
        <ele>546.178578</ele>
        <time>2026-06-10T14:42:48.958Z</time>
      </trkpt>
      <trkpt lat="47.726796" lon="18.934239">
        <ele>550.337552</ele>
        <time>2026-06-10T14:44:18.233Z</time>
      </trkpt>
      <trkpt lat="47.727494" lon="18.933779">
        <ele>553.746610</ele>
        <time>2026-06-10T14:45:47.001Z</time>
      </trkpt>
      <trkpt lat="47.727617" lon="18.933727">
        <ele>554.317578</ele>
        <time>2026-06-10T14:46:01.517Z</time>
      </trkpt>
      <trkpt lat="47.728038" lon="18.933672">
        <ele>556.204579</ele>
        <time>2026-06-10T14:46:48.472Z</time>
      </trkpt>
      <trkpt lat="47.728267" lon="18.933714">
        <ele>556.835535</ele>
        <time>2026-06-10T14:47:13.353Z</time>
      </trkpt>
      <trkpt lat="47.728759" lon="18.933873">
        <ele>557.993900</ele>
        <time>2026-06-10T14:48:05.957Z</time>
      </trkpt>
      <trkpt lat="47.729267" lon="18.934131">
        <ele>559.228956</ele>
        <time>2026-06-10T14:49:01.531Z</time>
      </trkpt>
      <trkpt lat="47.729665" lon="18.934280">
        <ele>560.173208</ele>
        <time>2026-06-10T14:49:45.707Z</time>
      </trkpt>
      <trkpt lat="47.729878" lon="18.934302">
        <ele>560.965876</ele>
        <time>2026-06-10T14:50:09.629Z</time>
      </trkpt>
      <trkpt lat="47.729968" lon="18.934280">
        <ele>561.724598</ele>
        <time>2026-06-10T14:50:20.099Z</time>
      </trkpt>
      <trkpt lat="47.730676" lon="18.933865">
        <ele>568.055353</ele>
        <time>2026-06-10T14:51:53.850Z</time>
      </trkpt>
      <trkpt lat="47.731041" lon="18.933550">
        <ele>571.566094</ele>
        <time>2026-06-10T14:52:51.031Z</time>
      </trkpt>
      <trkpt lat="47.731129" lon="18.933443">
        <ele>572.511764</ele>
        <time>2026-06-10T14:53:07.032Z</time>
      </trkpt>
      <trkpt lat="47.731312" lon="18.933063">
        <ele>575.126704</ele>
        <time>2026-06-10T14:53:51.919Z</time>
      </trkpt>
      <trkpt lat="47.731429" lon="18.932873">
        <ele>576.682453</ele>
        <time>2026-06-10T14:54:16.746Z</time>
      </trkpt>
      <trkpt lat="47.731734" lon="18.932527">
        <ele>580.219445</ele>
        <time>2026-06-10T14:55:10.092Z</time>
      </trkpt>
      <trkpt lat="47.731782" lon="18.932396">
        <ele>581.144495</ele>
        <time>2026-06-10T14:55:23.818Z</time>
      </trkpt>
      <trkpt lat="47.731855" lon="18.932032">
        <ele>583.499858</ele>
        <time>2026-06-10T14:55:58.281Z</time>
      </trkpt>
      <trkpt lat="47.731901" lon="18.931917">
        <ele>584.329548</ele>
        <time>2026-06-10T14:56:10.316Z</time>
      </trkpt>
      <trkpt lat="47.731986" lon="18.931813">
        <ele>585.344440</ele>
        <time>2026-06-10T14:56:24.912Z</time>
      </trkpt>
      <trkpt lat="47.732180" lon="18.931687">
        <ele>587.296218</ele>
        <time>2026-06-10T14:56:52.550Z</time>
      </trkpt>
      <trkpt lat="47.732411" lon="18.931554">
        <ele>589.580015</ele>
        <time>2026-06-10T14:57:24.116Z</time>
      </trkpt>
      <trkpt lat="47.732567" lon="18.931424">
        <ele>591.228751</ele>
        <time>2026-06-10T14:57:46.246Z</time>
      </trkpt>
      <trkpt lat="47.733058" lon="18.930855">
        <ele>593.622525</ele>
        <time>2026-06-10T14:58:58.678Z</time>
      </trkpt>
      <trkpt lat="47.733207" lon="18.930579">
        <ele>594.310815</ele>
        <time>2026-06-10T14:59:24.795Z</time>
      </trkpt>
      <trkpt lat="47.733429" lon="18.929972">
        <ele>595.654554</ele>
        <time>2026-06-10T15:00:14.248Z</time>
      </trkpt>
      <trkpt lat="47.733536" lon="18.929770">
        <ele>596.154610</ele>
        <time>2026-06-10T15:00:32.252Z</time>
      </trkpt>
      <trkpt lat="47.733629" lon="18.929640">
        <ele>596.523709</ele>
        <time>2026-06-10T15:00:45.552Z</time>
      </trkpt>
      <trkpt lat="47.733947" lon="18.929316">
        <ele>597.500744</ele>
        <time>2026-06-10T15:01:25.355Z</time>
      </trkpt>
      <trkpt lat="47.734006" lon="18.929089">
        <ele>597.784519</ele>
        <time>2026-06-10T15:01:42.367Z</time>
      </trkpt>
      <trkpt lat="47.734078" lon="18.928982">
        <ele>597.961012</ele>
        <time>2026-06-10T15:01:52.998Z</time>
      </trkpt>
      <trkpt lat="47.734259" lon="18.928910">
        <ele>598.285857</ele>
        <time>2026-06-10T15:02:12.705Z</time>
      </trkpt>
      <trkpt lat="47.734532" lon="18.928740">
        <ele>598.799004</ele>
        <time>2026-06-10T15:02:44.310Z</time>
      </trkpt>
      <trkpt lat="47.735381" lon="18.928002">
        <ele>600.519062</ele>
        <time>2026-06-10T15:04:30.752Z</time>
      </trkpt>
      <trkpt lat="47.735546" lon="18.927799">
        <ele>600.951596</ele>
        <time>2026-06-10T15:04:53.098Z</time>
      </trkpt>
      <trkpt lat="47.735641" lon="18.927630">
        <ele>601.250779</ele>
        <time>2026-06-10T15:05:08.442Z</time>
      </trkpt>
      <trkpt lat="47.735731" lon="18.927354">
        <ele>601.667420</ele>
        <time>2026-06-10T15:05:29.834Z</time>
      </trkpt>
      <trkpt lat="47.735729" lon="18.927176">
        <ele>601.909236</ele>
        <time>2026-06-10T15:05:42.131Z</time>
      </trkpt>
      <trkpt lat="47.735600" lon="18.926538">
        <ele>602.814167</ele>
        <time>2026-06-10T15:06:27.889Z</time>
      </trkpt>
      <trkpt lat="47.735652" lon="18.924784">
        <ele>607.026005</ele>
        <time>2026-06-10T15:08:40.695Z</time>
      </trkpt>
      <trkpt lat="47.735493" lon="18.924219">
        <ele>609.175810</ele>
        <time>2026-06-10T15:09:31.890Z</time>
      </trkpt>
      <trkpt lat="47.735506" lon="18.923984">
        <ele>610.003464</ele>
        <time>2026-06-10T15:09:51.458Z</time>
      </trkpt>
      <trkpt lat="47.735934" lon="18.923353">
        <ele>613.149123</ele>
        <time>2026-06-10T15:11:04.417Z</time>
      </trkpt>
      <trkpt lat="47.736475" lon="18.923209">
        <ele>615.207170</ele>
        <time>2026-06-10T15:12:08.028Z</time>
      </trkpt>
      <trkpt lat="47.736874" lon="18.923049">
        <ele>616.687779</ele>
        <time>2026-06-10T15:12:53.662Z</time>
      </trkpt>
      <trkpt lat="47.737040" lon="18.922994">
        <ele>617.297109</ele>
        <time>2026-06-10T15:13:11.942Z</time>
      </trkpt>
      <trkpt lat="47.737341" lon="18.922770">
        <ele>618.503057</ele>
        <time>2026-06-10T15:13:48.484Z</time>
      </trkpt>
      <trkpt lat="47.737843" lon="18.922522">
        <ele>620.188063</ele>
        <time>2026-06-10T15:14:47.653Z</time>
      </trkpt>
      <trkpt lat="47.737953" lon="18.922373">
        <ele>620.506188</ele>
        <time>2026-06-10T15:15:04.865Z</time>
      </trkpt>
      <trkpt lat="47.738520" lon="18.921368">
        <ele>622.392320</ele>
        <time>2026-06-10T15:16:44.456Z</time>
      </trkpt>
      <trkpt lat="47.738795" lon="18.921067">
        <ele>623.122365</ele>
        <time>2026-06-10T15:17:20.481Z</time>
      </trkpt>
      <trkpt lat="47.739102" lon="18.920819">
        <ele>623.052705</ele>
        <time>2026-06-10T15:17:56.099Z</time>
      </trkpt>
      <trkpt lat="47.739496" lon="18.920645">
        <ele>619.047396</ele>
        <time>2026-06-10T15:18:39.971Z</time>
      </trkpt>
      <trkpt lat="47.739438" lon="18.920319">
        <ele>616.837429</ele>
        <time>2026-06-10T15:19:05.613Z</time>
      </trkpt>
      <trkpt lat="47.739299" lon="18.920001">
        <ele>614.351857</ele>
        <time>2026-06-10T15:19:35.868Z</time>
      </trkpt>
      <trkpt lat="47.739216" lon="18.919701">
        <ele>612.225899</ele>
        <time>2026-06-10T15:20:03.005Z</time>
      </trkpt>
      <trkpt lat="47.739080" lon="18.918983">
        <ele>607.337320</ele>
        <time>2026-06-10T15:21:07.879Z</time>
      </trkpt>
      <trkpt lat="47.739062" lon="18.918723">
        <ele>604.980609</ele>
        <time>2026-06-10T15:21:31.944Z</time>
      </trkpt>
      <trkpt lat="47.739020" lon="18.918534">
        <ele>602.203156</ele>
        <time>2026-06-10T15:21:51.154Z</time>
      </trkpt>
      <trkpt lat="47.738785" lon="18.918053">
        <ele>593.907364</ele>
        <time>2026-06-10T15:22:51.443Z</time>
      </trkpt>
      <trkpt lat="47.738601" lon="18.917737">
        <ele>588.074955</ele>
        <time>2026-06-10T15:23:34.219Z</time>
      </trkpt>
      <trkpt lat="47.738517" lon="18.917326">
        <ele>582.081044</ele>
        <time>2026-06-10T15:24:18.302Z</time>
      </trkpt>
      <trkpt lat="47.738391" lon="18.917047">
        <ele>577.391645</ele>
        <time>2026-06-10T15:24:53.133Z</time>
      </trkpt>
      <trkpt lat="47.738282" lon="18.916677">
        <ele>571.755178</ele>
        <time>2026-06-10T15:25:35.228Z</time>
      </trkpt>
      <trkpt lat="47.738245" lon="18.916412">
        <ele>567.726573</ele>
        <time>2026-06-10T15:26:02.784Z</time>
      </trkpt>
      <trkpt lat="47.738108" lon="18.915999">
        <ele>559.495254</ele>
        <time>2026-06-10T15:26:51.297Z</time>
      </trkpt>
      <trkpt lat="47.738067" lon="18.915709">
        <ele>554.198355</ele>
        <time>2026-06-10T15:27:23.578Z</time>
      </trkpt>
      <trkpt lat="47.738013" lon="18.915550">
        <ele>551.014475</ele>
        <time>2026-06-10T15:27:43.385Z</time>
      </trkpt>
      <trkpt lat="47.737969" lon="18.915445">
        <ele>548.803125</ele>
        <time>2026-06-10T15:27:57.138Z</time>
      </trkpt>
      <trkpt lat="47.737958" lon="18.915312">
        <ele>546.407905</ele>
        <time>2026-06-10T15:28:12.401Z</time>
      </trkpt>
      <trkpt lat="47.737983" lon="18.915043">
        <ele>541.553967</ele>
        <time>2026-06-10T15:28:51.721Z</time>
      </trkpt>
      <trkpt lat="47.738036" lon="18.914891">
        <ele>538.493580</ele>
        <time>2026-06-10T15:29:17.362Z</time>
      </trkpt>
      <trkpt lat="47.738116" lon="18.914485">
        <ele>530.931464</ele>
        <time>2026-06-10T15:30:22.984Z</time>
      </trkpt>
      <trkpt lat="47.738212" lon="18.914297">
        <ele>526.712163</ele>
        <time>2026-06-10T15:31:01.774Z</time>
      </trkpt>
      <trkpt lat="47.738290" lon="18.914049">
        <ele>521.818495</ele>
        <time>2026-06-10T15:31:45.887Z</time>
      </trkpt>
      <trkpt lat="47.738415" lon="18.913872">
        <ele>516.564022</ele>
        <time>2026-06-10T15:32:26.362Z</time>
      </trkpt>
      <trkpt lat="47.738445" lon="18.913950">
        <ele>514.679032</ele>
        <time>2026-06-10T15:32:40.956Z</time>
      </trkpt>
      <trkpt lat="47.738487" lon="18.913931">
        <ele>513.309616</ele>
        <time>2026-06-10T15:32:51.319Z</time>
      </trkpt>
      <trkpt lat="47.738727" lon="18.913623">
        <ele>503.420511</ele>
        <time>2026-06-10T15:34:10.334Z</time>
      </trkpt>
      <trkpt lat="47.738772" lon="18.913540">
        <ele>501.183978</ele>
        <time>2026-06-10T15:34:28.822Z</time>
      </trkpt>
      <trkpt lat="47.738863" lon="18.913344">
        <ele>496.187617</ele>
        <time>2026-06-10T15:35:09.512Z</time>
      </trkpt>
      <trkpt lat="47.738988" lon="18.913181">
        <ele>491.001485</ele>
        <time>2026-06-10T15:35:51.561Z</time>
      </trkpt>
      <trkpt lat="47.739033" lon="18.913181">
        <ele>489.597778</ele>
        <time>2026-06-10T15:36:02.759Z</time>
      </trkpt>
      <trkpt lat="47.739083" lon="18.913233">
        <ele>487.694481</ele>
        <time>2026-06-10T15:36:18.142Z</time>
      </trkpt>
      <trkpt lat="47.739146" lon="18.913176">
        <ele>485.394099</ele>
        <time>2026-06-10T15:36:36.932Z</time>
      </trkpt>
      <trkpt lat="47.739199" lon="18.913036">
        <ele>482.023845</ele>
        <time>2026-06-10T15:37:03.995Z</time>
      </trkpt>
      <trkpt lat="47.739351" lon="18.912968">
        <ele>477.072497</ele>
        <time>2026-06-10T15:37:42.884Z</time>
      </trkpt>
      <trkpt lat="47.739527" lon="18.912815">
        <ele>470.713081</ele>
        <time>2026-06-10T15:38:31.529Z</time>
      </trkpt>
      <trkpt lat="47.739806" lon="18.912336">
        <ele>459.776179</ele>
        <time>2026-06-10T15:40:04.618Z</time>
      </trkpt>
      <trkpt lat="47.740047" lon="18.912164">
        <ele>454.041756</ele>
        <time>2026-06-10T15:40:59.533Z</time>
      </trkpt>
      <trkpt lat="47.740170" lon="18.912119">
        <ele>451.324540</ele>
        <time>2026-06-10T15:41:25.778Z</time>
      </trkpt>
      <trkpt lat="47.740399" lon="18.911909">
        <ele>445.553138</ele>
        <time>2026-06-10T15:42:18.140Z</time>
      </trkpt>
      <trkpt lat="47.740480" lon="18.911785">
        <ele>443.059347</ele>
        <time>2026-06-10T15:42:39.009Z</time>
      </trkpt>
      <trkpt lat="47.740733" lon="18.911598">
        <ele>436.998658</ele>
        <time>2026-06-10T15:43:27.596Z</time>
      </trkpt>
      <trkpt lat="47.740998" lon="18.911303">
        <ele>429.897581</ele>
        <time>2026-06-10T15:44:21.802Z</time>
      </trkpt>
      <trkpt lat="47.741166" lon="18.911037">
        <ele>424.590116</ele>
        <time>2026-06-10T15:45:01.984Z</time>
      </trkpt>
      <trkpt lat="47.741303" lon="18.910653">
        <ele>418.164243</ele>
        <time>2026-06-10T15:45:50.079Z</time>
      </trkpt>
      <trkpt lat="47.741598" lon="18.910298">
        <ele>409.822147</ele>
        <time>2026-06-10T15:46:57.837Z</time>
      </trkpt>
      <trkpt lat="47.741846" lon="18.910079">
        <ele>403.481816</ele>
        <time>2026-06-10T15:47:53.540Z</time>
      </trkpt>
      <trkpt lat="47.742115" lon="18.909577">
        <ele>393.993263</ele>
        <time>2026-06-10T15:49:22.160Z</time>
      </trkpt>
      <trkpt lat="47.742439" lon="18.909108">
        <ele>383.280739</ele>
        <time>2026-06-10T15:51:02.139Z</time>
      </trkpt>
      <trkpt lat="47.742493" lon="18.909018">
        <ele>381.003524</ele>
        <time>2026-06-10T15:51:20.714Z</time>
      </trkpt>
      <trkpt lat="47.742533" lon="18.908841">
        <ele>377.478150</ele>
        <time>2026-06-10T15:51:49.546Z</time>
      </trkpt>
      <trkpt lat="47.743006" lon="18.907982">
        <ele>356.517165</ele>
        <time>2026-06-10T15:54:45.603Z</time>
      </trkpt>
      <trkpt lat="47.743361" lon="18.907633">
        <ele>344.569293</ele>
        <time>2026-06-10T15:56:24.440Z</time>
      </trkpt>
      <trkpt lat="47.743532" lon="18.907541">
        <ele>339.463842</ele>
        <time>2026-06-10T15:57:04.251Z</time>
      </trkpt>
      <trkpt lat="47.743747" lon="18.907335">
        <ele>333.531415</ele>
        <time>2026-06-10T15:57:57.822Z</time>
      </trkpt>
      <trkpt lat="47.744197" lon="18.907163">
        <ele>324.495084</ele>
        <time>2026-06-10T15:59:28.106Z</time>
      </trkpt>
      <trkpt lat="47.744337" lon="18.907166">
        <ele>321.771997</ele>
        <time>2026-06-10T15:59:53.685Z</time>
      </trkpt>
      <trkpt lat="47.744690" lon="18.907029">
        <ele>314.676696</ele>
        <time>2026-06-10T16:00:56.892Z</time>
      </trkpt>
      <trkpt lat="47.744940" lon="18.906723">
        <ele>308.379456</ele>
        <time>2026-06-10T16:01:39.244Z</time>
      </trkpt>
      <trkpt lat="47.745022" lon="18.906686">
        <ele>306.712878</ele>
        <time>2026-06-10T16:01:50.299Z</time>
      </trkpt>
      <trkpt lat="47.745154" lon="18.906561">
        <ele>303.669370</ele>
        <time>2026-06-10T16:02:10.408Z</time>
      </trkpt>
      <trkpt lat="47.745360" lon="18.906469">
        <ele>299.659351</ele>
        <time>2026-06-10T16:02:37.812Z</time>
      </trkpt>
      <trkpt lat="47.745538" lon="18.906336">
        <ele>296.142301</ele>
        <time>2026-06-10T16:03:03.411Z</time>
      </trkpt>
      <trkpt lat="47.745706" lon="18.906270">
        <ele>293.074423</ele>
        <time>2026-06-10T16:03:26.248Z</time>
      </trkpt>
      <trkpt lat="47.745872" lon="18.906246">
        <ele>290.129788</ele>
        <time>2026-06-10T16:03:48.425Z</time>
      </trkpt>
      <trkpt lat="47.746105" lon="18.906146">
        <ele>285.848169</ele>
        <time>2026-06-10T16:04:21.187Z</time>
      </trkpt>
      <trkpt lat="47.746237" lon="18.906163">
        <ele>283.508917</ele>
        <time>2026-06-10T16:04:39.536Z</time>
      </trkpt>
      <trkpt lat="47.746741" lon="18.906043">
        <ele>274.497213</ele>
        <time>2026-06-10T16:05:51.547Z</time>
      </trkpt>
      <trkpt lat="47.747386" lon="18.905706">
        <ele>261.239344</ele>
        <time>2026-06-10T16:07:31.031Z</time>
      </trkpt>
      <trkpt lat="47.747908" lon="18.905580">
        <ele>250.358319</ele>
        <time>2026-06-10T16:08:50.585Z</time>
      </trkpt>
      <trkpt lat="47.748025" lon="18.905567">
        <ele>247.944261</ele>
        <time>2026-06-10T16:09:08.198Z</time>
      </trkpt>
      <trkpt lat="47.748367" lon="18.905401">
        <ele>240.542113</ele>
        <time>2026-06-10T16:10:02.829Z</time>
      </trkpt>
      <trkpt lat="47.749296" lon="18.905098">
        <ele>221.851805</ele>
        <time>2026-06-10T16:12:25.620Z</time>
      </trkpt>
      <trkpt lat="47.749680" lon="18.905061">
        <ele>214.532569</ele>
        <time>2026-06-10T16:13:20.386Z</time>
      </trkpt>
      <trkpt lat="47.750125" lon="18.905167">
        <ele>205.960515</ele>
        <time>2026-06-10T16:14:23.068Z</time>
      </trkpt>
      <trkpt lat="47.750285" lon="18.905150">
        <ele>202.909458</ele>
        <time>2026-06-10T16:14:45.280Z</time>
      </trkpt>
      <trkpt lat="47.750576" lon="18.905189">
        <ele>197.812789</ele>
        <time>2026-06-10T16:15:25.439Z</time>
      </trkpt>
      <trkpt lat="47.750748" lon="18.905110">
        <ele>195.910570</ele>
        <time>2026-06-10T16:15:49.937Z</time>
      </trkpt>
      <trkpt lat="47.751075" lon="18.905074">
        <ele>192.445704</ele>
        <time>2026-06-10T16:16:32.692Z</time>
      </trkpt>
      <trkpt lat="47.751479" lon="18.904840">
        <ele>187.864339</ele>
        <time>2026-06-10T16:17:27.004Z</time>
      </trkpt>
      <trkpt lat="47.751637" lon="18.904547">
        <ele>185.195838</ele>
        <time>2026-06-10T16:17:57.101Z</time>
      </trkpt>
      <trkpt lat="47.751508" lon="18.904493">
        <ele>183.779734</ele>
        <time>2026-06-10T16:18:12.465Z</time>
      </trkpt>
      <trkpt lat="47.751265" lon="18.904477">
        <ele>181.209435</ele>
        <time>2026-06-10T16:18:39.401Z</time>
      </trkpt>
      <trkpt lat="47.751170" lon="18.904435">
        <ele>180.162158</ele>
        <time>2026-06-10T16:18:50.103Z</time>
      </trkpt>
      <trkpt lat="47.751114" lon="18.904342">
        <ele>179.414106</ele>
        <time>2026-06-10T16:18:58.878Z</time>
      </trkpt>
      <trkpt lat="47.751092" lon="18.904098">
        <ele>179.930007</ele>
        <time>2026-06-10T16:19:15.784Z</time>
      </trkpt>
      <trkpt lat="47.750620" lon="18.904081">
        <ele>181.401570</ele>
        <time>2026-06-10T16:20:06.945Z</time>
      </trkpt>
      <trkpt lat="47.750182" lon="18.903919">
        <ele>182.808309</ele>
        <time>2026-06-10T16:20:59.333Z</time>
      </trkpt>
      <trkpt lat="47.749251" lon="18.903430">
        <ele>186.865330</ele>
        <time>2026-06-10T16:22:58.114Z</time>
      </trkpt>
      <trkpt lat="47.749097" lon="18.903418">
        <ele>187.870779</ele>
        <time>2026-06-10T16:23:16.601Z</time>
      </trkpt>
      <trkpt lat="47.748581" lon="18.903479">
        <ele>191.245682</ele>
        <time>2026-06-10T16:24:19.756Z</time>
      </trkpt>
      <trkpt lat="47.747947" lon="18.903205">
        <ele>195.550321</ele>
        <time>2026-06-10T16:25:42.064Z</time>
      </trkpt>
      <trkpt lat="47.747718" lon="18.903200">
        <ele>197.003822</ele>
        <time>2026-06-10T16:26:10.510Z</time>
      </trkpt>
      <trkpt lat="47.747489" lon="18.903116">
        <ele>198.355384</ele>
        <time>2026-06-10T16:26:39.499Z</time>
      </trkpt>
      <trkpt lat="47.747142" lon="18.902886">
        <ele>200.532339</ele>
        <time>2026-06-10T16:27:25.879Z</time>
      </trkpt>
      <trkpt lat="47.746846" lon="18.902884">
        <ele>202.228523</ele>
        <time>2026-06-10T16:28:01.658Z</time>
      </trkpt>
      <trkpt lat="47.746563" lon="18.902758">
        <ele>203.921309</ele>
        <time>2026-06-10T16:28:36.775Z</time>
      </trkpt>
      <trkpt lat="47.746200" lon="18.902729">
        <ele>206.004404</ele>
        <time>2026-06-10T16:29:19.543Z</time>
      </trkpt>
      <trkpt lat="47.745665" lon="18.902586">
        <ele>208.718167</ele>
        <time>2026-06-10T16:30:21.981Z</time>
      </trkpt>
      <trkpt lat="47.745191" lon="18.902512">
        <ele>210.926899</ele>
        <time>2026-06-10T16:31:15.792Z</time>
      </trkpt>
      <trkpt lat="47.744722" lon="18.902495">
        <ele>213.101034</ele>
        <time>2026-06-10T16:32:08.832Z</time>
      </trkpt>
      <trkpt lat="47.744550" lon="18.902293">
        <ele>214.116723</ele>
        <time>2026-06-10T16:32:34.166Z</time>
      </trkpt>
      <trkpt lat="47.744373" lon="18.902165">
        <ele>215.028839</ele>
        <time>2026-06-10T16:32:57.479Z</time>
      </trkpt>
      <trkpt lat="47.744169" lon="18.902084">
        <ele>216.796713</ele>
        <time>2026-06-10T16:33:23.304Z</time>
      </trkpt>
      <trkpt lat="47.744053" lon="18.901948">
        <ele>218.313089</ele>
        <time>2026-06-10T16:33:41.869Z</time>
      </trkpt>
      <trkpt lat="47.743994" lon="18.901746">
        <ele>219.833362</ele>
        <time>2026-06-10T16:34:00.744Z</time>
      </trkpt>
      <trkpt lat="47.743974" lon="18.901542">
        <ele>221.256473</ele>
        <time>2026-06-10T16:34:18.757Z</time>
      </trkpt>
      <trkpt lat="47.743999" lon="18.901180">
        <ele>223.768521</ele>
        <time>2026-06-10T16:34:51.140Z</time>
      </trkpt>
      <trkpt lat="47.744123" lon="18.900911">
        <ele>226.019855</ele>
        <time>2026-06-10T16:35:20.983Z</time>
      </trkpt>
      <trkpt lat="47.744227" lon="18.900586">
        <ele>228.504414</ele>
        <time>2026-06-10T16:35:55.470Z</time>
      </trkpt>
      <trkpt lat="47.744289" lon="18.900277">
        <ele>230.730378</ele>
        <time>2026-06-10T16:36:27.958Z</time>
      </trkpt>
      <trkpt lat="47.744336" lon="18.899743">
        <ele>234.719259</ele>
        <time>2026-06-10T16:37:24.072Z</time>
      </trkpt>
      <trkpt lat="47.744311" lon="18.899488">
        <ele>237.268747</ele>
        <time>2026-06-10T16:37:51.656Z</time>
      </trkpt>
      <trkpt lat="47.744226" lon="18.899048">
        <ele>241.797920</ele>
        <time>2026-06-10T16:38:40.030Z</time>
      </trkpt>
      <trkpt lat="47.744082" lon="18.898613">
        <ele>246.594784</ele>
        <time>2026-06-10T16:39:30.798Z</time>
      </trkpt>
      <trkpt lat="47.743840" lon="18.898343">
        <ele>251.045900</ele>
        <time>2026-06-10T16:40:20.171Z</time>
      </trkpt>
      <trkpt lat="47.743694" lon="18.898322">
        <ele>253.203976</ele>
        <time>2026-06-10T16:40:45.045Z</time>
      </trkpt>
      <trkpt lat="47.743562" lon="18.898373">
        <ele>255.210525</ele>
        <time>2026-06-10T16:41:08.594Z</time>
      </trkpt>
      <trkpt lat="47.743361" lon="18.898343">
        <ele>258.182631</ele>
        <time>2026-06-10T16:41:43.390Z</time>
      </trkpt>
      <trkpt lat="47.743240" lon="18.898197">
        <ele>260.467677</ele>
        <time>2026-06-10T16:42:10.375Z</time>
      </trkpt>
      <trkpt lat="47.743091" lon="18.897745">
        <ele>265.252130</ele>
        <time>2026-06-10T16:43:08.773Z</time>
      </trkpt>
      <trkpt lat="47.742920" lon="18.897300">
        <ele>270.123503</ele>
        <time>2026-06-10T16:44:07.458Z</time>
      </trkpt>
      <trkpt lat="47.742612" lon="18.896658">
        <ele>277.619143</ele>
        <time>2026-06-10T16:45:32.967Z</time>
      </trkpt>
      <trkpt lat="47.742460" lon="18.896178">
        <ele>282.661889</ele>
        <time>2026-06-10T16:46:25.526Z</time>
      </trkpt>
      <trkpt lat="47.742282" lon="18.895483">
        <ele>288.931019</ele>
        <time>2026-06-10T16:47:34.337Z</time>
      </trkpt>
      <trkpt lat="47.742050" lon="18.894986">
        <ele>293.538846</ele>
        <time>2026-06-10T16:48:43.178Z</time>
      </trkpt>
      <trkpt lat="47.741875" lon="18.894734">
        <ele>296.297822</ele>
        <time>2026-06-10T16:49:24.623Z</time>
      </trkpt>
      <trkpt lat="47.741645" lon="18.894589">
        <ele>299.127159</ele>
        <time>2026-06-10T16:50:07.329Z</time>
      </trkpt>
      <trkpt lat="47.741457" lon="18.894524">
        <ele>301.313183</ele>
        <time>2026-06-10T16:50:41.082Z</time>
      </trkpt>
      <trkpt lat="47.741281" lon="18.894510">
        <ele>303.309355</ele>
        <time>2026-06-10T16:51:12.129Z</time>
      </trkpt>
      <trkpt lat="47.740761" lon="18.894359">
        <ele>309.432171</ele>
        <time>2026-06-10T16:52:47.784Z</time>
      </trkpt>
      <trkpt lat="47.740428" lon="18.894183">
        <ele>313.586111</ele>
        <time>2026-06-10T16:53:49.662Z</time>
      </trkpt>
      <trkpt lat="47.739751" lon="18.894036">
        <ele>321.627910</ele>
        <time>2026-06-10T16:55:49.226Z</time>
      </trkpt>
      <trkpt lat="47.739445" lon="18.893935">
        <ele>325.312154</ele>
        <time>2026-06-10T16:56:43.787Z</time>
      </trkpt>
      <trkpt lat="47.739284" lon="18.893900">
        <ele>327.225729</ele>
        <time>2026-06-10T16:57:12.479Z</time>
      </trkpt>
      <trkpt lat="47.739134" lon="18.893951">
        <ele>329.369278</ele>
        <time>2026-06-10T16:57:40.313Z</time>
      </trkpt>
      <trkpt lat="47.738800" lon="18.893943">
        <ele>334.022768</ele>
        <time>2026-06-10T16:58:42.071Z</time>
      </trkpt>
      <trkpt lat="47.738659" lon="18.893729">
        <ele>336.829514</ele>
        <time>2026-06-10T16:59:20.914Z</time>
      </trkpt>
      <trkpt lat="47.738508" lon="18.893644">
        <ele>339.078752</ele>
        <time>2026-06-10T16:59:52.419Z</time>
      </trkpt>
      <trkpt lat="47.738440" lon="18.893680">
        <ele>340.084297</ele>
        <time>2026-06-10T17:00:06.520Z</time>
      </trkpt>
      <trkpt lat="47.738273" lon="18.893848">
        <ele>342.893145</ele>
        <time>2026-06-10T17:00:46.210Z</time>
      </trkpt>
      <trkpt lat="47.738020" lon="18.893772">
        <ele>346.488840</ele>
        <time>2026-06-10T17:01:35.429Z</time>
      </trkpt>
      <trkpt lat="47.737903" lon="18.893606">
        <ele>348.741679</ele>
        <time>2026-06-10T17:02:07.892Z</time>
      </trkpt>
      <trkpt lat="47.737843" lon="18.893471">
        <ele>350.257702</ele>
        <time>2026-06-10T17:02:30.580Z</time>
      </trkpt>
      <trkpt lat="47.737723" lon="18.893429">
        <ele>351.975084</ele>
        <time>2026-06-10T17:02:57.704Z</time>
      </trkpt>
      <trkpt lat="47.737416" lon="18.893449">
        <ele>356.918602</ele>
        <time>2026-06-10T17:04:07.750Z</time>
      </trkpt>
      <trkpt lat="47.737327" lon="18.893352">
        <ele>358.711746</ele>
        <time>2026-06-10T17:04:28.334Z</time>
      </trkpt>
      <trkpt lat="47.737304" lon="18.893185">
        <ele>360.574692</ele>
        <time>2026-06-10T17:04:49.226Z</time>
      </trkpt>
      <trkpt lat="47.737310" lon="18.893033">
        <ele>362.238693</ele>
        <time>2026-06-10T17:05:07.911Z</time>
      </trkpt>
      <trkpt lat="47.737316" lon="18.892866">
        <ele>364.066366</ele>
        <time>2026-06-10T17:05:28.696Z</time>
      </trkpt>
      <trkpt lat="47.737192" lon="18.892434">
        <ele>369.199532</ele>
        <time>2026-06-10T17:06:26.250Z</time>
      </trkpt>
      <trkpt lat="47.737168" lon="18.892224">
        <ele>371.527437</ele>
        <time>2026-06-10T17:06:51.446Z</time>
      </trkpt>
      <trkpt lat="47.737141" lon="18.892171">
        <ele>372.254067</ele>
        <time>2026-06-10T17:06:58.765Z</time>
      </trkpt>
      <trkpt lat="47.737129" lon="18.892041">
        <ele>373.688105</ele>
        <time>2026-06-10T17:07:14.153Z</time>
      </trkpt>
      <trkpt lat="47.737151" lon="18.891918">
        <ele>375.079049</ele>
        <time>2026-06-10T17:07:28.299Z</time>
      </trkpt>
      <trkpt lat="47.737119" lon="18.891877">
        <ele>375.765465</ele>
        <time>2026-06-10T17:07:35.771Z</time>
      </trkpt>
      <trkpt lat="47.737150" lon="18.891658">
        <ele>378.211268</ele>
        <time>2026-06-10T17:08:01.087Z</time>
      </trkpt>
      <trkpt lat="47.737030" lon="18.891698">
        <ele>380.209655</ele>
        <time>2026-06-10T17:08:21.816Z</time>
      </trkpt>
      <trkpt lat="47.737045" lon="18.891414">
        <ele>382.735366</ele>
        <time>2026-06-10T17:08:54.067Z</time>
      </trkpt>
      <trkpt lat="47.736919" lon="18.891207">
        <ele>384.801390</ele>
        <time>2026-06-10T17:09:23.156Z</time>
      </trkpt>
      <trkpt lat="47.736998" lon="18.891007">
        <ele>386.517770</ele>
        <time>2026-06-10T17:09:45.719Z</time>
      </trkpt>
      <trkpt lat="47.737130" lon="18.890624">
        <ele>389.702429</ele>
        <time>2026-06-10T17:10:24.873Z</time>
      </trkpt>
      <trkpt lat="47.737274" lon="18.890239">
        <ele>392.962352</ele>
        <time>2026-06-10T17:11:03.946Z</time>
      </trkpt>
      <trkpt lat="47.737302" lon="18.890205">
        <ele>393.360118</ele>
        <time>2026-06-10T17:11:08.546Z</time>
      </trkpt>
      <trkpt lat="47.737353" lon="18.890134">
        <ele>394.128842</ele>
        <time>2026-06-10T17:11:17.649Z</time>
      </trkpt>
      <trkpt lat="47.737407" lon="18.889920">
        <ele>395.820218</ele>
        <time>2026-06-10T17:11:37.592Z</time>
      </trkpt>
      <trkpt lat="47.737347" lon="18.889891">
        <ele>396.514405</ele>
        <time>2026-06-10T17:11:45.957Z</time>
      </trkpt>
      <trkpt lat="47.737387" lon="18.889555">
        <ele>399.039426</ele>
        <time>2026-06-10T17:12:15.874Z</time>
      </trkpt>
      <trkpt lat="47.737108" lon="18.888473">
        <ele>406.896761</ele>
        <time>2026-06-10T17:13:59.982Z</time>
      </trkpt>
      <trkpt lat="47.737172" lon="18.888323">
        <ele>408.062020</ele>
        <time>2026-06-10T17:14:16.146Z</time>
      </trkpt>
      <trkpt lat="47.737158" lon="18.888258">
        <ele>408.509731</ele>
        <time>2026-06-10T17:14:22.314Z</time>
      </trkpt>
      <trkpt lat="47.737104" lon="18.887959">
        <ele>410.540562</ele>
        <time>2026-06-10T17:14:50.562Z</time>
      </trkpt>
      <trkpt lat="47.736868" lon="18.887092">
        <ele>416.675986</ele>
        <time>2026-06-10T17:16:15.619Z</time>
      </trkpt>
      <trkpt lat="47.736785" lon="18.886626">
        <ele>419.294907</ele>
        <time>2026-06-10T17:16:58.191Z</time>
      </trkpt>
      <trkpt lat="47.736796" lon="18.886433">
        <ele>419.875892</ele>
        <time>2026-06-10T17:17:14.671Z</time>
      </trkpt>
      <trkpt lat="47.736922" lon="18.886157">
        <ele>420.876477</ele>
        <time>2026-06-10T17:17:42.286Z</time>
      </trkpt>
      <trkpt lat="47.737218" lon="18.885853">
        <ele>422.480945</ele>
        <time>2026-06-10T17:18:24.564Z</time>
      </trkpt>
      <trkpt lat="47.737438" lon="18.885642">
        <ele>423.648557</ele>
        <time>2026-06-10T17:18:53.583Z</time>
      </trkpt>
      <trkpt lat="47.737805" lon="18.885528">
        <ele>425.320720</ele>
        <time>2026-06-10T17:19:32.574Z</time>
      </trkpt>
      <trkpt lat="47.738027" lon="18.885413">
        <ele>426.369210</ele>
        <time>2026-06-10T17:19:56.204Z</time>
      </trkpt>
      <trkpt lat="47.738368" lon="18.885366">
        <ele>428.689290</ele>
        <time>2026-06-10T17:20:32.389Z</time>
      </trkpt>
      <trkpt lat="47.738831" lon="18.885341">
        <ele>432.334521</ele>
        <time>2026-06-10T17:21:27.626Z</time>
      </trkpt>
      <trkpt lat="47.738991" lon="18.885390">
        <ele>433.619804</ele>
        <time>2026-06-10T17:21:48.922Z</time>
      </trkpt>
      <trkpt lat="47.739133" lon="18.885495">
        <ele>434.867559</ele>
        <time>2026-06-10T17:22:10.467Z</time>
      </trkpt>
      <trkpt lat="47.739207" lon="18.885618">
        <ele>435.740799</ele>
        <time>2026-06-10T17:22:26.426Z</time>
      </trkpt>
      <trkpt lat="47.739069" lon="18.885700">
        <ele>436.910048</ele>
        <time>2026-06-10T17:22:53.659Z</time>
      </trkpt>
      <trkpt lat="47.738661" lon="18.886815">
        <ele>439.944968</ele>
        <time>2026-06-10T17:25:26.564Z</time>
      </trkpt>
      <trkpt lat="47.738634" lon="18.887003">
        <ele>439.530564</ele>
        <time>2026-06-10T17:25:46.814Z</time>
      </trkpt>
      <trkpt lat="47.738637" lon="18.887043">
        <ele>439.443803</ele>
        <time>2026-06-10T17:25:49.989Z</time>
      </trkpt>
      <trkpt lat="47.738716" lon="18.887158">
        <ele>439.089432</ele>
        <time>2026-06-10T17:26:02.640Z</time>
      </trkpt>
      <trkpt lat="47.738830" lon="18.887272">
        <ele>438.649070</ele>
        <time>2026-06-10T17:26:17.165Z</time>
      </trkpt>
      <trkpt lat="47.738716" lon="18.887158">
        <ele>438.208707</ele>
        <time>2026-06-10T17:26:31.391Z</time>
      </trkpt>
      <trkpt lat="47.738637" lon="18.887043">
        <ele>437.854336</ele>
        <time>2026-06-10T17:26:43.366Z</time>
      </trkpt>
      <trkpt lat="47.738634" lon="18.887003">
        <ele>437.767575</ele>
        <time>2026-06-10T17:26:46.339Z</time>
      </trkpt>
      <trkpt lat="47.738661" lon="18.886815">
        <ele>437.353171</ele>
        <time>2026-06-10T17:27:04.977Z</time>
      </trkpt>
      <trkpt lat="47.739069" lon="18.885700">
        <ele>433.549850</ele>
        <time>2026-06-10T17:29:24.341Z</time>
      </trkpt>
      <trkpt lat="47.739207" lon="18.885618">
        <ele>432.264757</ele>
        <time>2026-06-10T17:29:48.763Z</time>
      </trkpt>
      <trkpt lat="47.739627" lon="18.885321">
        <ele>428.243079</ele>
        <time>2026-06-10T17:31:02.164Z</time>
      </trkpt>
      <trkpt lat="47.739561" lon="18.885227">
        <ele>427.452792</ele>
        <time>2026-06-10T17:31:13.128Z</time>
      </trkpt>
      <trkpt lat="47.739460" lon="18.885171">
        <ele>426.520665</ele>
        <time>2026-06-10T17:31:25.842Z</time>
      </trkpt>
      <trkpt lat="47.739343" lon="18.885176">
        <ele>425.508501</ele>
        <time>2026-06-10T17:31:39.296Z</time>
      </trkpt>
      <trkpt lat="47.739265" lon="18.885144">
        <ele>424.808803</ele>
        <time>2026-06-10T17:31:48.385Z</time>
      </trkpt>
      <trkpt lat="47.739090" lon="18.884996">
        <ele>423.067873</ele>
        <time>2026-06-10T17:32:10.443Z</time>
      </trkpt>
      <trkpt lat="47.738958" lon="18.884986">
        <ele>421.924936</ele>
        <time>2026-06-10T17:32:24.333Z</time>
      </trkpt>
      <trkpt lat="47.738442" lon="18.885128">
        <ele>418.722750</ele>
        <time>2026-06-10T17:33:19.359Z</time>
      </trkpt>
      <trkpt lat="47.738250" lon="18.885110">
        <ele>418.023287</ele>
        <time>2026-06-10T17:33:40.124Z</time>
      </trkpt>
      <trkpt lat="47.737716" lon="18.884919">
        <ele>416.026379</ele>
        <time>2026-06-10T17:34:38.136Z</time>
      </trkpt>
      <trkpt lat="47.738129" lon="18.884528">
        <ele>414.246257</ele>
        <time>2026-06-10T17:35:33.296Z</time>
      </trkpt>
      <trkpt lat="47.738236" lon="18.884559">
        <ele>413.849909</ele>
        <time>2026-06-10T17:35:45.728Z</time>
      </trkpt>
      <trkpt lat="47.738363" lon="18.884519">
        <ele>413.377915</ele>
        <time>2026-06-10T17:36:00.628Z</time>
      </trkpt>
      <trkpt lat="47.738441" lon="18.884448">
        <ele>413.133556</ele>
        <time>2026-06-10T17:36:11.254Z</time>
      </trkpt>
      <trkpt lat="47.738474" lon="18.884412">
        <ele>413.107579</ele>
        <time>2026-06-10T17:36:15.917Z</time>
      </trkpt>
      <trkpt lat="47.738518" lon="18.884172">
        <ele>413.001398</ele>
        <time>2026-06-10T17:36:35.265Z</time>
      </trkpt>
      <trkpt lat="47.738425" lon="18.883930">
        <ele>412.882427</ele>
        <time>2026-06-10T17:36:56.818Z</time>
      </trkpt>
      <trkpt lat="47.738444" lon="18.883616">
        <ele>412.747857</ele>
        <time>2026-06-10T17:37:20.881Z</time>
      </trkpt>
      <trkpt lat="47.738433" lon="18.883431">
        <ele>412.668583</ele>
        <time>2026-06-10T17:37:34.608Z</time>
      </trkpt>
      <trkpt lat="47.738323" lon="18.883166">
        <ele>412.535658</ele>
        <time>2026-06-10T17:37:57.003Z</time>
      </trkpt>
      <trkpt lat="47.738286" lon="18.882904">
        <ele>412.421385</ele>
        <time>2026-06-10T17:38:15.162Z</time>
      </trkpt>
      <trkpt lat="47.738338" lon="18.882455">
        <ele>412.226911</ele>
        <time>2026-06-10T17:38:50.518Z</time>
      </trkpt>
      <trkpt lat="47.738369" lon="18.882367">
        <ele>412.184508</ele>
        <time>2026-06-10T17:38:58.646Z</time>
      </trkpt>
      <trkpt lat="47.738526" lon="18.882140">
        <ele>412.045519</ele>
        <time>2026-06-10T17:39:25.761Z</time>
      </trkpt>
      <trkpt lat="47.738555" lon="18.881721">
        <ele>414.461490</ele>
        <time>2026-06-10T17:40:02.550Z</time>
      </trkpt>
      <trkpt lat="47.738538" lon="18.881613">
        <ele>415.262403</ele>
        <time>2026-06-10T17:40:12.548Z</time>
      </trkpt>
      <trkpt lat="47.738447" lon="18.881431">
        <ele>416.899990</ele>
        <time>2026-06-10T17:40:33.031Z</time>
      </trkpt>
      <trkpt lat="47.738288" lon="18.881199">
        <ele>419.291799</ele>
        <time>2026-06-10T17:41:03.503Z</time>
      </trkpt>
      <trkpt lat="47.738134" lon="18.881114">
        <ele>421.055518</ele>
        <time>2026-06-10T17:41:26.823Z</time>
      </trkpt>
      <trkpt lat="47.738243" lon="18.880867">
        <ele>423.188739</ele>
        <time>2026-06-10T17:41:55.744Z</time>
      </trkpt>
      <trkpt lat="47.738440" lon="18.880629">
        <ele>425.914047</ele>
        <time>2026-06-10T17:42:33.093Z</time>
      </trkpt>
      <trkpt lat="47.738602" lon="18.880262">
        <ele>429.083898</ele>
        <time>2026-06-10T17:43:15.339Z</time>
      </trkpt>
      <trkpt lat="47.738708" lon="18.879605">
        <ele>434.501189</ele>
        <time>2026-06-10T17:44:18.411Z</time>
      </trkpt>
      <trkpt lat="47.738791" lon="18.879434">
        <ele>436.334633</ele>
        <time>2026-06-10T17:44:38.266Z</time>
      </trkpt>
      <trkpt lat="47.738818" lon="18.879096">
        <ele>439.293860</ele>
        <time>2026-06-10T17:45:10.869Z</time>
      </trkpt>
      <trkpt lat="47.738954" lon="18.878477">
        <ele>444.955349</ele>
        <time>2026-06-10T17:46:16.012Z</time>
      </trkpt>
      <trkpt lat="47.739030" lon="18.878261">
        <ele>447.074736</ele>
        <time>2026-06-10T17:46:41.279Z</time>
      </trkpt>
      <trkpt lat="47.739193" lon="18.877947">
        <ele>450.523310</ele>
        <time>2026-06-10T17:47:22.269Z</time>
      </trkpt>
      <trkpt lat="47.739243" lon="18.877722">
        <ele>452.583472</ele>
        <time>2026-06-10T17:47:46.584Z</time>
      </trkpt>
      <trkpt lat="47.739246" lon="18.877510">
        <ele>454.426991</ele>
        <time>2026-06-10T17:48:08.639Z</time>
      </trkpt>
      <trkpt lat="47.739351" lon="18.877173">
        <ele>458.647238</ele>
        <time>2026-06-10T17:48:48.880Z</time>
      </trkpt>
      <trkpt lat="47.739431" lon="18.877071">
        <ele>460.447827</ele>
        <time>2026-06-10T17:49:06.656Z</time>
      </trkpt>
      <trkpt lat="47.739746" lon="18.876874">
        <ele>466.286670</ele>
        <time>2026-06-10T17:50:06.829Z</time>
      </trkpt>
      <trkpt lat="47.740040" lon="18.876855">
        <ele>471.314793</ele>
        <time>2026-06-10T17:51:01.316Z</time>
      </trkpt>
      <trkpt lat="47.740152" lon="18.876798">
        <ele>473.337439</ele>
        <time>2026-06-10T17:51:23.818Z</time>
      </trkpt>
      <trkpt lat="47.740197" lon="18.876643">
        <ele>475.277340</ele>
        <time>2026-06-10T17:51:45.800Z</time>
      </trkpt>
      <trkpt lat="47.740246" lon="18.875969">
        <ele>483.067020</ele>
        <time>2026-06-10T17:53:16.301Z</time>
      </trkpt>
      <trkpt lat="47.740179" lon="18.875782">
        <ele>485.358558</ele>
        <time>2026-06-10T17:53:43.972Z</time>
      </trkpt>
      <trkpt lat="47.740001" lon="18.875501">
        <ele>486.535281</ele>
        <time>2026-06-10T17:54:31.729Z</time>
      </trkpt>
      <trkpt lat="47.739842" lon="18.875008">
        <ele>488.201963</ele>
        <time>2026-06-10T17:55:28.392Z</time>
      </trkpt>
      <trkpt lat="47.739812" lon="18.874795">
        <ele>488.865333</ele>
        <time>2026-06-10T17:55:47.368Z</time>
      </trkpt>
      <trkpt lat="47.739826" lon="18.874482">
        <ele>489.821552</ele>
        <time>2026-06-10T17:56:12.351Z</time>
      </trkpt>
      <trkpt lat="47.739856" lon="18.874101">
        <ele>490.990880</ele>
        <time>2026-06-10T17:56:39.059Z</time>
      </trkpt>
      <trkpt lat="47.739910" lon="18.873859">
        <ele>491.768111</ele>
        <time>2026-06-10T17:56:57.286Z</time>
      </trkpt>
      <trkpt lat="47.739924" lon="18.873590">
        <ele>492.590549</ele>
        <time>2026-06-10T17:57:17.671Z</time>
      </trkpt>
      <trkpt lat="47.739884" lon="18.873075">
        <ele>491.899350</ele>
        <time>2026-06-10T17:57:59.969Z</time>
      </trkpt>
      <trkpt lat="47.739896" lon="18.872741">
        <ele>489.662174</ele>
        <time>2026-06-10T17:58:28.875Z</time>
      </trkpt>
      <trkpt lat="47.739837" lon="18.872516">
        <ele>488.046882</ele>
        <time>2026-06-10T17:58:49.910Z</time>
      </trkpt>
      <trkpt lat="47.739727" lon="18.872353">
        <ele>486.502352</ele>
        <time>2026-06-10T17:59:09.679Z</time>
      </trkpt>
      <trkpt lat="47.739610" lon="18.871991">
        <ele>483.815955</ele>
        <time>2026-06-10T17:59:43.089Z</time>
      </trkpt>
      <trkpt lat="47.739418" lon="18.871147">
        <ele>477.856504</ele>
        <time>2026-06-10T18:00:53.975Z</time>
      </trkpt>
      <trkpt lat="47.739215" lon="18.871086">
        <ele>475.796673</ele>
        <time>2026-06-10T18:01:17.649Z</time>
      </trkpt>
      <trkpt lat="47.739128" lon="18.871023">
        <ele>475.065891</ele>
        <time>2026-06-10T18:01:28.694Z</time>
      </trkpt>
      <trkpt lat="47.738948" lon="18.870866">
        <ele>473.643332</ele>
        <time>2026-06-10T18:01:51.985Z</time>
      </trkpt>
      <trkpt lat="47.738757" lon="18.870640">
        <ele>471.979380</ele>
        <time>2026-06-10T18:02:19.064Z</time>
      </trkpt>
      <trkpt lat="47.738596" lon="18.870259">
        <ele>469.916513</ele>
        <time>2026-06-10T18:02:52.267Z</time>
      </trkpt>
      <trkpt lat="47.738322" lon="18.869733">
        <ele>466.866305</ele>
        <time>2026-06-10T18:03:42.123Z</time>
      </trkpt>
      <trkpt lat="47.738073" lon="18.869076">
        <ele>463.408938</ele>
        <time>2026-06-10T18:04:41.456Z</time>
      </trkpt>
      <trkpt lat="47.738001" lon="18.868100">
        <ele>457.339679</ele>
        <time>2026-06-10T18:05:59.458Z</time>
      </trkpt>
      <trkpt lat="47.737892" lon="18.867787">
        <ele>455.148162</ele>
        <time>2026-06-10T18:06:27.648Z</time>
      </trkpt>
      <trkpt lat="47.737739" lon="18.867583">
        <ele>453.248269</ele>
        <time>2026-06-10T18:06:52.165Z</time>
      </trkpt>
      <trkpt lat="47.737239" lon="18.867203">
        <ele>448.056911</ele>
        <time>2026-06-10T18:07:58.853Z</time>
      </trkpt>
      <trkpt lat="47.737131" lon="18.867021">
        <ele>446.495014</ele>
        <time>2026-06-10T18:08:17.978Z</time>
      </trkpt>
      <trkpt lat="47.737013" lon="18.866656">
        <ele>442.978307</ele>
        <time>2026-06-10T18:08:50.244Z</time>
      </trkpt>
      <trkpt lat="47.736832" lon="18.866292">
        <ele>439.047312</ele>
        <time>2026-06-10T18:09:26.947Z</time>
      </trkpt>
      <trkpt lat="47.736702" lon="18.866148">
        <ele>436.954202</ele>
        <time>2026-06-10T18:09:46.808Z</time>
      </trkpt>
      <trkpt lat="47.736545" lon="18.866054">
        <ele>434.768876</ele>
        <time>2026-06-10T18:10:07.852Z</time>
      </trkpt>
      <trkpt lat="47.736343" lon="18.866004">
        <ele>432.124797</ele>
        <time>2026-06-10T18:10:33.590Z</time>
      </trkpt>
      <trkpt lat="47.736021" lon="18.865674">
        <ele>427.075282</ele>
        <time>2026-06-10T18:11:23.886Z</time>
      </trkpt>
      <trkpt lat="47.735723" lon="18.865184">
        <ele>420.763754</ele>
        <time>2026-06-10T18:12:22.566Z</time>
      </trkpt>
      <trkpt lat="47.735297" lon="18.864926">
        <ele>413.213277</ele>
        <time>2026-06-10T18:13:26.618Z</time>
      </trkpt>
      <trkpt lat="47.735081" lon="18.864417">
        <ele>406.568938</ele>
        <time>2026-06-10T18:14:23.940Z</time>
      </trkpt>
      <trkpt lat="47.734991" lon="18.863921">
        <ele>400.897387</ele>
        <time>2026-06-10T18:15:12.073Z</time>
      </trkpt>
      <trkpt lat="47.734859" lon="18.862081">
        <ele>388.207489</ele>
        <time>2026-06-10T18:17:46.728Z</time>
      </trkpt>
      <trkpt lat="47.734435" lon="18.862529">
        <ele>384.576733</ele>
        <time>2026-06-10T18:18:44.665Z</time>
      </trkpt>
      <trkpt lat="47.734332" lon="18.862766">
        <ele>383.252037</ele>
        <time>2026-06-10T18:19:04.437Z</time>
      </trkpt>
      <trkpt lat="47.733592" lon="18.862942">
        <ele>383.082353</ele>
        <time>2026-06-10T18:20:25.137Z</time>
      </trkpt>
      <trkpt lat="47.733482" lon="18.863335">
        <ele>384.096788</ele>
        <time>2026-06-10T18:20:56.821Z</time>
      </trkpt>
      <trkpt lat="47.733401" lon="18.863497">
        <ele>384.577851</ele>
        <time>2026-06-10T18:21:11.906Z</time>
      </trkpt>
      <trkpt lat="47.733294" lon="18.863589">
        <ele>385.015812</ele>
        <time>2026-06-10T18:21:25.844Z</time>
      </trkpt>
      <trkpt lat="47.732016" lon="18.864300">
        <ele>391.400921</ele>
        <time>2026-06-10T18:24:08.490Z</time>
      </trkpt>
      <trkpt lat="47.731977" lon="18.864324">
        <ele>391.660906</ele>
        <time>2026-06-10T18:24:13.696Z</time>
      </trkpt>
      <trkpt lat="47.731603" lon="18.864559">
        <ele>394.161838</ele>
        <time>2026-06-10T18:25:04.174Z</time>
      </trkpt>
      <trkpt lat="47.731539" lon="18.864454">
        <ele>394.748890</ele>
        <time>2026-06-10T18:25:16.040Z</time>
      </trkpt>
      <trkpt lat="47.731481" lon="18.864418">
        <ele>395.136023</ele>
        <time>2026-06-10T18:25:24.030Z</time>
      </trkpt>
      <trkpt lat="47.731278" lon="18.864429">
        <ele>396.387231</ele>
        <time>2026-06-10T18:25:49.231Z</time>
      </trkpt>
      <trkpt lat="47.731201" lon="18.864392">
        <ele>396.885668</ele>
        <time>2026-06-10T18:25:59.256Z</time>
      </trkpt>
      <trkpt lat="47.730962" lon="18.864138">
        <ele>398.695223</ele>
        <time>2026-06-10T18:26:34.908Z</time>
      </trkpt>
      <trkpt lat="47.730701" lon="18.863972">
        <ele>399.560689</ele>
        <time>2026-06-10T18:27:08.384Z</time>
      </trkpt>
      <trkpt lat="47.730593" lon="18.863854">
        <ele>399.934474</ele>
        <time>2026-06-10T18:27:23.845Z</time>
      </trkpt>
      <trkpt lat="47.730569" lon="18.863787">
        <ele>400.076866</ele>
        <time>2026-06-10T18:27:29.717Z</time>
      </trkpt>
      <trkpt lat="47.730588" lon="18.863723">
        <ele>400.208094</ele>
        <time>2026-06-10T18:27:35.182Z</time>
      </trkpt>
      <trkpt lat="47.730709" lon="18.863627">
        <ele>400.590590</ele>
        <time>2026-06-10T18:27:50.932Z</time>
      </trkpt>
      <trkpt lat="47.730819" lon="18.863458">
        <ele>401.031735</ele>
        <time>2026-06-10T18:28:08.763Z</time>
      </trkpt>
      <trkpt lat="47.730985" lon="18.863084">
        <ele>401.872276</ele>
        <time>2026-06-10T18:28:41.615Z</time>
      </trkpt>
      <trkpt lat="47.731071" lon="18.862815">
        <ele>402.430972</ele>
        <time>2026-06-10T18:29:02.676Z</time>
      </trkpt>
      <trkpt lat="47.731106" lon="18.862619">
        <ele>402.811370</ele>
        <time>2026-06-10T18:29:16.623Z</time>
      </trkpt>
      <trkpt lat="47.731097" lon="18.862278">
        <ele>403.451516</ele>
        <time>2026-06-10T18:29:39.723Z</time>
      </trkpt>
      <trkpt lat="47.731001" lon="18.862018">
        <ele>403.886366</ele>
        <time>2026-06-10T18:29:59.693Z</time>
      </trkpt>
      <trkpt lat="47.730938" lon="18.861967">
        <ele>403.936073</ele>
        <time>2026-06-10T18:30:06.859Z</time>
      </trkpt>
      <trkpt lat="47.730854" lon="18.861953">
        <ele>403.994646</ele>
        <time>2026-06-10T18:30:15.376Z</time>
      </trkpt>
      <trkpt lat="47.730446" lon="18.862095">
        <ele>404.285013</ele>
        <time>2026-06-10T18:30:57.718Z</time>
      </trkpt>
      <trkpt lat="47.730321" lon="18.862073">
        <ele>404.372237</ele>
        <time>2026-06-10T18:31:10.546Z</time>
      </trkpt>
      <trkpt lat="47.730192" lon="18.861906">
        <ele>404.490767</ele>
        <time>2026-06-10T18:31:28.230Z</time>
      </trkpt>
      <trkpt lat="47.729937" lon="18.861681">
        <ele>404.696247</ele>
        <time>2026-06-10T18:31:58.884Z</time>
      </trkpt>
      <trkpt lat="47.729854" lon="18.861650">
        <ele>404.755549</ele>
        <time>2026-06-10T18:32:07.801Z</time>
      </trkpt>
      <trkpt lat="47.729637" lon="18.861658">
        <ele>404.905966</ele>
        <time>2026-06-10T18:32:30.272Z</time>
      </trkpt>
      <trkpt lat="47.729494" lon="18.861625">
        <ele>405.006244</ele>
        <time>2026-06-10T18:32:45.323Z</time>
      </trkpt>
      <trkpt lat="47.729419" lon="18.861574">
        <ele>405.063394</ele>
        <time>2026-06-10T18:32:53.936Z</time>
      </trkpt>
      <trkpt lat="47.729304" lon="18.861234">
        <ele>405.545418</ele>
        <time>2026-06-10T18:33:20.539Z</time>
      </trkpt>
      <trkpt lat="47.729264" lon="18.861023">
        <ele>405.857615</ele>
        <time>2026-06-10T18:33:35.762Z</time>
      </trkpt>
      <trkpt lat="47.729081" lon="18.860821">
        <ele>406.340189</ele>
        <time>2026-06-10T18:33:58.899Z</time>
      </trkpt>
      <trkpt lat="47.729005" lon="18.860673">
        <ele>406.605362</ele>
        <time>2026-06-10T18:34:11.648Z</time>
      </trkpt>
      <trkpt lat="47.728903" lon="18.860556">
        <ele>406.878129</ele>
        <time>2026-06-10T18:34:24.990Z</time>
      </trkpt>
      <trkpt lat="47.728877" lon="18.860449">
        <ele>407.040150</ele>
        <time>2026-06-10T18:34:33.048Z</time>
      </trkpt>
      <trkpt lat="47.728918" lon="18.860220">
        <ele>407.377633</ele>
        <time>2026-06-10T18:34:49.991Z</time>
      </trkpt>
      <trkpt lat="47.729158" lon="18.859878">
        <ele>408.081497</ele>
        <time>2026-06-10T18:35:26.242Z</time>
      </trkpt>
      <trkpt lat="47.729336" lon="18.859571">
        <ele>408.658715</ele>
        <time>2026-06-10T18:35:56.740Z</time>
      </trkpt>
      <trkpt lat="47.729412" lon="18.859275">
        <ele>409.675812</ele>
        <time>2026-06-10T18:36:21.199Z</time>
      </trkpt>
      <trkpt lat="47.729384" lon="18.859117">
        <ele>410.537917</ele>
        <time>2026-06-10T18:36:34.081Z</time>
      </trkpt>
      <trkpt lat="47.729309" lon="18.859015">
        <ele>411.335263</ele>
        <time>2026-06-10T18:36:46.080Z</time>
      </trkpt>
      <trkpt lat="47.729206" lon="18.858947">
        <ele>412.219303</ele>
        <time>2026-06-10T18:36:59.608Z</time>
      </trkpt>
      <trkpt lat="47.729110" lon="18.858931">
        <ele>412.977069</ele>
        <time>2026-06-10T18:37:11.206Z</time>
      </trkpt>
      <trkpt lat="47.728934" lon="18.858976">
        <ele>414.377927</ele>
        <time>2026-06-10T18:37:33.148Z</time>
      </trkpt>
      <trkpt lat="47.728854" lon="18.858951">
        <ele>415.019181</ele>
        <time>2026-06-10T18:37:43.411Z</time>
      </trkpt>
      <trkpt lat="47.728633" lon="18.858744">
        <ele>417.068138</ele>
        <time>2026-06-10T18:38:16.885Z</time>
      </trkpt>
      <trkpt lat="47.728199" lon="18.858438">
        <ele>420.836010</ele>
        <time>2026-06-10T18:39:20.022Z</time>
      </trkpt>
      <trkpt lat="47.728081" lon="18.858405">
        <ele>421.777867</ele>
        <time>2026-06-10T18:39:36.115Z</time>
      </trkpt>
      <trkpt lat="47.727820" lon="18.858420">
        <ele>424.278978</ele>
        <time>2026-06-10T18:40:11.624Z</time>
      </trkpt>
      <trkpt lat="47.727668" lon="18.858357">
        <ele>426.201920</ele>
        <time>2026-06-10T18:40:34.128Z</time>
      </trkpt>
      <trkpt lat="47.727398" lon="18.858387">
        <ele>429.501370</ele>
        <time>2026-06-10T18:41:14.729Z</time>
      </trkpt>
      <trkpt lat="47.727269" lon="18.858349">
        <ele>431.103953</ele>
        <time>2026-06-10T18:41:35.503Z</time>
      </trkpt>
      <trkpt lat="47.727077" lon="18.858208">
        <ele>433.713610</ele>
        <time>2026-06-10T18:42:09.579Z</time>
      </trkpt>
      <trkpt lat="47.726954" lon="18.858097">
        <ele>435.467066</ele>
        <time>2026-06-10T18:42:31.949Z</time>
      </trkpt>
      <trkpt lat="47.726786" lon="18.857841">
        <ele>438.398794</ele>
        <time>2026-06-10T18:43:08.643Z</time>
      </trkpt>
      <trkpt lat="47.726703" lon="18.857639">
        <ele>440.339120</ele>
        <time>2026-06-10T18:43:32.446Z</time>
      </trkpt>
      <trkpt lat="47.726664" lon="18.857511">
        <ele>441.490987</ele>
        <time>2026-06-10T18:43:46.439Z</time>
      </trkpt>
      <trkpt lat="47.726636" lon="18.857098">
        <ele>444.893611</ele>
        <time>2026-06-10T18:44:26.435Z</time>
      </trkpt>
      <trkpt lat="47.726408" lon="18.857116">
        <ele>446.619452</ele>
        <time>2026-06-10T18:44:57.882Z</time>
      </trkpt>
      <trkpt lat="47.725644" lon="18.857570">
        <ele>452.790537</ele>
        <time>2026-06-10T18:46:42.914Z</time>
      </trkpt>
      <trkpt lat="47.724789" lon="18.857956">
        <ele>458.850504</ele>
        <time>2026-06-10T18:48:27.517Z</time>
      </trkpt>
      <trkpt lat="47.724260" lon="18.858383">
        <ele>460.665930</ele>
        <time>2026-06-10T18:49:37.280Z</time>
      </trkpt>
      <trkpt lat="47.724198" lon="18.858646">
        <ele>461.231316</ele>
        <time>2026-06-10T18:49:57.836Z</time>
      </trkpt>
      <trkpt lat="47.724084" lon="18.858617">
        <ele>461.580125</ele>
        <time>2026-06-10T18:50:10.391Z</time>
      </trkpt>
      <trkpt lat="47.723869" lon="18.858740">
        <ele>462.274902</ele>
        <time>2026-06-10T18:50:34.878Z</time>
      </trkpt>
      <trkpt lat="47.723781" lon="18.858733">
        <ele>462.540680</ele>
        <time>2026-06-10T18:50:44.142Z</time>
      </trkpt>
      <trkpt lat="47.723199" lon="18.858476">
        <ele>465.087867</ele>
        <time>2026-06-10T18:51:47.306Z</time>
      </trkpt>
      <trkpt lat="47.722812" lon="18.858379">
        <ele>467.875385</ele>
        <time>2026-06-10T18:52:29.387Z</time>
      </trkpt>
      <trkpt lat="47.722693" lon="18.858423">
        <ele>468.746353</ele>
        <time>2026-06-10T18:52:42.877Z</time>
      </trkpt>
      <trkpt lat="47.722580" lon="18.858508">
        <ele>469.645858</ele>
        <time>2026-06-10T18:52:57.299Z</time>
      </trkpt>
      <trkpt lat="47.722503" lon="18.858468">
        <ele>470.225195</ele>
        <time>2026-06-10T18:53:06.662Z</time>
      </trkpt>
      <trkpt lat="47.722465" lon="18.858438">
        <ele>470.530798</ele>
        <time>2026-06-10T18:53:11.753Z</time>
      </trkpt>
      <trkpt lat="47.722391" lon="18.858287">
        <ele>471.423436</ele>
        <time>2026-06-10T18:53:26.874Z</time>
      </trkpt>
      <trkpt lat="47.721171" lon="18.857454">
        <ele>485.542327</ele>
        <time>2026-06-10T18:56:50.074Z</time>
      </trkpt>
      <trkpt lat="47.720959" lon="18.857258">
        <ele>489.187914</ele>
        <time>2026-06-10T18:57:33.630Z</time>
      </trkpt>
      <trkpt lat="47.720946" lon="18.857177">
        <ele>490.005948</ele>
        <time>2026-06-10T18:57:43.294Z</time>
      </trkpt>
      <trkpt lat="47.720913" lon="18.857140">
        <ele>490.609530</ele>
        <time>2026-06-10T18:57:50.273Z</time>
      </trkpt>
      <trkpt lat="47.720833" lon="18.857172">
        <ele>491.819262</ele>
        <time>2026-06-10T18:58:04.758Z</time>
      </trkpt>
      <trkpt lat="47.720333" lon="18.858159">
        <ele>503.875009</ele>
        <time>2026-06-10T19:00:25.366Z</time>
      </trkpt>
      <trkpt lat="47.720170" lon="18.858571">
        <ele>508.213534</ele>
        <time>2026-06-10T19:01:15.836Z</time>
      </trkpt>
      <trkpt lat="47.719997" lon="18.859237">
        <ele>514.693909</ele>
        <time>2026-06-10T19:02:24.212Z</time>
      </trkpt>
      <trkpt lat="47.719742" lon="18.859912">
        <ele>521.720941</ele>
        <time>2026-06-10T19:03:39.136Z</time>
      </trkpt>
      <trkpt lat="47.719383" lon="18.860708">
        <ele>530.751174</ele>
        <time>2026-06-10T19:05:23.552Z</time>
      </trkpt>
      <trkpt lat="47.718973" lon="18.861422">
        <ele>540.135956</ele>
        <time>2026-06-10T19:07:09.979Z</time>
      </trkpt>
      <trkpt lat="47.718933" lon="18.861429">
        <ele>540.734469</ele>
        <time>2026-06-10T19:07:17.183Z</time>
      </trkpt>
      <trkpt lat="47.718779" lon="18.861431">
        <ele>543.023028</ele>
        <time>2026-06-10T19:07:43.268Z</time>
      </trkpt>
      <trkpt lat="47.718702" lon="18.861512">
        <ele>544.424829</ele>
        <time>2026-06-10T19:07:58.893Z</time>
      </trkpt>
      <trkpt lat="47.718081" lon="18.862683">
        <ele>557.547647</ele>
        <time>2026-06-10T19:10:44.081Z</time>
      </trkpt>
      <trkpt lat="47.717470" lon="18.863584">
        <ele>566.152760</ele>
        <time>2026-06-10T19:12:38.172Z</time>
      </trkpt>
      <trkpt lat="47.716142" lon="18.866293">
        <ele>581.960381</ele>
        <time>2026-06-10T19:17:15.889Z</time>
      </trkpt>
      <trkpt lat="47.716008" lon="18.866508">
        <ele>582.956176</ele>
        <time>2026-06-10T19:17:37.219Z</time>
      </trkpt>
      <trkpt lat="47.715833" lon="18.867171">
        <ele>584.747213</ele>
        <time>2026-06-10T19:18:27.592Z</time>
      </trkpt>
      <trkpt lat="47.715932" lon="18.867174">
        <ele>585.117331</ele>
        <time>2026-06-10T19:18:37.847Z</time>
      </trkpt>
      <trkpt lat="47.716038" lon="18.867220">
        <ele>585.530079</ele>
        <time>2026-06-10T19:18:49.233Z</time>
      </trkpt>
      <trkpt lat="47.716219" lon="18.867404">
        <ele>586.349725</ele>
        <time>2026-06-10T19:19:11.904Z</time>
      </trkpt>
      <trkpt lat="47.716330" lon="18.867620">
        <ele>587.033244</ele>
        <time>2026-06-10T19:19:31.083Z</time>
      </trkpt>
      <trkpt lat="47.716373" lon="18.867874">
        <ele>587.691911</ele>
        <time>2026-06-10T19:19:50.244Z</time>
      </trkpt>
      <trkpt lat="47.716374" lon="18.867958">
        <ele>587.903186</ele>
        <time>2026-06-10T19:19:56.624Z</time>
      </trkpt>
      <trkpt lat="47.716485" lon="18.868060">
        <ele>588.390971</ele>
        <time>2026-06-10T19:20:11.802Z</time>
      </trkpt>
      <trkpt lat="47.716527" lon="18.868221">
        <ele>588.825220</ele>
        <time>2026-06-10T19:20:25.896Z</time>
      </trkpt>
      <trkpt lat="47.716529" lon="18.868329">
        <ele>589.096920</ele>
        <time>2026-06-10T19:20:34.959Z</time>
      </trkpt>
      <trkpt lat="47.716466" lon="18.868648">
        <ele>590.815852</ele>
        <time>2026-06-10T19:21:03.785Z</time>
      </trkpt>
      <trkpt lat="47.716456" lon="18.868925">
        <ele>592.608063</ele>
        <time>2026-06-10T19:21:28.856Z</time>
      </trkpt>
      <trkpt lat="47.716491" lon="18.869338">
        <ele>595.297450</ele>
        <time>2026-06-10T19:22:08.761Z</time>
      </trkpt>
      <trkpt lat="47.716614" lon="18.870103">
        <ele>600.379114</ele>
        <time>2026-06-10T19:23:23.062Z</time>
      </trkpt>
      <trkpt lat="47.716609" lon="18.870803">
        <ele>604.901903</ele>
        <time>2026-06-10T19:24:26.678Z</time>
      </trkpt>
      <trkpt lat="47.716636" lon="18.870936">
        <ele>605.799449</ele>
        <time>2026-06-10T19:24:38.942Z</time>
      </trkpt>
      <trkpt lat="47.716609" lon="18.871029">
        <ele>606.453854</ele>
        <time>2026-06-10T19:24:47.749Z</time>
      </trkpt>
      <trkpt lat="47.716554" lon="18.871200">
        <ele>607.202845</ele>
        <time>2026-06-10T19:25:04.044Z</time>
      </trkpt>
      <trkpt lat="47.716174" lon="18.871955">
        <ele>610.498345</ele>
        <time>2026-06-10T19:26:20.919Z</time>
      </trkpt>
      <trkpt lat="47.716098" lon="18.872204">
        <ele>611.454004</ele>
        <time>2026-06-10T19:26:41.580Z</time>
      </trkpt>
      <trkpt lat="47.715979" lon="18.872914">
        <ele>614.011406</ele>
        <time>2026-06-10T19:27:35.776Z</time>
      </trkpt>
      <trkpt lat="47.715738" lon="18.873622">
        <ele>616.900436</ele>
        <time>2026-06-10T19:28:36.954Z</time>
      </trkpt>
      <trkpt lat="47.715555" lon="18.874078">
        <ele>619.025289</ele>
        <time>2026-06-10T19:29:18.832Z</time>
      </trkpt>
      <trkpt lat="47.715465" lon="18.874408">
        <ele>620.450302</ele>
        <time>2026-06-10T19:29:46.588Z</time>
      </trkpt>
      <trkpt lat="47.715649" lon="18.874561">
        <ele>621.704381</ele>
        <time>2026-06-10T19:30:11.210Z</time>
      </trkpt>
      <trkpt lat="47.715893" lon="18.874682">
        <ele>623.234360</ele>
        <time>2026-06-10T19:30:41.635Z</time>
      </trkpt>
      <trkpt lat="47.716468" lon="18.874721">
        <ele>626.658060</ele>
        <time>2026-06-10T19:31:53.584Z</time>
      </trkpt>
      <trkpt lat="47.716569" lon="18.875041">
        <ele>629.302537</ele>
        <time>2026-06-10T19:32:25.175Z</time>
      </trkpt>
      <trkpt lat="47.716569" lon="18.875409">
        <ele>632.080272</ele>
        <time>2026-06-10T19:32:58.509Z</time>
      </trkpt>
      <trkpt lat="47.716566" lon="18.876243">
        <ele>638.375556</ele>
        <time>2026-06-10T19:34:19.825Z</time>
      </trkpt>
      <trkpt lat="47.716589" lon="18.876386">
        <ele>639.485363</ele>
        <time>2026-06-10T19:34:34.984Z</time>
      </trkpt>
      <trkpt lat="47.716783" lon="18.876998">
        <ele>644.591909</ele>
        <time>2026-06-10T19:35:43.667Z</time>
      </trkpt>
      <trkpt lat="47.716827" lon="18.877218">
        <ele>646.324322</ele>
        <time>2026-06-10T19:36:06.617Z</time>
      </trkpt>
      <trkpt lat="47.716861" lon="18.877655">
        <ele>648.643716</ele>
        <time>2026-06-10T19:36:48.279Z</time>
      </trkpt>
      <trkpt lat="47.716904" lon="18.877846">
        <ele>649.616720</ele>
        <time>2026-06-10T19:37:06.643Z</time>
      </trkpt>
      <trkpt lat="47.717133" lon="18.878392">
        <ele>652.724979</ele>
        <time>2026-06-10T19:38:02.694Z</time>
      </trkpt>
      <trkpt lat="47.717244" lon="18.878606">
        <ele>654.030369</ele>
        <time>2026-06-10T19:38:25.164Z</time>
      </trkpt>
      <trkpt lat="47.717550" lon="18.879034">
        <ele>657.047468</ele>
        <time>2026-06-10T19:39:14.531Z</time>
      </trkpt>
      <trkpt lat="47.717698" lon="18.879122">
        <ele>658.192052</ele>
        <time>2026-06-10T19:39:32.604Z</time>
      </trkpt>
      <trkpt lat="47.718276" lon="18.879287">
        <ele>660.772642</ele>
        <time>2026-06-10T19:40:37.657Z</time>
      </trkpt>
      <trkpt lat="47.718399" lon="18.879385">
        <ele>661.149955</ele>
        <time>2026-06-10T19:40:52.492Z</time>
      </trkpt>
      <trkpt lat="47.718568" lon="18.879695">
        <ele>661.875717</ele>
        <time>2026-06-10T19:41:21.050Z</time>
      </trkpt>
      <trkpt lat="47.718606" lon="18.880125">
        <ele>662.664584</ele>
        <time>2026-06-10T19:41:52.183Z</time>
      </trkpt>
      <trkpt lat="47.718657" lon="18.880278">
        <ele>662.975169</ele>
        <time>2026-06-10T19:42:04.478Z</time>
      </trkpt>
      <trkpt lat="47.718654" lon="18.880380">
        <ele>663.160878</ele>
        <time>2026-06-10T19:42:12.026Z</time>
      </trkpt>
      <trkpt lat="47.718342" lon="18.880750">
        <ele>664.240002</ele>
        <time>2026-06-10T19:42:55.838Z</time>
      </trkpt>
      <trkpt lat="47.718203" lon="18.880852">
        <ele>664.659557</ele>
        <time>2026-06-10T19:43:13.210Z</time>
      </trkpt>
      <trkpt lat="47.718157" lon="18.880963">
        <ele>664.902741</ele>
        <time>2026-06-10T19:43:23.006Z</time>
      </trkpt>
      <trkpt lat="47.718074" lon="18.881384">
        <ele>665.721084</ele>
        <time>2026-06-10T19:43:56.063Z</time>
      </trkpt>
      <trkpt lat="47.717810" lon="18.881750">
        <ele>666.722034</ele>
        <time>2026-06-10T19:44:37.425Z</time>
      </trkpt>
      <trkpt lat="47.717604" lon="18.882173">
        <ele>667.696115</ele>
        <time>2026-06-10T19:45:17.909Z</time>
      </trkpt>
      <trkpt lat="47.717567" lon="18.882344">
        <ele>668.031187</ele>
        <time>2026-06-10T19:45:31.793Z</time>
      </trkpt>
      <trkpt lat="47.717504" lon="18.883108">
        <ele>669.467007</ele>
        <time>2026-06-10T19:46:27.903Z</time>
      </trkpt>
      <trkpt lat="47.717510" lon="18.883859">
        <ele>669.080929</ele>
        <time>2026-06-10T19:47:19.430Z</time>
      </trkpt>
      <trkpt lat="47.717639" lon="18.883959">
        <ele>668.902617</ele>
        <time>2026-06-10T19:47:34.845Z</time>
      </trkpt>
      <trkpt lat="47.717801" lon="18.883971">
        <ele>668.703824</ele>
        <time>2026-06-10T19:47:52.077Z</time>
      </trkpt>
      <trkpt lat="47.718202" lon="18.883804">
        <ele>668.193435</ele>
        <time>2026-06-10T19:48:36.390Z</time>
      </trkpt>
      <trkpt lat="47.718714" lon="18.883495">
        <ele>667.516178</ele>
        <time>2026-06-10T19:49:34.187Z</time>
      </trkpt>
      <trkpt lat="47.718840" lon="18.883461">
        <ele>667.676862</ele>
        <time>2026-06-10T19:49:47.158Z</time>
      </trkpt>
      <trkpt lat="47.718937" lon="18.883465">
        <ele>668.138235</ele>
        <time>2026-06-10T19:49:56.868Z</time>
      </trkpt>
      <trkpt lat="47.719038" lon="18.883512">
        <ele>668.641431</ele>
        <time>2026-06-10T19:50:07.781Z</time>
      </trkpt>
      <trkpt lat="47.719177" lon="18.883649">
        <ele>669.434408</ele>
        <time>2026-06-10T19:50:25.551Z</time>
      </trkpt>
      <trkpt lat="47.719369" lon="18.884241">
        <ele>671.536601</ele>
        <time>2026-06-10T19:51:15.825Z</time>
      </trkpt>
      <trkpt lat="47.719562" lon="18.884447">
        <ele>672.666311</ele>
        <time>2026-06-10T19:51:44.580Z</time>
      </trkpt>
      <trkpt lat="47.719674" lon="18.884650">
        <ele>673.506076</ele>
        <time>2026-06-10T19:52:06.560Z</time>
      </trkpt>
      <trkpt lat="47.719846" lon="18.884852">
        <ele>674.548318</ele>
        <time>2026-06-10T19:52:34.352Z</time>
      </trkpt>
      <trkpt lat="47.720331" lon="18.885677">
        <ele>679.637489</ele>
        <time>2026-06-10T19:54:10.385Z</time>
      </trkpt>
      <trkpt lat="47.720413" lon="18.885869">
        <ele>680.920043</ele>
        <time>2026-06-10T19:54:30.431Z</time>
      </trkpt>
      <trkpt lat="47.720629" lon="18.886608">
        <ele>685.464002</ele>
        <time>2026-06-10T19:55:42.073Z</time>
      </trkpt>
      <trkpt lat="47.721493" lon="18.887207">
        <ele>691.778134</ele>
        <time>2026-06-10T19:57:42.692Z</time>
      </trkpt>
      <trkpt lat="47.721559" lon="18.887604">
        <ele>692.473553</ele>
        <time>2026-06-10T19:58:14.465Z</time>
      </trkpt>
      <trkpt lat="47.721568" lon="18.887974">
        <ele>693.103160</ele>
        <time>2026-06-10T19:58:42.075Z</time>
      </trkpt>
      <trkpt lat="47.721619" lon="18.888302">
        <ele>693.675638</ele>
        <time>2026-06-10T19:59:06.275Z</time>
      </trkpt>
      <trkpt lat="47.721607" lon="18.889016">
        <ele>694.890194</ele>
        <time>2026-06-10T19:59:54.875Z</time>
      </trkpt>
      <trkpt lat="47.721548" lon="18.889783">
        <ele>695.146262</ele>
        <time>2026-06-10T20:00:48.222Z</time>
      </trkpt>
      <trkpt lat="47.721477" lon="18.890711">
        <ele>693.949162</ele>
        <time>2026-06-10T20:01:54.209Z</time>
      </trkpt>
      <trkpt lat="47.721330" lon="18.891240">
        <ele>693.215566</ele>
        <time>2026-06-10T20:02:34.662Z</time>
      </trkpt>
      <trkpt lat="47.721173" lon="18.891595">
        <ele>692.671040</ele>
        <time>2026-06-10T20:03:04.631Z</time>
      </trkpt>
      <trkpt lat="47.721144" lon="18.891751">
        <ele>692.463597</ele>
        <time>2026-06-10T20:03:15.988Z</time>
      </trkpt>
      <trkpt lat="47.720967" lon="18.892045">
        <ele>692.095319</ele>
        <time>2026-06-10T20:03:43.655Z</time>
      </trkpt>
      <trkpt lat="47.720929" lon="18.892156">
        <ele>692.037386</ele>
        <time>2026-06-10T20:03:52.296Z</time>
      </trkpt>
      <trkpt lat="47.720755" lon="18.892725">
        <ele>691.746652</ele>
        <time>2026-06-10T20:04:35.617Z</time>
      </trkpt>
      <trkpt lat="47.720745" lon="18.892960">
        <ele>691.637122</ele>
        <time>2026-06-10T20:04:51.717Z</time>
      </trkpt>
      <trkpt lat="47.720716" lon="18.893069">
        <ele>691.582599</ele>
        <time>2026-06-10T20:04:59.585Z</time>
      </trkpt>
      <trkpt lat="47.720628" lon="18.893203">
        <ele>691.495493</ele>
        <time>2026-06-10T20:05:12.210Z</time>
      </trkpt>
      <trkpt lat="47.720547" lon="18.893354">
        <ele>691.405659</ele>
        <time>2026-06-10T20:05:25.336Z</time>
      </trkpt>
      <trkpt lat="47.720461" lon="18.893484">
        <ele>691.320850</ele>
        <time>2026-06-10T20:05:37.772Z</time>
      </trkpt>
      <trkpt lat="47.720278" lon="18.893956">
        <ele>691.067443</ele>
        <time>2026-06-10T20:06:14.530Z</time>
      </trkpt>
      <trkpt lat="47.720166" lon="18.894413">
        <ele>690.979574</ele>
        <time>2026-06-10T20:06:47.717Z</time>
      </trkpt>
      <trkpt lat="47.720079" lon="18.895082">
        <ele>691.156763</ele>
        <time>2026-06-10T20:07:34.245Z</time>
      </trkpt>
      <trkpt lat="47.720040" lon="18.895276">
        <ele>691.209415</ele>
        <time>2026-06-10T20:07:48.072Z</time>
      </trkpt>
      <trkpt lat="47.719817" lon="18.895640">
        <ele>691.337437</ele>
        <time>2026-06-10T20:08:21.541Z</time>
      </trkpt>
      <trkpt lat="47.719747" lon="18.895882">
        <ele>691.405938</ele>
        <time>2026-06-10T20:08:39.506Z</time>
      </trkpt>
      <trkpt lat="47.719785" lon="18.896977">
        <ele>691.625193</ele>
        <time>2026-06-10T20:09:55.548Z</time>
      </trkpt>
      <trkpt lat="47.719881" lon="18.897328">
        <ele>691.625193</ele>
        <time>2026-06-10T20:10:21.243Z</time>
      </trkpt>
      <trkpt lat="47.719888" lon="18.897480">
        <ele>691.625193</ele>
        <time>2026-06-10T20:10:31.624Z</time>
      </trkpt>
      <trkpt lat="47.719853" lon="18.897714">
        <ele>691.625193</ele>
        <time>2026-06-10T20:10:47.979Z</time>
      </trkpt>
      <trkpt lat="47.719744" lon="18.897824">
        <ele>691.625193</ele>
        <time>2026-06-10T20:11:01.376Z</time>
      </trkpt>
      <trkpt lat="47.719616" lon="18.897904">
        <ele>691.625193</ele>
        <time>2026-06-10T20:11:15.514Z</time>
      </trkpt>
      <trkpt lat="47.719502" lon="18.897912">
        <ele>691.625193</ele>
        <time>2026-06-10T20:11:27.091Z</time>
      </trkpt>
      <trkpt lat="47.719267" lon="18.897824">
        <ele>691.625193</ele>
        <time>2026-06-10T20:11:51.685Z</time>
      </trkpt>
      <trkpt lat="47.719024" lon="18.897907">
        <ele>691.625193</ele>
        <time>2026-06-10T20:12:17.166Z</time>
      </trkpt>
      <trkpt lat="47.718988" lon="18.897998">
        <ele>691.625193</ele>
        <time>2026-06-10T20:12:24.375Z</time>
      </trkpt>
      <trkpt lat="47.718936" lon="18.898063">
        <ele>691.625193</ele>
        <time>2026-06-10T20:12:31.334Z</time>
      </trkpt>
      <trkpt lat="47.718993" lon="18.897454">
        <ele>691.625193</ele>
        <time>2026-06-10T20:13:13.768Z</time>
      </trkpt>
    </trkseg>
  </trk>
</gpx>