<?xml version="1.0" encoding="UTF-8"?>
<gpx xmlns="http://www.topografix.com/GPX/1/1" creator="turistautak.openstreetmap.hu" version="1.1" xmlns:xsi="http://www.w3.org/2001/XMLSchema-instance" xsi:schemaLocation="http://www.garmin.com/xmlschemas/GpxExtensions/v3 http://www.garmin.com/xmlschemas/GpxExtensions/v3/GpxExtensionsv3.xsd http://www.topografix.com/GPX/1/1 http://www.topografix.com/GPX/1/1/gpx.xsd">
	<metadata>
		<name>1779369232125a útvonal</name>
		<desc>1779369232125a útvonal</desc>
	</metadata>
<trk>
  <name>utv</name>
<trkseg><trkpt lat="47.763724" lon="18.910986">
        <ele>114</ele>
      </trkpt>
<trkpt lat="47.763696" lon="18.910973">
        <ele>114</ele>
      </trkpt>
<trkpt lat="47.763661" lon="18.910961">
        <ele>113.4</ele>
      </trkpt>
<trkpt lat="47.763591" lon="18.910970">
        <ele>113.8</ele>
      </trkpt>
<trkpt lat="47.763509" lon="18.911056">
        <ele>114.2</ele>
      </trkpt>
<trkpt lat="47.763267" lon="18.911476">
        <ele>115.4</ele>
      </trkpt>
<trkpt lat="47.762752" lon="18.912219">
        <ele>116.6</ele>
      </trkpt>
<trkpt lat="47.762231" lon="18.912877">
        <ele>119.6</ele>
      </trkpt>
<trkpt lat="47.761967" lon="18.913070">
        <ele>121.8</ele>
      </trkpt>
<trkpt lat="47.761775" lon="18.913055">
        <ele>125.4</ele>
      </trkpt>
<trkpt lat="47.761176" lon="18.912749">
        <ele>128.2</ele>
      </trkpt>
<trkpt lat="47.760082" lon="18.912096">
        <ele>131.6</ele>
      </trkpt>
<trkpt lat="47.759154" lon="18.911688">
        <ele>135.2</ele>
      </trkpt>
<trkpt lat="47.758973" lon="18.911609">
        <ele>139.4</ele>
      </trkpt>
<trkpt lat="47.758165" lon="18.911516">
        <ele>142.2</ele>
      </trkpt>
<trkpt lat="47.757789" lon="18.911326">
        <ele>146.6</ele>
      </trkpt>
<trkpt lat="47.757439" lon="18.911032">
        <ele>150.4</ele>
      </trkpt>
<trkpt lat="47.757122" lon="18.910666">
        <ele>151.8</ele>
      </trkpt>
<trkpt lat="47.755752" lon="18.908644">
        <ele>154.8</ele>
      </trkpt>
<trkpt lat="47.755550" lon="18.908618">
        <ele>157.8</ele>
      </trkpt>
<trkpt lat="47.754919" lon="18.907794">
        <ele>158</ele>
      </trkpt>
<trkpt lat="47.754472" lon="18.907914">
        <ele>158.2</ele>
      </trkpt>
<trkpt lat="47.754193" lon="18.907507">
        <ele>162.4</ele>
      </trkpt>
<trkpt lat="47.753982" lon="18.906729">
        <ele>162.4</ele>
      </trkpt>
<trkpt lat="47.753827" lon="18.906607">
        <ele>162.4</ele>
      </trkpt>
<trkpt lat="47.753651" lon="18.906373">
        <ele>165</ele>
      </trkpt>
<trkpt lat="47.753562" lon="18.905980">
        <ele>166.8</ele>
      </trkpt>
<trkpt lat="47.753198" lon="18.905360">
        <ele>165.6</ele>
      </trkpt>
<trkpt lat="47.752889" lon="18.904837">
        <ele>166.2</ele>
      </trkpt>
<trkpt lat="47.752270" lon="18.904216">
        <ele>166.8</ele>
      </trkpt>
<trkpt lat="47.752275" lon="18.904118">
        <ele>166</ele>
      </trkpt>
<trkpt lat="47.752287" lon="18.904000">
        <ele>166</ele>
      </trkpt>
<trkpt lat="47.752229" lon="18.903934">
        <ele>167.4</ele>
      </trkpt>
<trkpt lat="47.752194" lon="18.903924">
        <ele>168.8</ele>
      </trkpt>
<trkpt lat="47.752118" lon="18.903973">
        <ele>170.2</ele>
      </trkpt>
<trkpt lat="47.751993" lon="18.904184">
        <ele>173.6</ele>
      </trkpt>
<trkpt lat="47.751738" lon="18.904391">
        <ele>179.4</ele>
      </trkpt>
<trkpt lat="47.751637" lon="18.904547">
        <ele>183.8</ele>
      </trkpt>
<trkpt lat="47.751480" lon="18.904840">
        <ele>193.8</ele>
      </trkpt>
<trkpt lat="47.751002" lon="18.905094">
        <ele>207.8</ele>
      </trkpt>
<trkpt lat="47.750500" lon="18.905185">
        <ele>220.8</ele>
      </trkpt>
<trkpt lat="47.749496" lon="18.905070">
        <ele>235.4</ele>
      </trkpt>
<trkpt lat="47.748367" lon="18.905401">
        <ele>250</ele>
      </trkpt>
<trkpt lat="47.748025" lon="18.905567">
        <ele>262</ele>
      </trkpt>
<trkpt lat="47.747908" lon="18.905579">
        <ele>274.4</ele>
      </trkpt>
<trkpt lat="47.747356" lon="18.905721">
        <ele>287.8</ele>
      </trkpt>
<trkpt lat="47.746688" lon="18.906060">
        <ele>297.2</ele>
      </trkpt>
<trkpt lat="47.745707" lon="18.906270">
        <ele>310.6</ele>
      </trkpt>
<trkpt lat="47.744941" lon="18.906723">
        <ele>325.4</ele>
      </trkpt>
<trkpt lat="47.744691" lon="18.907029">
        <ele>337.8</ele>
      </trkpt>
<trkpt lat="47.744336" lon="18.907167">
        <ele>353.4</ele>
      </trkpt>
<trkpt lat="47.743747" lon="18.907335">
        <ele>375</ele>
      </trkpt>
<trkpt lat="47.742986" lon="18.908011">
        <ele>395.6</ele>
      </trkpt>
<trkpt lat="47.742505" lon="18.908963">
        <ele>411.8</ele>
      </trkpt>
<trkpt lat="47.741888" lon="18.910009">
        <ele>428.8</ele>
      </trkpt>
<trkpt lat="47.741314" lon="18.910636">
        <ele>444</ele>
      </trkpt>
<trkpt lat="47.741262" lon="18.910768">
        <ele>453.2</ele>
      </trkpt>
<trkpt lat="47.741029" lon="18.911260">
        <ele>460.8</ele>
      </trkpt>
<trkpt lat="47.740170" lon="18.912118">
        <ele>472.6</ele>
      </trkpt>
<trkpt lat="47.739867" lon="18.912282">
        <ele>481.6</ele>
      </trkpt>
<trkpt lat="47.739557" lon="18.912772">
        <ele>487.2</ele>
      </trkpt>
<trkpt lat="47.739243" lon="18.913023">
        <ele>492.8</ele>
      </trkpt>
<trkpt lat="47.739083" lon="18.913234">
        <ele>497.8</ele>
      </trkpt>
<trkpt lat="47.738824" lon="18.913515">
        <ele>505.2</ele>
      </trkpt>
<trkpt lat="47.738772" lon="18.913540">
        <ele>512.6</ele>
      </trkpt>
<trkpt lat="47.738727" lon="18.913623">
        <ele>523.8</ele>
      </trkpt>
<trkpt lat="47.738425" lon="18.913911">
        <ele>535</ele>
      </trkpt>
<trkpt lat="47.738241" lon="18.914203">
        <ele>548.4</ele>
      </trkpt>
<trkpt lat="47.738099" lon="18.914606">
        <ele>561.6</ele>
      </trkpt>
<trkpt lat="47.737958" lon="18.915312">
        <ele>574.8</ele>
      </trkpt>
<trkpt lat="47.738013" lon="18.915550">
        <ele>584.2</ele>
      </trkpt>
<trkpt lat="47.738413" lon="18.917091">
        <ele>595.4</ele>
      </trkpt>
<trkpt lat="47.738570" lon="18.917586">
        <ele>609.4</ele>
      </trkpt>
<trkpt lat="47.738609" lon="18.917754">
        <ele>617</ele>
      </trkpt>
<trkpt lat="47.739038" lon="18.918600">
        <ele>624.2</ele>
      </trkpt>
<trkpt lat="47.739215" lon="18.919701">
        <ele>631.4</ele>
      </trkpt>
<trkpt lat="47.739462" lon="18.920415">
        <ele>636.6</ele>
      </trkpt>
<trkpt lat="47.739496" lon="18.920645">
        <ele>635.2</ele>
      </trkpt>
<trkpt lat="47.739102" lon="18.920819">
        <ele>631.8</ele>
      </trkpt>
<trkpt lat="47.738520" lon="18.921367">
        <ele>630.2</ele>
      </trkpt>
<trkpt lat="47.737825" lon="18.922535">
        <ele>626</ele>
      </trkpt>
<trkpt lat="47.736874" lon="18.923048">
        <ele>622</ele>
      </trkpt>
<trkpt lat="47.735889" lon="18.923400">
        <ele>617</ele>
      </trkpt>
<trkpt lat="47.735499" lon="18.924017">
        <ele>614.6</ele>
      </trkpt>
<trkpt lat="47.735499" lon="18.924245">
        <ele>610.6</ele>
      </trkpt>
<trkpt lat="47.735658" lon="18.924900">
        <ele>609.2</ele>
      </trkpt>
<trkpt lat="47.735600" lon="18.926538">
        <ele>602</ele>
      </trkpt>
<trkpt lat="47.735729" lon="18.927176">
        <ele>602.4</ele>
      </trkpt>
<trkpt lat="47.736070" lon="18.927281">
        <ele>602.2</ele>
      </trkpt>
<trkpt lat="47.736314" lon="18.927507">
        <ele>596.4</ele>
      </trkpt>
<trkpt lat="47.736147" lon="18.927659">
        <ele>590.6</ele>
      </trkpt>
<trkpt lat="47.736186" lon="18.927744">
        <ele>590.6</ele>
      </trkpt>
<trkpt lat="47.736426" lon="18.927595">
        <ele>584.8</ele>
      </trkpt>
<trkpt lat="47.736475" lon="18.927637">
        <ele>572</ele>
      </trkpt>
<trkpt lat="47.736503" lon="18.927661">
        <ele>565</ele>
      </trkpt>
<trkpt lat="47.736969" lon="18.927870">
        <ele>552.8</ele>
      </trkpt>
<trkpt lat="47.737225" lon="18.927940">
        <ele>540.6</ele>
      </trkpt>
<trkpt lat="47.737797" lon="18.928125">
        <ele>528.4</ele>
      </trkpt>
<trkpt lat="47.738297" lon="18.928524">
        <ele>523.2</ele>
      </trkpt>
<trkpt lat="47.738368" lon="18.928638">
        <ele>515.6</ele>
      </trkpt>
<trkpt lat="47.738490" lon="18.928694">
        <ele>516.6</ele>
      </trkpt>
<trkpt lat="47.738496" lon="18.928586">
        <ele>526.4</ele>
      </trkpt>
<trkpt lat="47.738105" lon="18.927797">
        <ele>526.8</ele>
      </trkpt>
<trkpt lat="47.737358" lon="18.926739">
        <ele>530.8</ele>
      </trkpt>
<trkpt lat="47.737054" lon="18.925768">
        <ele>533.4</ele>
      </trkpt>
<trkpt lat="47.737150" lon="18.925425">
        <ele>529.6</ele>
      </trkpt>
<trkpt lat="47.737302" lon="18.925243">
        <ele>517</ele>
      </trkpt>
<trkpt lat="47.738377" lon="18.925031">
        <ele>508.8</ele>
      </trkpt>
<trkpt lat="47.739142" lon="18.925138">
        <ele>502.6</ele>
      </trkpt>
<trkpt lat="47.739425" lon="18.925078">
        <ele>500.2</ele>
      </trkpt>
<trkpt lat="47.739595" lon="18.924912">
        <ele>500.8</ele>
      </trkpt>
<trkpt lat="47.739798" lon="18.924187">
        <ele>501.4</ele>
      </trkpt>
<trkpt lat="47.739981" lon="18.923934">
        <ele>501.4</ele>
      </trkpt>
<trkpt lat="47.740283" lon="18.923922">
        <ele>490.6</ele>
      </trkpt>
<trkpt lat="47.740403" lon="18.924025">
        <ele>483.8</ele>
      </trkpt>
<trkpt lat="47.740821" lon="18.924691">
        <ele>477</ele>
      </trkpt>
<trkpt lat="47.741205" lon="18.925609">
        <ele>470.2</ele>
      </trkpt>
<trkpt lat="47.741337" lon="18.925734">
        <ele>471</ele>
      </trkpt>
<trkpt lat="47.741690" lon="18.925697">
        <ele>468.4</ele>
      </trkpt>
<trkpt lat="47.741953" lon="18.925810">
        <ele>461.8</ele>
      </trkpt>
<trkpt lat="47.742230" lon="18.926243">
        <ele>454</ele>
      </trkpt>
<trkpt lat="47.743299" lon="18.927245">
        <ele>444</ele>
      </trkpt>
<trkpt lat="47.743493" lon="18.927240">
        <ele>442.8</ele>
      </trkpt>
<trkpt lat="47.743869" lon="18.926296">
        <ele>450.2</ele>
      </trkpt>
<trkpt lat="47.743850" lon="18.926075">
        <ele>459</ele>
      </trkpt>
<trkpt lat="47.742753" lon="18.922615">
        <ele>469</ele>
      </trkpt>
<trkpt lat="47.742733" lon="18.922267">
        <ele>476.6</ele>
      </trkpt>
<trkpt lat="47.742778" lon="18.922055">
        <ele>467.2</ele>
      </trkpt>
<trkpt lat="47.742864" lon="18.921922">
        <ele>455.2</ele>
      </trkpt>
<trkpt lat="47.743205" lon="18.921891">
        <ele>439.4</ele>
      </trkpt>
<trkpt lat="47.744099" lon="18.922213">
        <ele>423.6</ele>
      </trkpt>
<trkpt lat="47.745456" lon="18.923072">
        <ele>409.8</ele>
      </trkpt>
<trkpt lat="47.746829" lon="18.924434">
        <ele>402.2</ele>
      </trkpt>
<trkpt lat="47.747076" lon="18.924430">
        <ele>394.4</ele>
      </trkpt>
<trkpt lat="47.748104" lon="18.923679">
        <ele>387.8</ele>
      </trkpt>
<trkpt lat="47.748654" lon="18.923630">
        <ele>380.4</ele>
      </trkpt>
<trkpt lat="47.749290" lon="18.924086">
        <ele>375.6</ele>
      </trkpt>
<trkpt lat="47.749623" lon="18.924472">
        <ele>370.8</ele>
      </trkpt>
<trkpt lat="47.749877" lon="18.924939">
        <ele>366.2</ele>
      </trkpt>
<trkpt lat="47.749893" lon="18.925233">
        <ele>362.8</ele>
      </trkpt>
<trkpt lat="47.749849" lon="18.925289">
        <ele>362.4</ele>
      </trkpt>
<trkpt lat="47.749740" lon="18.925428">
        <ele>362</ele>
      </trkpt>
<trkpt lat="47.749605" lon="18.925467">
        <ele>361.8</ele>
      </trkpt>
<trkpt lat="47.749053" lon="18.925321">
        <ele>364.2</ele>
      </trkpt>
<trkpt lat="47.748772" lon="18.925382">
        <ele>359.2</ele>
      </trkpt>
<trkpt lat="47.748655" lon="18.925556">
        <ele>356.2</ele>
      </trkpt>
<trkpt lat="47.748671" lon="18.926035">
        <ele>350.4</ele>
      </trkpt>
<trkpt lat="47.748764" lon="18.927097">
        <ele>341.6</ele>
      </trkpt>
<trkpt lat="47.748650" lon="18.927601">
        <ele>332.8</ele>
      </trkpt>
<trkpt lat="47.748327" lon="18.928632">
        <ele>331.4</ele>
      </trkpt>
<trkpt lat="47.748402" lon="18.928941">
        <ele>324.4</ele>
      </trkpt>
<trkpt lat="47.748501" lon="18.929028">
        <ele>323</ele>
      </trkpt>
<trkpt lat="47.748614" lon="18.929030">
        <ele>324.4</ele>
      </trkpt>
<trkpt lat="47.748782" lon="18.928858">
        <ele>325.6</ele>
      </trkpt>
<trkpt lat="47.749278" lon="18.927433">
        <ele>322.6</ele>
      </trkpt>
<trkpt lat="47.749511" lon="18.927101">
        <ele>321</ele>
      </trkpt>
<trkpt lat="47.749784" lon="18.927019">
        <ele>315.6</ele>
      </trkpt>
<trkpt lat="47.750867" lon="18.927248">
        <ele>306.6</ele>
      </trkpt>
<trkpt lat="47.751167" lon="18.927397">
        <ele>297.8</ele>
      </trkpt>
<trkpt lat="47.751376" lon="18.927438">
        <ele>293.2</ele>
      </trkpt>
<trkpt lat="47.752941" lon="18.927412">
        <ele>288.8</ele>
      </trkpt>
<trkpt lat="47.753065" lon="18.927296">
        <ele>288.4</ele>
      </trkpt>
<trkpt lat="47.753036" lon="18.927154">
        <ele>291.6</ele>
      </trkpt>
<trkpt lat="47.752115" lon="18.926475">
        <ele>291.4</ele>
      </trkpt>
<trkpt lat="47.751979" lon="18.926219">
        <ele>290.2</ele>
      </trkpt>
<trkpt lat="47.752050" lon="18.925928">
        <ele>288.8</ele>
      </trkpt>
<trkpt lat="47.752360" lon="18.925688">
        <ele>282.4</ele>
      </trkpt>
<trkpt lat="47.753074" lon="18.925407">
        <ele>276</ele>
      </trkpt>
<trkpt lat="47.753323" lon="18.925241">
        <ele>273</ele>
      </trkpt>
<trkpt lat="47.753393" lon="18.925447">
        <ele>271</ele>
      </trkpt>
<trkpt lat="47.753328" lon="18.926130">
        <ele>266</ele>
      </trkpt>
<trkpt lat="47.753399" lon="18.926158">
        <ele>263</ele>
      </trkpt>
<trkpt lat="47.753507" lon="18.925998">
        <ele>259.2</ele>
      </trkpt>
<trkpt lat="47.753822" lon="18.925181">
        <ele>255.4</ele>
      </trkpt>
<trkpt lat="47.754333" lon="18.924917">
        <ele>247.8</ele>
      </trkpt>
<trkpt lat="47.754675" lon="18.924578">
        <ele>239.6</ele>
      </trkpt>
<trkpt lat="47.755146" lon="18.924313">
        <ele>231.4</ele>
      </trkpt>
<trkpt lat="47.755471" lon="18.924202">
        <ele>225</ele>
      </trkpt>
<trkpt lat="47.756333" lon="18.924200">
        <ele>218.6</ele>
      </trkpt>
<trkpt lat="47.756629" lon="18.923774">
        <ele>214.2</ele>
      </trkpt>
<trkpt lat="47.756794" lon="18.923354">
        <ele>213.4</ele>
      </trkpt>
<trkpt lat="47.756802" lon="18.923141">
        <ele>212.6</ele>
      </trkpt>
<trkpt lat="47.756701" lon="18.922885">
        <ele>210.8</ele>
      </trkpt>
<trkpt lat="47.756492" lon="18.922698">
        <ele>204</ele>
      </trkpt>
<trkpt lat="47.756516" lon="18.922540">
        <ele>199</ele>
      </trkpt>
<trkpt lat="47.756770" lon="18.922599">
        <ele>194</ele>
      </trkpt>
<trkpt lat="47.757226" lon="18.922199">
        <ele>189</ele>
      </trkpt>
<trkpt lat="47.757420" lon="18.922177">
        <ele>178.2</ele>
      </trkpt>
<trkpt lat="47.757621" lon="18.922465">
        <ele>168.2</ele>
      </trkpt>
<trkpt lat="47.757897" lon="18.922274">
        <ele>158.2</ele>
      </trkpt>
<trkpt lat="47.757985" lon="18.922341">
        <ele>148.2</ele>
      </trkpt>
<trkpt lat="47.758935" lon="18.922359">
        <ele>138.2</ele>
      </trkpt>
<trkpt lat="47.759422" lon="18.922474">
        <ele>134</ele>
      </trkpt>
<trkpt lat="47.759485" lon="18.922044">
        <ele>131</ele>
      </trkpt>
<trkpt lat="47.759575" lon="18.922016">
        <ele>128</ele>
      </trkpt>
<trkpt lat="47.759582" lon="18.921929">
        <ele>125</ele>
      </trkpt>
<trkpt lat="47.759617" lon="18.921640">
        <ele>122</ele>
      </trkpt>
<trkpt lat="47.759642" lon="18.921434">
        <ele>116.6</ele>
      </trkpt>
<trkpt lat="47.760155" lon="18.921666">
        <ele>113.4</ele>
      </trkpt>
<trkpt lat="47.760411" lon="18.921771">
        <ele>110.2</ele>
      </trkpt>
<trkpt lat="47.760843" lon="18.921810">
        <ele>107.2</ele>
      </trkpt>
<trkpt lat="47.761525" lon="18.920310">
        <ele>104.2</ele>
      </trkpt>
<trkpt lat="47.761651" lon="18.919983">
        <ele>104.2</ele>
      </trkpt>
<trkpt lat="47.762311" lon="18.919015">
        <ele>105.2</ele>
      </trkpt>
<trkpt lat="47.762424" lon="18.918901">
        <ele>106.2</ele>
      </trkpt>
<trkpt lat="47.762845" lon="18.917826">
        <ele>107.6</ele>
      </trkpt>
<trkpt lat="47.763276" lon="18.916735">
        <ele>109</ele>
      </trkpt>
<trkpt lat="47.763338" lon="18.916496">
        <ele>109.8</ele>
      </trkpt>
<trkpt lat="47.763409" lon="18.916124">
        <ele>110.6</ele>
      </trkpt>
<trkpt lat="47.763413" lon="18.915588">
        <ele>111.4</ele>
      </trkpt>
<trkpt lat="47.763410" lon="18.915515">
        <ele>111.6</ele>
      </trkpt>
<trkpt lat="47.763619" lon="18.915239">
        <ele>112</ele>
      </trkpt>
<trkpt lat="47.763625" lon="18.915078">
        <ele>111.2</ele>
      </trkpt>
<trkpt lat="47.763670" lon="18.914718">
        <ele>110</ele>
      </trkpt>
<trkpt lat="47.763694" lon="18.914524">
        <ele>110</ele>
      </trkpt>
<trkpt lat="47.763819" lon="18.913642">
        <ele>109.8</ele>
      </trkpt>
<trkpt lat="47.763772" lon="18.912845">
        <ele>110</ele>
      </trkpt>
<trkpt lat="47.763650" lon="18.912189">
        <ele>110.75</ele>
      </trkpt>
<trkpt lat="47.763621" lon="18.911712">
        <ele>112.33333333333</ele>
      </trkpt>
<trkpt lat="47.763724" lon="18.910986">
        <ele>112.5</ele>
      </trkpt>
</trkseg>
</trk>
</gpx>



