<?xml version="1.0" encoding="UTF-8"?>
<gpx xmlns="http://www.topografix.com/GPX/1/1" creator="turistautak.openstreetmap.hu" version="1.1" xmlns:xsi="http://www.w3.org/2001/XMLSchema-instance" xsi:schemaLocation="http://www.garmin.com/xmlschemas/GpxExtensions/v3 http://www.garmin.com/xmlschemas/GpxExtensions/v3/GpxExtensionsv3.xsd http://www.topografix.com/GPX/1/1 http://www.topografix.com/GPX/1/1/gpx.xsd">
	<metadata>
		<name>1779370889g0ja útvonal</name>
		<desc>1779370889g0ja útvonal</desc>
	</metadata>
<trk>
  <name>utv</name>
<trkseg><trkpt lat="47.718994" lon="18.897447">
        <ele>694</ele>
      </trkpt>
<trkpt lat="47.718936" lon="18.898063">
        <ele>694</ele>
      </trkpt>
<trkpt lat="47.718989" lon="18.897998">
        <ele>693.2</ele>
      </trkpt>
<trkpt lat="47.719089" lon="18.898096">
        <ele>692.4</ele>
      </trkpt>
<trkpt lat="47.719544" lon="18.898632">
        <ele>691.6</ele>
      </trkpt>
<trkpt lat="47.719838" lon="18.898756">
        <ele>690</ele>
      </trkpt>
<trkpt lat="47.719830" lon="18.898917">
        <ele>688.4</ele>
      </trkpt>
<trkpt lat="47.719783" lon="18.899220">
        <ele>688</ele>
      </trkpt>
<trkpt lat="47.719657" lon="18.899697">
        <ele>688</ele>
      </trkpt>
<trkpt lat="47.719640" lon="18.900094">
        <ele>687.8</ele>
      </trkpt>
<trkpt lat="47.719666" lon="18.900974">
        <ele>688.4</ele>
      </trkpt>
<trkpt lat="47.719877" lon="18.901346">
        <ele>687.6</ele>
      </trkpt>
<trkpt lat="47.719534" lon="18.902207">
        <ele>686.2</ele>
      </trkpt>
<trkpt lat="47.719129" lon="18.902912">
        <ele>684.4</ele>
      </trkpt>
<trkpt lat="47.718991" lon="18.903334">
        <ele>682.8</ele>
      </trkpt>
<trkpt lat="47.718447" lon="18.904758">
        <ele>680.6</ele>
      </trkpt>
<trkpt lat="47.718458" lon="18.904923">
        <ele>680.2</ele>
      </trkpt>
<trkpt lat="47.718058" lon="18.905275">
        <ele>680</ele>
      </trkpt>
<trkpt lat="47.718045" lon="18.905684">
        <ele>680.4</ele>
      </trkpt>
<trkpt lat="47.717875" lon="18.905987">
        <ele>680.8</ele>
      </trkpt>
<trkpt lat="47.717660" lon="18.906182">
        <ele>681.6</ele>
      </trkpt>
<trkpt lat="47.716539" lon="18.908886">
        <ele>683</ele>
      </trkpt>
<trkpt lat="47.716362" lon="18.908831">
        <ele>684</ele>
      </trkpt>
<trkpt lat="47.715728" lon="18.909531">
        <ele>683.4</ele>
      </trkpt>
<trkpt lat="47.715676" lon="18.909725">
        <ele>681.6</ele>
      </trkpt>
<trkpt lat="47.715704" lon="18.910532">
        <ele>676.6</ele>
      </trkpt>
<trkpt lat="47.715467" lon="18.911300">
        <ele>670.4</ele>
      </trkpt>
<trkpt lat="47.714963" lon="18.912087">
        <ele>664.4</ele>
      </trkpt>
<trkpt lat="47.714047" lon="18.914653">
        <ele>658.2</ele>
      </trkpt>
<trkpt lat="47.713602" lon="18.915470">
        <ele>653.2</ele>
      </trkpt>
<trkpt lat="47.713852" lon="18.916006">
        <ele>650.4</ele>
      </trkpt>
<trkpt lat="47.713879" lon="18.916280">
        <ele>647.8</ele>
      </trkpt>
<trkpt lat="47.713757" lon="18.916975">
        <ele>644</ele>
      </trkpt>
<trkpt lat="47.713765" lon="18.917198">
        <ele>640.8</ele>
      </trkpt>
<trkpt lat="47.713908" lon="18.917809">
        <ele>636.8</ele>
      </trkpt>
<trkpt lat="47.713928" lon="18.918532">
        <ele>634</ele>
      </trkpt>
<trkpt lat="47.714069" lon="18.919246">
        <ele>629.6</ele>
      </trkpt>
<trkpt lat="47.714064" lon="18.919727">
        <ele>624.8</ele>
      </trkpt>
<trkpt lat="47.714155" lon="18.920158">
        <ele>620.6</ele>
      </trkpt>
<trkpt lat="47.714120" lon="18.921089">
        <ele>615.6</ele>
      </trkpt>
<trkpt lat="47.714127" lon="18.921506">
        <ele>610.6</ele>
      </trkpt>
<trkpt lat="47.714069" lon="18.921898">
        <ele>607.2</ele>
      </trkpt>
<trkpt lat="47.714114" lon="18.922241">
        <ele>603.2</ele>
      </trkpt>
<trkpt lat="47.714053" lon="18.922465">
        <ele>599.2</ele>
      </trkpt>
<trkpt lat="47.714071" lon="18.922911">
        <ele>594.4</ele>
      </trkpt>
<trkpt lat="47.714091" lon="18.923438">
        <ele>587.8</ele>
      </trkpt>
<trkpt lat="47.714158" lon="18.923645">
        <ele>581.2</ele>
      </trkpt>
<trkpt lat="47.714632" lon="18.924245">
        <ele>577</ele>
      </trkpt>
<trkpt lat="47.714792" lon="18.924586">
        <ele>572.8</ele>
      </trkpt>
<trkpt lat="47.714893" lon="18.925088">
        <ele>567.2</ele>
      </trkpt>
<trkpt lat="47.714973" lon="18.925264">
        <ele>563.4</ele>
      </trkpt>
<trkpt lat="47.715106" lon="18.925393">
        <ele>559.6</ele>
      </trkpt>
<trkpt lat="47.715486" lon="18.925584">
        <ele>555.8</ele>
      </trkpt>
<trkpt lat="47.715704" lon="18.925839">
        <ele>546.6</ele>
      </trkpt>
<trkpt lat="47.716087" lon="18.925941">
        <ele>541.2</ele>
      </trkpt>
<trkpt lat="47.716215" lon="18.926095">
        <ele>532</ele>
      </trkpt>
<trkpt lat="47.716325" lon="18.926560">
        <ele>522.8</ele>
      </trkpt>
<trkpt lat="47.716526" lon="18.926803">
        <ele>509</ele>
      </trkpt>
<trkpt lat="47.717461" lon="18.926751">
        <ele>499.2</ele>
      </trkpt>
<trkpt lat="47.717721" lon="18.926960">
        <ele>489</ele>
      </trkpt>
<trkpt lat="47.718178" lon="18.927620">
        <ele>480.8</ele>
      </trkpt>
<trkpt lat="47.717300" lon="18.929481">
        <ele>471.2</ele>
      </trkpt>
<trkpt lat="47.717015" lon="18.930223">
        <ele>463.8</ele>
      </trkpt>
<trkpt lat="47.717084" lon="18.930522">
        <ele>457.8</ele>
      </trkpt>
<trkpt lat="47.717175" lon="18.931456">
        <ele>452.2</ele>
      </trkpt>
<trkpt lat="47.717352" lon="18.932176">
        <ele>445.4</ele>
      </trkpt>
<trkpt lat="47.717350" lon="18.932488">
        <ele>440</ele>
      </trkpt>
<trkpt lat="47.717477" lon="18.932632">
        <ele>437</ele>
      </trkpt>
<trkpt lat="47.717611" lon="18.933011">
        <ele>434</ele>
      </trkpt>
<trkpt lat="47.717624" lon="18.933406">
        <ele>431.2</ele>
      </trkpt>
<trkpt lat="47.717786" lon="18.933476">
        <ele>431.4</ele>
      </trkpt>
<trkpt lat="47.717766" lon="18.933591">
        <ele>431.6</ele>
      </trkpt>
<trkpt lat="47.717346" lon="18.933939">
        <ele>433.4</ele>
      </trkpt>
<trkpt lat="47.717127" lon="18.934214">
        <ele>438.2</ele>
      </trkpt>
<trkpt lat="47.717307" lon="18.934565">
        <ele>442.8</ele>
      </trkpt>
<trkpt lat="47.717538" lon="18.934758">
        <ele>450.6</ele>
      </trkpt>
<trkpt lat="47.717934" lon="18.935391">
        <ele>462.8</ele>
      </trkpt>
<trkpt lat="47.718433" lon="18.935794">
        <ele>476.8</ele>
      </trkpt>
<trkpt lat="47.719395" lon="18.936228">
        <ele>487.8</ele>
      </trkpt>
<trkpt lat="47.720371" lon="18.936868">
        <ele>498.8</ele>
      </trkpt>
<trkpt lat="47.720460" lon="18.936932">
        <ele>506.6</ele>
      </trkpt>
<trkpt lat="47.720543" lon="18.936932">
        <ele>510.4</ele>
      </trkpt>
<trkpt lat="47.720804" lon="18.936864">
        <ele>512.8</ele>
      </trkpt>
<trkpt lat="47.720943" lon="18.936557">
        <ele>516</ele>
      </trkpt>
<trkpt lat="47.721541" lon="18.936249">
        <ele>521.6</ele>
      </trkpt>
<trkpt lat="47.722668" lon="18.935845">
        <ele>527.2</ele>
      </trkpt>
<trkpt lat="47.723099" lon="18.936033">
        <ele>532.4</ele>
      </trkpt>
<trkpt lat="47.723469" lon="18.936536">
        <ele>537.6</ele>
      </trkpt>
<trkpt lat="47.723636" lon="18.936533">
        <ele>540.4</ele>
      </trkpt>
<trkpt lat="47.723712" lon="18.936468">
        <ele>542.8</ele>
      </trkpt>
<trkpt lat="47.723806" lon="18.936375">
        <ele>545.2</ele>
      </trkpt>
<trkpt lat="47.724234" lon="18.935602">
        <ele>548.8</ele>
      </trkpt>
<trkpt lat="47.724711" lon="18.935081">
        <ele>551.6</ele>
      </trkpt>
<trkpt lat="47.725109" lon="18.934831">
        <ele>556.8</ele>
      </trkpt>
<trkpt lat="47.726006" lon="18.934776">
        <ele>559.6</ele>
      </trkpt>
<trkpt lat="47.727617" lon="18.933727">
        <ele>562.4</ele>
      </trkpt>
<trkpt lat="47.728038" lon="18.933672">
        <ele>564.8</ele>
      </trkpt>
<trkpt lat="47.728759" lon="18.933873">
        <ele>566</ele>
      </trkpt>
<trkpt lat="47.729266" lon="18.934130">
        <ele>565.4</ele>
      </trkpt>
<trkpt lat="47.729665" lon="18.934281">
        <ele>568.6</ele>
      </trkpt>
<trkpt lat="47.729878" lon="18.934301">
        <ele>570.6</ele>
      </trkpt>
<trkpt lat="47.730676" lon="18.933865">
        <ele>574.8</ele>
      </trkpt>
<trkpt lat="47.731041" lon="18.933551">
        <ele>580.4</ele>
      </trkpt>
<trkpt lat="47.731312" lon="18.933062">
        <ele>586.6</ele>
      </trkpt>
<trkpt lat="47.731704" lon="18.932576">
        <ele>589.4</ele>
      </trkpt>
<trkpt lat="47.731887" lon="18.931943">
        <ele>595.4</ele>
      </trkpt>
<trkpt lat="47.732180" lon="18.931687">
        <ele>598.8</ele>
      </trkpt>
<trkpt lat="47.732411" lon="18.931554">
        <ele>600.2</ele>
      </trkpt>
<trkpt lat="47.733058" lon="18.930855">
        <ele>602</ele>
      </trkpt>
<trkpt lat="47.733535" lon="18.929769">
        <ele>605</ele>
      </trkpt>
<trkpt lat="47.733948" lon="18.929316">
        <ele>602.4</ele>
      </trkpt>
<trkpt lat="47.734006" lon="18.929089">
        <ele>602.8</ele>
      </trkpt>
<trkpt lat="47.734532" lon="18.928740">
        <ele>603.8</ele>
      </trkpt>
<trkpt lat="47.735456" lon="18.927917">
        <ele>605</ele>
      </trkpt>
<trkpt lat="47.735707" lon="18.927457">
        <ele>604.4</ele>
      </trkpt>
<trkpt lat="47.735729" lon="18.927176">
        <ele>609.2</ele>
      </trkpt>
<trkpt lat="47.735600" lon="18.926538">
        <ele>610.6</ele>
      </trkpt>
<trkpt lat="47.735658" lon="18.924900">
        <ele>614.6</ele>
      </trkpt>
<trkpt lat="47.735499" lon="18.924245">
        <ele>617</ele>
      </trkpt>
<trkpt lat="47.735499" lon="18.924017">
        <ele>622</ele>
      </trkpt>
<trkpt lat="47.735889" lon="18.923400">
        <ele>626</ele>
      </trkpt>
<trkpt lat="47.736874" lon="18.923048">
        <ele>630.2</ele>
      </trkpt>
<trkpt lat="47.737825" lon="18.922535">
        <ele>631.8</ele>
      </trkpt>
<trkpt lat="47.738520" lon="18.921367">
        <ele>634.8</ele>
      </trkpt>
<trkpt lat="47.739102" lon="18.920819">
        <ele>636.2</ele>
      </trkpt>
<trkpt lat="47.739236" lon="18.920760">
        <ele>636.8</ele>
      </trkpt>
<trkpt lat="47.739496" lon="18.920645">
        <ele>631.4</ele>
      </trkpt>
<trkpt lat="47.739462" lon="18.920415">
        <ele>624.2</ele>
      </trkpt>
<trkpt lat="47.739215" lon="18.919701">
        <ele>617</ele>
      </trkpt>
<trkpt lat="47.739038" lon="18.918600">
        <ele>609.4</ele>
      </trkpt>
<trkpt lat="47.738609" lon="18.917754">
        <ele>595.4</ele>
      </trkpt>
<trkpt lat="47.738570" lon="18.917586">
        <ele>584.2</ele>
      </trkpt>
<trkpt lat="47.738413" lon="18.917091">
        <ele>574.8</ele>
      </trkpt>
<trkpt lat="47.738013" lon="18.915550">
        <ele>561.6</ele>
      </trkpt>
<trkpt lat="47.737958" lon="18.915312">
        <ele>548.4</ele>
      </trkpt>
<trkpt lat="47.738099" lon="18.914606">
        <ele>535</ele>
      </trkpt>
<trkpt lat="47.738241" lon="18.914203">
        <ele>523.8</ele>
      </trkpt>
<trkpt lat="47.738425" lon="18.913911">
        <ele>512.6</ele>
      </trkpt>
<trkpt lat="47.738727" lon="18.913623">
        <ele>505.2</ele>
      </trkpt>
<trkpt lat="47.738772" lon="18.913540">
        <ele>497.8</ele>
      </trkpt>
<trkpt lat="47.738824" lon="18.913515">
        <ele>492.8</ele>
      </trkpt>
<trkpt lat="47.739083" lon="18.913234">
        <ele>487.2</ele>
      </trkpt>
<trkpt lat="47.739243" lon="18.913023">
        <ele>481.6</ele>
      </trkpt>
<trkpt lat="47.739557" lon="18.912772">
        <ele>472.6</ele>
      </trkpt>
<trkpt lat="47.739867" lon="18.912282">
        <ele>460.8</ele>
      </trkpt>
<trkpt lat="47.740170" lon="18.912118">
        <ele>453.2</ele>
      </trkpt>
<trkpt lat="47.741029" lon="18.911260">
        <ele>444</ele>
      </trkpt>
<trkpt lat="47.741262" lon="18.910768">
        <ele>428.8</ele>
      </trkpt>
<trkpt lat="47.741314" lon="18.910636">
        <ele>411.8</ele>
      </trkpt>
<trkpt lat="47.741888" lon="18.910009">
        <ele>395.6</ele>
      </trkpt>
<trkpt lat="47.742505" lon="18.908963">
        <ele>375</ele>
      </trkpt>
<trkpt lat="47.742986" lon="18.908011">
        <ele>353.4</ele>
      </trkpt>
<trkpt lat="47.743747" lon="18.907335">
        <ele>337.8</ele>
      </trkpt>
<trkpt lat="47.744336" lon="18.907167">
        <ele>325.4</ele>
      </trkpt>
<trkpt lat="47.744691" lon="18.907029">
        <ele>310.6</ele>
      </trkpt>
<trkpt lat="47.744941" lon="18.906723">
        <ele>297.2</ele>
      </trkpt>
<trkpt lat="47.745707" lon="18.906270">
        <ele>287.8</ele>
      </trkpt>
<trkpt lat="47.746688" lon="18.906060">
        <ele>274.4</ele>
      </trkpt>
<trkpt lat="47.747356" lon="18.905721">
        <ele>262</ele>
      </trkpt>
<trkpt lat="47.747908" lon="18.905579">
        <ele>250</ele>
      </trkpt>
<trkpt lat="47.748025" lon="18.905567">
        <ele>235.4</ele>
      </trkpt>
<trkpt lat="47.748367" lon="18.905401">
        <ele>220.8</ele>
      </trkpt>
<trkpt lat="47.749496" lon="18.905070">
        <ele>207.8</ele>
      </trkpt>
<trkpt lat="47.750500" lon="18.905185">
        <ele>193.8</ele>
      </trkpt>
<trkpt lat="47.751002" lon="18.905094">
        <ele>184.4</ele>
      </trkpt>
<trkpt lat="47.751480" lon="18.904840">
        <ele>180.6</ele>
      </trkpt>
<trkpt lat="47.751637" lon="18.904547">
        <ele>176.8</ele>
      </trkpt>
<trkpt lat="47.751152" lon="18.904415">
        <ele>178.2</ele>
      </trkpt>
<trkpt lat="47.751091" lon="18.904097">
        <ele>180.2</ele>
      </trkpt>
<trkpt lat="47.750665" lon="18.904084">
        <ele>183.6</ele>
      </trkpt>
<trkpt lat="47.750182" lon="18.903919">
        <ele>187</ele>
      </trkpt>
<trkpt lat="47.749251" lon="18.903430">
        <ele>193</ele>
      </trkpt>
<trkpt lat="47.748640" lon="18.903484">
        <ele>193.2</ele>
      </trkpt>
<trkpt lat="47.748188" lon="18.903293">
        <ele>196.8</ele>
      </trkpt>
<trkpt lat="47.747488" lon="18.903115">
        <ele>198.4</ele>
      </trkpt>
<trkpt lat="47.747143" lon="18.902887">
        <ele>201</ele>
      </trkpt>
<trkpt lat="47.746846" lon="18.902884">
        <ele>201</ele>
      </trkpt>
<trkpt lat="47.746563" lon="18.902758">
        <ele>205.4</ele>
      </trkpt>
<trkpt lat="47.746199" lon="18.902729">
        <ele>208.8</ele>
      </trkpt>
<trkpt lat="47.745665" lon="18.902586">
        <ele>211.6</ele>
      </trkpt>
<trkpt lat="47.744722" lon="18.902495">
        <ele>213.4</ele>
      </trkpt>
<trkpt lat="47.744550" lon="18.902293">
        <ele>215.2</ele>
      </trkpt>
<trkpt lat="47.744170" lon="18.902083">
        <ele>217.2</ele>
      </trkpt>
<trkpt lat="47.744053" lon="18.901948">
        <ele>218.2</ele>
      </trkpt>
<trkpt lat="47.743994" lon="18.901746">
        <ele>221.6</ele>
      </trkpt>
<trkpt lat="47.743999" lon="18.901180">
        <ele>226.4</ele>
      </trkpt>
<trkpt lat="47.744227" lon="18.900587">
        <ele>231.2</ele>
      </trkpt>
<trkpt lat="47.744323" lon="18.899957">
        <ele>236.4</ele>
      </trkpt>
<trkpt lat="47.744311" lon="18.899488">
        <ele>241.6</ele>
      </trkpt>
<trkpt lat="47.744226" lon="18.899048">
        <ele>245.8</ele>
      </trkpt>
<trkpt lat="47.744082" lon="18.898613">
        <ele>248.6</ele>
      </trkpt>
<trkpt lat="47.743840" lon="18.898343">
        <ele>253</ele>
      </trkpt>
<trkpt lat="47.743360" lon="18.898343">
        <ele>259</ele>
      </trkpt>
<trkpt lat="47.743239" lon="18.898197">
        <ele>267.6</ele>
      </trkpt>
<trkpt lat="47.743091" lon="18.897745">
        <ele>276.6</ele>
      </trkpt>
<trkpt lat="47.742612" lon="18.896658">
        <ele>287</ele>
      </trkpt>
<trkpt lat="47.742226" lon="18.895362">
        <ele>298.2</ele>
      </trkpt>
<trkpt lat="47.741875" lon="18.894734">
        <ele>309.4</ele>
      </trkpt>
<trkpt lat="47.741456" lon="18.894524">
        <ele>318</ele>
      </trkpt>
<trkpt lat="47.739586" lon="18.893976">
        <ele>327</ele>
      </trkpt>
<trkpt lat="47.739445" lon="18.893935">
        <ele>334.6</ele>
      </trkpt>
<trkpt lat="47.738800" lon="18.893942">
        <ele>339.8</ele>
      </trkpt>
<trkpt lat="47.738659" lon="18.893729">
        <ele>341.4</ele>
      </trkpt>
<trkpt lat="47.738508" lon="18.893644">
        <ele>345.2</ele>
      </trkpt>
<trkpt lat="47.738273" lon="18.893848">
        <ele>347.4</ele>
      </trkpt>
<trkpt lat="47.738020" lon="18.893773">
        <ele>349.6</ele>
      </trkpt>
<trkpt lat="47.737843" lon="18.893470">
        <ele>354.6</ele>
      </trkpt>
<trkpt lat="47.737416" lon="18.893449">
        <ele>359.6</ele>
      </trkpt>
<trkpt lat="47.737327" lon="18.893352">
        <ele>365</ele>
      </trkpt>
<trkpt lat="47.737316" lon="18.892866">
        <ele>370.4</ele>
      </trkpt>
<trkpt lat="47.737141" lon="18.892171">
        <ele>375.8</ele>
      </trkpt>
<trkpt lat="47.737151" lon="18.891918">
        <ele>380</ele>
      </trkpt>
<trkpt lat="47.737118" lon="18.891877">
        <ele>384.2</ele>
      </trkpt>
<trkpt lat="47.737150" lon="18.891659">
        <ele>387</ele>
      </trkpt>
<trkpt lat="47.737030" lon="18.891698">
        <ele>389.8</ele>
      </trkpt>
<trkpt lat="47.737045" lon="18.891414">
        <ele>391.6</ele>
      </trkpt>
<trkpt lat="47.736920" lon="18.891207">
        <ele>393</ele>
      </trkpt>
<trkpt lat="47.736999" lon="18.891007">
        <ele>394.4</ele>
      </trkpt>
<trkpt lat="47.737130" lon="18.890624">
        <ele>394.6</ele>
      </trkpt>
<trkpt lat="47.737275" lon="18.890239">
        <ele>394.8</ele>
      </trkpt>
<trkpt lat="47.737302" lon="18.890206">
        <ele>396</ele>
      </trkpt>
<trkpt lat="47.737353" lon="18.890134">
        <ele>398</ele>
      </trkpt>
<trkpt lat="47.737407" lon="18.889920">
        <ele>402.2</ele>
      </trkpt>
<trkpt lat="47.737346" lon="18.889891">
        <ele>406.4</ele>
      </trkpt>
<trkpt lat="47.737387" lon="18.889555">
        <ele>410.6</ele>
      </trkpt>
<trkpt lat="47.737108" lon="18.888472">
        <ele>415.8</ele>
      </trkpt>
<trkpt lat="47.737171" lon="18.888323">
        <ele>419</ele>
      </trkpt>
<trkpt lat="47.737159" lon="18.888257">
        <ele>421</ele>
      </trkpt>
<trkpt lat="47.736785" lon="18.886626">
        <ele>424.4</ele>
      </trkpt>
<trkpt lat="47.736797" lon="18.886433">
        <ele>427.8</ele>
      </trkpt>
<trkpt lat="47.736922" lon="18.886157">
        <ele>429</ele>
      </trkpt>
<trkpt lat="47.737218" lon="18.885853">
        <ele>428.6</ele>
      </trkpt>
<trkpt lat="47.737439" lon="18.885642">
        <ele>432.2</ele>
      </trkpt>
<trkpt lat="47.738027" lon="18.885413">
        <ele>434.4</ele>
      </trkpt>
<trkpt lat="47.738831" lon="18.885342">
        <ele>436.6</ele>
      </trkpt>
<trkpt lat="47.739133" lon="18.885495">
        <ele>443.6</ele>
      </trkpt>
<trkpt lat="47.739207" lon="18.885618">
        <ele>452.2</ele>
      </trkpt>
<trkpt lat="47.739068" lon="18.885700">
        <ele>457.8</ele>
      </trkpt>
<trkpt lat="47.738661" lon="18.886815">
        <ele>460.6</ele>
      </trkpt>
<trkpt lat="47.738637" lon="18.887043">
        <ele>466.2</ele>
      </trkpt>
<trkpt lat="47.738830" lon="18.887272">
        <ele>466.2</ele>
      </trkpt>
<trkpt lat="47.738720" lon="18.887445">
        <ele>466.2</ele>
      </trkpt>
<trkpt lat="47.738830" lon="18.887272">
        <ele>460.6</ele>
      </trkpt>
<trkpt lat="47.738637" lon="18.887043">
        <ele>457.8</ele>
      </trkpt>
<trkpt lat="47.738661" lon="18.886815">
        <ele>452.2</ele>
      </trkpt>
<trkpt lat="47.739068" lon="18.885700">
        <ele>443.6</ele>
      </trkpt>
<trkpt lat="47.739207" lon="18.885618">
        <ele>436.6</ele>
      </trkpt>
<trkpt lat="47.739133" lon="18.885495">
        <ele>434.4</ele>
      </trkpt>
<trkpt lat="47.738831" lon="18.885342">
        <ele>432.2</ele>
      </trkpt>
<trkpt lat="47.738027" lon="18.885413">
        <ele>428.6</ele>
      </trkpt>
<trkpt lat="47.737439" lon="18.885642">
        <ele>430</ele>
      </trkpt>
<trkpt lat="47.737218" lon="18.885853">
        <ele>429.8</ele>
      </trkpt>
<trkpt lat="47.736922" lon="18.886157">
        <ele>428.4</ele>
      </trkpt>
<trkpt lat="47.736889" lon="18.886027">
        <ele>427</ele>
      </trkpt>
<trkpt lat="47.736762" lon="18.886083">
        <ele>428.6</ele>
      </trkpt>
<trkpt lat="47.736566" lon="18.886129">
        <ele>435</ele>
      </trkpt>
<trkpt lat="47.736493" lon="18.885956">
        <ele>441.6</ele>
      </trkpt>
<trkpt lat="47.736270" lon="18.885111">
        <ele>446.4</ele>
      </trkpt>
<trkpt lat="47.736147" lon="18.883779">
        <ele>458.6</ele>
      </trkpt>
<trkpt lat="47.735961" lon="18.882742">
        <ele>467.2</ele>
      </trkpt>
<trkpt lat="47.735626" lon="18.881853">
        <ele>474.6</ele>
      </trkpt>
<trkpt lat="47.735275" lon="18.881353">
        <ele>485.4</ele>
      </trkpt>
<trkpt lat="47.734687" lon="18.880954">
        <ele>499.6</ele>
      </trkpt>
<trkpt lat="47.733786" lon="18.880759">
        <ele>510.2</ele>
      </trkpt>
<trkpt lat="47.733720" lon="18.880803">
        <ele>526.4</ele>
      </trkpt>
<trkpt lat="47.732726" lon="18.881086">
        <ele>538.2</ele>
      </trkpt>
<trkpt lat="47.731778" lon="18.881497">
        <ele>551</ele>
      </trkpt>
<trkpt lat="47.730678" lon="18.882587">
        <ele>566</ele>
      </trkpt>
<trkpt lat="47.730491" lon="18.882920">
        <ele>577.2</ele>
      </trkpt>
<trkpt lat="47.729627" lon="18.884231">
        <ele>586.6</ele>
      </trkpt>
<trkpt lat="47.729382" lon="18.884314">
        <ele>600</ele>
      </trkpt>
<trkpt lat="47.729070" lon="18.884163">
        <ele>608.8</ele>
      </trkpt>
<trkpt lat="47.728696" lon="18.884191">
        <ele>619.4</ele>
      </trkpt>
<trkpt lat="47.727704" lon="18.884732">
        <ele>630</ele>
      </trkpt>
<trkpt lat="47.727239" lon="18.885336">
        <ele>638.8</ele>
      </trkpt>
<trkpt lat="47.726723" lon="18.885599">
        <ele>646.8</ele>
      </trkpt>
<trkpt lat="47.726509" lon="18.885411">
        <ele>654.8</ele>
      </trkpt>
<trkpt lat="47.726185" lon="18.885339">
        <ele>658</ele>
      </trkpt>
<trkpt lat="47.725976" lon="18.885726">
        <ele>663</ele>
      </trkpt>
<trkpt lat="47.725717" lon="18.886208">
        <ele>668.4</ele>
      </trkpt>
<trkpt lat="47.725447" lon="18.886551">
        <ele>671.4</ele>
      </trkpt>
<trkpt lat="47.725257" lon="18.886987">
        <ele>674.4</ele>
      </trkpt>
<trkpt lat="47.725207" lon="18.887212">
        <ele>674.8</ele>
      </trkpt>
<trkpt lat="47.724950" lon="18.887607">
        <ele>676</ele>
      </trkpt>
<trkpt lat="47.724902" lon="18.887781">
        <ele>676.8</ele>
      </trkpt>
<trkpt lat="47.724738" lon="18.888232">
        <ele>680.6</ele>
      </trkpt>
<trkpt lat="47.724218" lon="18.888804">
        <ele>684.4</ele>
      </trkpt>
<trkpt lat="47.724068" lon="18.888924">
        <ele>687</ele>
      </trkpt>
<trkpt lat="47.723705" lon="18.889261">
        <ele>687</ele>
      </trkpt>
<trkpt lat="47.723526" lon="18.889561">
        <ele>687</ele>
      </trkpt>
<trkpt lat="47.723000" lon="18.890477">
        <ele>686.2</ele>
      </trkpt>
<trkpt lat="47.722967" lon="18.890811">
        <ele>687</ele>
      </trkpt>
<trkpt lat="47.722951" lon="18.891062">
        <ele>690.8</ele>
      </trkpt>
<trkpt lat="47.722869" lon="18.891277">
        <ele>694.6</ele>
      </trkpt>
<trkpt lat="47.722035" lon="18.891370">
        <ele>698.4</ele>
      </trkpt>
<trkpt lat="47.721731" lon="18.891686">
        <ele>699.8</ele>
      </trkpt>
<trkpt lat="47.721572" lon="18.891541">
        <ele>699.4</ele>
      </trkpt>
<trkpt lat="47.721497" lon="18.891520">
        <ele>699</ele>
      </trkpt>
<trkpt lat="47.721143" lon="18.891751">
        <ele>698.2</ele>
      </trkpt>
<trkpt lat="47.720928" lon="18.892156">
        <ele>697.4</ele>
      </trkpt>
<trkpt lat="47.720755" lon="18.892725">
        <ele>696.8</ele>
      </trkpt>
<trkpt lat="47.720672" lon="18.893039">
        <ele>696.6</ele>
      </trkpt>
<trkpt lat="47.720629" lon="18.893202">
        <ele>696.4</ele>
      </trkpt>
<trkpt lat="47.720460" lon="18.893484">
        <ele>697</ele>
      </trkpt>
<trkpt lat="47.720278" lon="18.893955">
        <ele>697.6</ele>
      </trkpt>
<trkpt lat="47.720166" lon="18.894413">
        <ele>697.4</ele>
      </trkpt>
<trkpt lat="47.720079" lon="18.895081">
        <ele>696.8</ele>
      </trkpt>
<trkpt lat="47.720040" lon="18.895276">
        <ele>696.8</ele>
      </trkpt>
<trkpt lat="47.719756" lon="18.895811">
        <ele>696.4</ele>
      </trkpt>
<trkpt lat="47.719800" lon="18.897042">
        <ele>696</ele>
      </trkpt>
<trkpt lat="47.719888" lon="18.897481">
        <ele>695.8</ele>
      </trkpt>
<trkpt lat="47.719853" lon="18.897714">
        <ele>695.8</ele>
      </trkpt>
<trkpt lat="47.719616" lon="18.897904">
        <ele>695.2</ele>
      </trkpt>
<trkpt lat="47.719502" lon="18.897912">
        <ele>694.6</ele>
      </trkpt>
<trkpt lat="47.719051" lon="18.897742">
        <ele>694</ele>
      </trkpt>
<trkpt lat="47.718989" lon="18.897998">
        <ele>694</ele>
      </trkpt>
<trkpt lat="47.718936" lon="18.898063">
        <ele>694</ele>
      </trkpt>
<trkpt lat="47.718993" lon="18.897454">
        <ele>694</ele>
      </trkpt>
</trkseg>
</trk>
</gpx>



