<?xml version="1.0" encoding="UTF-8"?>
<gpx xmlns="http://www.topografix.com/GPX/1/1" creator="turistautak.openstreetmap.hu" version="1.1" xmlns:xsi="http://www.w3.org/2001/XMLSchema-instance" xsi:schemaLocation="http://www.garmin.com/xmlschemas/GpxExtensions/v3 http://www.garmin.com/xmlschemas/GpxExtensions/v3/GpxExtensionsv3.xsd http://www.topografix.com/GPX/1/1 http://www.topografix.com/GPX/1/1/gpx.xsd">
	<metadata>
		<name>1779363444awev útvonal</name>
		<desc>1779363444awev útvonal</desc>
	</metadata>
<trk>
  <name>utv</name>
<trkseg><trkpt lat="47.718993" lon="18.897454">
        <ele>694</ele>
      </trkpt>
<trkpt lat="47.718936" lon="18.898063">
        <ele>694</ele>
      </trkpt>
<trkpt lat="47.718989" lon="18.897998">
        <ele>693.2</ele>
      </trkpt>
<trkpt lat="47.719089" lon="18.898096">
        <ele>692.4</ele>
      </trkpt>
<trkpt lat="47.719544" lon="18.898632">
        <ele>691.6</ele>
      </trkpt>
<trkpt lat="47.719838" lon="18.898756">
        <ele>690</ele>
      </trkpt>
<trkpt lat="47.719830" lon="18.898917">
        <ele>688.4</ele>
      </trkpt>
<trkpt lat="47.719783" lon="18.899220">
        <ele>688</ele>
      </trkpt>
<trkpt lat="47.719657" lon="18.899697">
        <ele>688</ele>
      </trkpt>
<trkpt lat="47.719640" lon="18.900094">
        <ele>687.8</ele>
      </trkpt>
<trkpt lat="47.719666" lon="18.900974">
        <ele>688.4</ele>
      </trkpt>
<trkpt lat="47.719877" lon="18.901346">
        <ele>687.6</ele>
      </trkpt>
<trkpt lat="47.719534" lon="18.902207">
        <ele>686.2</ele>
      </trkpt>
<trkpt lat="47.719129" lon="18.902912">
        <ele>684.4</ele>
      </trkpt>
<trkpt lat="47.718991" lon="18.903334">
        <ele>682.8</ele>
      </trkpt>
<trkpt lat="47.718447" lon="18.904758">
        <ele>680.6</ele>
      </trkpt>
<trkpt lat="47.718458" lon="18.904923">
        <ele>680.2</ele>
      </trkpt>
<trkpt lat="47.718058" lon="18.905275">
        <ele>680</ele>
      </trkpt>
<trkpt lat="47.718045" lon="18.905684">
        <ele>680.4</ele>
      </trkpt>
<trkpt lat="47.717875" lon="18.905987">
        <ele>680.8</ele>
      </trkpt>
<trkpt lat="47.717660" lon="18.906182">
        <ele>681.6</ele>
      </trkpt>
<trkpt lat="47.716539" lon="18.908886">
        <ele>683</ele>
      </trkpt>
<trkpt lat="47.716362" lon="18.908831">
        <ele>684</ele>
      </trkpt>
<trkpt lat="47.715728" lon="18.909531">
        <ele>683.4</ele>
      </trkpt>
<trkpt lat="47.715676" lon="18.909725">
        <ele>681.6</ele>
      </trkpt>
<trkpt lat="47.715704" lon="18.910532">
        <ele>676.6</ele>
      </trkpt>
<trkpt lat="47.715467" lon="18.911300">
        <ele>670.4</ele>
      </trkpt>
<trkpt lat="47.714963" lon="18.912087">
        <ele>664.4</ele>
      </trkpt>
<trkpt lat="47.714047" lon="18.914653">
        <ele>658.2</ele>
      </trkpt>
<trkpt lat="47.713602" lon="18.915470">
        <ele>653.2</ele>
      </trkpt>
<trkpt lat="47.713852" lon="18.916006">
        <ele>650.4</ele>
      </trkpt>
<trkpt lat="47.713879" lon="18.916280">
        <ele>647.8</ele>
      </trkpt>
<trkpt lat="47.713757" lon="18.916975">
        <ele>644</ele>
      </trkpt>
<trkpt lat="47.713765" lon="18.917198">
        <ele>640.8</ele>
      </trkpt>
<trkpt lat="47.713908" lon="18.917809">
        <ele>636.8</ele>
      </trkpt>
<trkpt lat="47.713928" lon="18.918532">
        <ele>634</ele>
      </trkpt>
<trkpt lat="47.714069" lon="18.919246">
        <ele>629.6</ele>
      </trkpt>
<trkpt lat="47.714064" lon="18.919727">
        <ele>624.8</ele>
      </trkpt>
<trkpt lat="47.714155" lon="18.920158">
        <ele>620.6</ele>
      </trkpt>
<trkpt lat="47.714120" lon="18.921089">
        <ele>615.6</ele>
      </trkpt>
<trkpt lat="47.714127" lon="18.921506">
        <ele>610.6</ele>
      </trkpt>
<trkpt lat="47.714069" lon="18.921898">
        <ele>604.8</ele>
      </trkpt>
<trkpt lat="47.714114" lon="18.922241">
        <ele>600.8</ele>
      </trkpt>
<trkpt lat="47.714053" lon="18.922465">
        <ele>594.4</ele>
      </trkpt>
<trkpt lat="47.714091" lon="18.923438">
        <ele>587.8</ele>
      </trkpt>
<trkpt lat="47.714158" lon="18.923645">
        <ele>581.2</ele>
      </trkpt>
<trkpt lat="47.714632" lon="18.924245">
        <ele>577</ele>
      </trkpt>
<trkpt lat="47.714792" lon="18.924586">
        <ele>572.8</ele>
      </trkpt>
<trkpt lat="47.714893" lon="18.925088">
        <ele>567.2</ele>
      </trkpt>
<trkpt lat="47.714973" lon="18.925264">
        <ele>563.4</ele>
      </trkpt>
<trkpt lat="47.715106" lon="18.925393">
        <ele>559.6</ele>
      </trkpt>
<trkpt lat="47.715486" lon="18.925584">
        <ele>555.8</ele>
      </trkpt>
<trkpt lat="47.715704" lon="18.925839">
        <ele>546.6</ele>
      </trkpt>
<trkpt lat="47.716087" lon="18.925941">
        <ele>541.2</ele>
      </trkpt>
<trkpt lat="47.716215" lon="18.926095">
        <ele>532</ele>
      </trkpt>
<trkpt lat="47.716325" lon="18.926560">
        <ele>522.8</ele>
      </trkpt>
<trkpt lat="47.716526" lon="18.926803">
        <ele>509</ele>
      </trkpt>
<trkpt lat="47.717461" lon="18.926751">
        <ele>499.2</ele>
      </trkpt>
<trkpt lat="47.717721" lon="18.926960">
        <ele>489</ele>
      </trkpt>
<trkpt lat="47.718178" lon="18.927620">
        <ele>480.8</ele>
      </trkpt>
<trkpt lat="47.717300" lon="18.929481">
        <ele>471.2</ele>
      </trkpt>
<trkpt lat="47.717015" lon="18.930223">
        <ele>463.8</ele>
      </trkpt>
<trkpt lat="47.717084" lon="18.930522">
        <ele>457.8</ele>
      </trkpt>
<trkpt lat="47.717175" lon="18.931456">
        <ele>452.2</ele>
      </trkpt>
<trkpt lat="47.717352" lon="18.932176">
        <ele>445.4</ele>
      </trkpt>
<trkpt lat="47.717350" lon="18.932488">
        <ele>440</ele>
      </trkpt>
<trkpt lat="47.717477" lon="18.932632">
        <ele>437</ele>
      </trkpt>
<trkpt lat="47.717611" lon="18.933011">
        <ele>434</ele>
      </trkpt>
<trkpt lat="47.717624" lon="18.933406">
        <ele>431.2</ele>
      </trkpt>
<trkpt lat="47.717786" lon="18.933476">
        <ele>431.4</ele>
      </trkpt>
<trkpt lat="47.717766" lon="18.933591">
        <ele>431.6</ele>
      </trkpt>
<trkpt lat="47.717346" lon="18.933939">
        <ele>433.4</ele>
      </trkpt>
<trkpt lat="47.717127" lon="18.934214">
        <ele>438.2</ele>
      </trkpt>
<trkpt lat="47.717307" lon="18.934565">
        <ele>442.8</ele>
      </trkpt>
<trkpt lat="47.717538" lon="18.934758">
        <ele>450.6</ele>
      </trkpt>
<trkpt lat="47.717934" lon="18.935391">
        <ele>462.8</ele>
      </trkpt>
<trkpt lat="47.718433" lon="18.935794">
        <ele>476.8</ele>
      </trkpt>
<trkpt lat="47.719395" lon="18.936228">
        <ele>487.8</ele>
      </trkpt>
<trkpt lat="47.720371" lon="18.936868">
        <ele>498.8</ele>
      </trkpt>
<trkpt lat="47.720460" lon="18.936932">
        <ele>506.6</ele>
      </trkpt>
<trkpt lat="47.720543" lon="18.936932">
        <ele>510.4</ele>
      </trkpt>
<trkpt lat="47.720804" lon="18.936864">
        <ele>512.8</ele>
      </trkpt>
<trkpt lat="47.720943" lon="18.936557">
        <ele>516</ele>
      </trkpt>
<trkpt lat="47.721541" lon="18.936249">
        <ele>521.6</ele>
      </trkpt>
<trkpt lat="47.722668" lon="18.935845">
        <ele>527.2</ele>
      </trkpt>
<trkpt lat="47.723099" lon="18.936033">
        <ele>532.4</ele>
      </trkpt>
<trkpt lat="47.723469" lon="18.936536">
        <ele>537.6</ele>
      </trkpt>
<trkpt lat="47.723636" lon="18.936533">
        <ele>540.4</ele>
      </trkpt>
<trkpt lat="47.723712" lon="18.936468">
        <ele>540.8</ele>
      </trkpt>
<trkpt lat="47.723806" lon="18.936375">
        <ele>543.2</ele>
      </trkpt>
<trkpt lat="47.724234" lon="18.935602">
        <ele>545.6</ele>
      </trkpt>
<trkpt lat="47.724383" lon="18.935439">
        <ele>547.2</ele>
      </trkpt>
<trkpt lat="47.724711" lon="18.935081">
        <ele>551.6</ele>
      </trkpt>
<trkpt lat="47.725109" lon="18.934831">
        <ele>556.8</ele>
      </trkpt>
<trkpt lat="47.726006" lon="18.934776">
        <ele>559.6</ele>
      </trkpt>
<trkpt lat="47.727617" lon="18.933727">
        <ele>562.4</ele>
      </trkpt>
<trkpt lat="47.728038" lon="18.933672">
        <ele>564.8</ele>
      </trkpt>
<trkpt lat="47.728759" lon="18.933873">
        <ele>566</ele>
      </trkpt>
<trkpt lat="47.729266" lon="18.934130">
        <ele>565.4</ele>
      </trkpt>
<trkpt lat="47.729665" lon="18.934281">
        <ele>568.6</ele>
      </trkpt>
<trkpt lat="47.729878" lon="18.934301">
        <ele>570.6</ele>
      </trkpt>
<trkpt lat="47.730676" lon="18.933865">
        <ele>574.8</ele>
      </trkpt>
<trkpt lat="47.731041" lon="18.933551">
        <ele>580.4</ele>
      </trkpt>
<trkpt lat="47.731312" lon="18.933062">
        <ele>586.6</ele>
      </trkpt>
<trkpt lat="47.731704" lon="18.932576">
        <ele>589.4</ele>
      </trkpt>
<trkpt lat="47.731887" lon="18.931943">
        <ele>595.4</ele>
      </trkpt>
<trkpt lat="47.732180" lon="18.931687">
        <ele>598.8</ele>
      </trkpt>
<trkpt lat="47.732411" lon="18.931554">
        <ele>600.2</ele>
      </trkpt>
<trkpt lat="47.733058" lon="18.930855">
        <ele>602</ele>
      </trkpt>
<trkpt lat="47.733535" lon="18.929769">
        <ele>605</ele>
      </trkpt>
<trkpt lat="47.733948" lon="18.929316">
        <ele>602.4</ele>
      </trkpt>
<trkpt lat="47.734006" lon="18.929089">
        <ele>602.8</ele>
      </trkpt>
<trkpt lat="47.734532" lon="18.928740">
        <ele>603.8</ele>
      </trkpt>
<trkpt lat="47.735456" lon="18.927917">
        <ele>605</ele>
      </trkpt>
<trkpt lat="47.735707" lon="18.927457">
        <ele>604.4</ele>
      </trkpt>
<trkpt lat="47.735729" lon="18.927176">
        <ele>609.2</ele>
      </trkpt>
<trkpt lat="47.735600" lon="18.926538">
        <ele>610.6</ele>
      </trkpt>
<trkpt lat="47.735658" lon="18.924900">
        <ele>614.6</ele>
      </trkpt>
<trkpt lat="47.735499" lon="18.924245">
        <ele>617</ele>
      </trkpt>
<trkpt lat="47.735499" lon="18.924017">
        <ele>622</ele>
      </trkpt>
<trkpt lat="47.735889" lon="18.923400">
        <ele>626</ele>
      </trkpt>
<trkpt lat="47.736874" lon="18.923048">
        <ele>630.2</ele>
      </trkpt>
<trkpt lat="47.737825" lon="18.922535">
        <ele>631.8</ele>
      </trkpt>
<trkpt lat="47.738520" lon="18.921367">
        <ele>635.2</ele>
      </trkpt>
<trkpt lat="47.739102" lon="18.920819">
        <ele>636.6</ele>
      </trkpt>
<trkpt lat="47.739496" lon="18.920645">
        <ele>634.8</ele>
      </trkpt>
<trkpt lat="47.739462" lon="18.920415">
        <ele>629.4</ele>
      </trkpt>
<trkpt lat="47.739215" lon="18.919701">
        <ele>622.2</ele>
      </trkpt>
<trkpt lat="47.739164" lon="18.919383">
        <ele>614.6</ele>
      </trkpt>
<trkpt lat="47.739038" lon="18.918600">
        <ele>607</ele>
      </trkpt>
<trkpt lat="47.738609" lon="18.917754">
        <ele>595.4</ele>
      </trkpt>
<trkpt lat="47.738570" lon="18.917586">
        <ele>584.2</ele>
      </trkpt>
<trkpt lat="47.738413" lon="18.917091">
        <ele>574.8</ele>
      </trkpt>
<trkpt lat="47.738013" lon="18.915550">
        <ele>561.6</ele>
      </trkpt>
<trkpt lat="47.737958" lon="18.915312">
        <ele>548.4</ele>
      </trkpt>
<trkpt lat="47.738099" lon="18.914606">
        <ele>535</ele>
      </trkpt>
<trkpt lat="47.738241" lon="18.914203">
        <ele>523.8</ele>
      </trkpt>
<trkpt lat="47.738425" lon="18.913911">
        <ele>512.6</ele>
      </trkpt>
<trkpt lat="47.738727" lon="18.913623">
        <ele>505.2</ele>
      </trkpt>
<trkpt lat="47.738772" lon="18.913540">
        <ele>497.8</ele>
      </trkpt>
<trkpt lat="47.738824" lon="18.913515">
        <ele>492.8</ele>
      </trkpt>
<trkpt lat="47.739083" lon="18.913234">
        <ele>487.2</ele>
      </trkpt>
<trkpt lat="47.739243" lon="18.913023">
        <ele>481.6</ele>
      </trkpt>
<trkpt lat="47.739557" lon="18.912772">
        <ele>472.6</ele>
      </trkpt>
<trkpt lat="47.739867" lon="18.912282">
        <ele>460.8</ele>
      </trkpt>
<trkpt lat="47.740170" lon="18.912118">
        <ele>453.2</ele>
      </trkpt>
<trkpt lat="47.741029" lon="18.911260">
        <ele>444</ele>
      </trkpt>
<trkpt lat="47.741262" lon="18.910768">
        <ele>428.8</ele>
      </trkpt>
<trkpt lat="47.741314" lon="18.910636">
        <ele>411.8</ele>
      </trkpt>
<trkpt lat="47.741888" lon="18.910009">
        <ele>395.6</ele>
      </trkpt>
<trkpt lat="47.742505" lon="18.908963">
        <ele>375</ele>
      </trkpt>
<trkpt lat="47.742986" lon="18.908011">
        <ele>353.4</ele>
      </trkpt>
<trkpt lat="47.743747" lon="18.907335">
        <ele>337.8</ele>
      </trkpt>
<trkpt lat="47.744336" lon="18.907167">
        <ele>325.4</ele>
      </trkpt>
<trkpt lat="47.744691" lon="18.907029">
        <ele>310.6</ele>
      </trkpt>
<trkpt lat="47.744941" lon="18.906723">
        <ele>297.2</ele>
      </trkpt>
<trkpt lat="47.745707" lon="18.906270">
        <ele>287.8</ele>
      </trkpt>
<trkpt lat="47.746688" lon="18.906060">
        <ele>274.4</ele>
      </trkpt>
<trkpt lat="47.747356" lon="18.905721">
        <ele>262</ele>
      </trkpt>
<trkpt lat="47.747908" lon="18.905579">
        <ele>250</ele>
      </trkpt>
<trkpt lat="47.748025" lon="18.905567">
        <ele>235.4</ele>
      </trkpt>
<trkpt lat="47.748367" lon="18.905401">
        <ele>220.8</ele>
      </trkpt>
<trkpt lat="47.749496" lon="18.905070">
        <ele>207.8</ele>
      </trkpt>
<trkpt lat="47.750500" lon="18.905185">
        <ele>193.8</ele>
      </trkpt>
<trkpt lat="47.751002" lon="18.905094">
        <ele>184.4</ele>
      </trkpt>
<trkpt lat="47.751480" lon="18.904840">
        <ele>180.6</ele>
      </trkpt>
<trkpt lat="47.751637" lon="18.904547">
        <ele>176.8</ele>
      </trkpt>
<trkpt lat="47.751152" lon="18.904415">
        <ele>178.2</ele>
      </trkpt>
<trkpt lat="47.751091" lon="18.904097">
        <ele>180.2</ele>
      </trkpt>
<trkpt lat="47.750665" lon="18.904084">
        <ele>183.6</ele>
      </trkpt>
<trkpt lat="47.750182" lon="18.903919">
        <ele>187</ele>
      </trkpt>
<trkpt lat="47.749251" lon="18.903430">
        <ele>193</ele>
      </trkpt>
<trkpt lat="47.748640" lon="18.903484">
        <ele>193.2</ele>
      </trkpt>
<trkpt lat="47.748188" lon="18.903293">
        <ele>196.8</ele>
      </trkpt>
<trkpt lat="47.747488" lon="18.903115">
        <ele>198.4</ele>
      </trkpt>
<trkpt lat="47.747143" lon="18.902887">
        <ele>201</ele>
      </trkpt>
<trkpt lat="47.746846" lon="18.902884">
        <ele>201</ele>
      </trkpt>
<trkpt lat="47.746563" lon="18.902758">
        <ele>205.4</ele>
      </trkpt>
<trkpt lat="47.746199" lon="18.902729">
        <ele>208.8</ele>
      </trkpt>
<trkpt lat="47.745665" lon="18.902586">
        <ele>211.6</ele>
      </trkpt>
<trkpt lat="47.744722" lon="18.902495">
        <ele>213.4</ele>
      </trkpt>
<trkpt lat="47.744550" lon="18.902293">
        <ele>215.2</ele>
      </trkpt>
<trkpt lat="47.744170" lon="18.902083">
        <ele>217.2</ele>
      </trkpt>
<trkpt lat="47.744053" lon="18.901948">
        <ele>218.2</ele>
      </trkpt>
<trkpt lat="47.743994" lon="18.901746">
        <ele>221.6</ele>
      </trkpt>
<trkpt lat="47.743999" lon="18.901180">
        <ele>226.4</ele>
      </trkpt>
<trkpt lat="47.744227" lon="18.900587">
        <ele>231.2</ele>
      </trkpt>
<trkpt lat="47.744323" lon="18.899957">
        <ele>235.2</ele>
      </trkpt>
<trkpt lat="47.744311" lon="18.899488">
        <ele>239.2</ele>
      </trkpt>
<trkpt lat="47.744471" lon="18.899343">
        <ele>242</ele>
      </trkpt>
<trkpt lat="47.744588" lon="18.899104">
        <ele>243.4</ele>
      </trkpt>
<trkpt lat="47.744784" lon="18.898897">
        <ele>255.8</ele>
      </trkpt>
<trkpt lat="47.744683" lon="18.898530">
        <ele>267.4</ele>
      </trkpt>
<trkpt lat="47.744642" lon="18.897951">
        <ele>283.8</ele>
      </trkpt>
<trkpt lat="47.743622" lon="18.895998">
        <ele>299.6</ele>
      </trkpt>
<trkpt lat="47.743584" lon="18.895722">
        <ele>316.2</ele>
      </trkpt>
<trkpt lat="47.743324" lon="18.894526">
        <ele>321.8</ele>
      </trkpt>
<trkpt lat="47.743091" lon="18.894020">
        <ele>327.4</ele>
      </trkpt>
<trkpt lat="47.742614" lon="18.893622">
        <ele>334.2</ele>
      </trkpt>
<trkpt lat="47.742197" lon="18.893352">
        <ele>342.8</ele>
      </trkpt>
<trkpt lat="47.741531" lon="18.893305">
        <ele>350.6</ele>
      </trkpt>
<trkpt lat="47.740069" lon="18.892614">
        <ele>362.2</ele>
      </trkpt>
<trkpt lat="47.739342" lon="18.892368">
        <ele>373.8</ele>
      </trkpt>
<trkpt lat="47.739016" lon="18.892381">
        <ele>379.4</ele>
      </trkpt>
<trkpt lat="47.739467" lon="18.891964">
        <ele>383.2</ele>
      </trkpt>
<trkpt lat="47.739456" lon="18.891763">
        <ele>386.2</ele>
      </trkpt>
<trkpt lat="47.739555" lon="18.891664">
        <ele>390</ele>
      </trkpt>
<trkpt lat="47.739526" lon="18.891324">
        <ele>393.6</ele>
      </trkpt>
<trkpt lat="47.739681" lon="18.890549">
        <ele>397.2</ele>
      </trkpt>
<trkpt lat="47.740255" lon="18.889965">
        <ele>400.8</ele>
      </trkpt>
<trkpt lat="47.740908" lon="18.888686">
        <ele>405.2</ele>
      </trkpt>
<trkpt lat="47.741007" lon="18.887768">
        <ele>403</ele>
      </trkpt>
<trkpt lat="47.741003" lon="18.887408">
        <ele>401</ele>
      </trkpt>
<trkpt lat="47.740915" lon="18.887181">
        <ele>399</ele>
      </trkpt>
<trkpt lat="47.740601" lon="18.886943">
        <ele>397</ele>
      </trkpt>
<trkpt lat="47.740475" lon="18.886687">
        <ele>395</ele>
      </trkpt>
<trkpt lat="47.740448" lon="18.886312">
        <ele>399.6</ele>
      </trkpt>
<trkpt lat="47.740578" lon="18.885800">
        <ele>404.2</ele>
      </trkpt>
<trkpt lat="47.740526" lon="18.885543">
        <ele>408.8</ele>
      </trkpt>
<trkpt lat="47.740378" lon="18.885432">
        <ele>411.6</ele>
      </trkpt>
<trkpt lat="47.739907" lon="18.885565">
        <ele>421.6</ele>
      </trkpt>
<trkpt lat="47.739743" lon="18.885496">
        <ele>427</ele>
      </trkpt>
<trkpt lat="47.739627" lon="18.885321">
        <ele>436.4</ele>
      </trkpt>
<trkpt lat="47.739207" lon="18.885618">
        <ele>441.8</ele>
      </trkpt>
<trkpt lat="47.739068" lon="18.885700">
        <ele>449</ele>
      </trkpt>
<trkpt lat="47.738854" lon="18.886288">
        <ele>449</ele>
      </trkpt>
<trkpt lat="47.739068" lon="18.885700">
        <ele>444</ele>
      </trkpt>
<trkpt lat="47.739207" lon="18.885618">
        <ele>436.6</ele>
      </trkpt>
<trkpt lat="47.739133" lon="18.885495">
        <ele>434.4</ele>
      </trkpt>
<trkpt lat="47.738831" lon="18.885342">
        <ele>432.2</ele>
      </trkpt>
<trkpt lat="47.738027" lon="18.885413">
        <ele>428.6</ele>
      </trkpt>
<trkpt lat="47.737439" lon="18.885642">
        <ele>429</ele>
      </trkpt>
<trkpt lat="47.737218" lon="18.885853">
        <ele>427.8</ele>
      </trkpt>
<trkpt lat="47.736922" lon="18.886157">
        <ele>424</ele>
      </trkpt>
<trkpt lat="47.736797" lon="18.886433">
        <ele>420.8</ele>
      </trkpt>
<trkpt lat="47.736785" lon="18.886626">
        <ele>417.6</ele>
      </trkpt>
<trkpt lat="47.736300" lon="18.887146">
        <ele>415.4</ele>
      </trkpt>
<trkpt lat="47.735722" lon="18.887829">
        <ele>411.8</ele>
      </trkpt>
<trkpt lat="47.735561" lon="18.887948">
        <ele>410.4</ele>
      </trkpt>
<trkpt lat="47.735261" lon="18.888941">
        <ele>408.4</ele>
      </trkpt>
<trkpt lat="47.734876" lon="18.889692">
        <ele>409.8</ele>
      </trkpt>
<trkpt lat="47.734483" lon="18.890188">
        <ele>411.2</ele>
      </trkpt>
<trkpt lat="47.733966" lon="18.890410">
        <ele>416</ele>
      </trkpt>
<trkpt lat="47.733624" lon="18.890684">
        <ele>420</ele>
      </trkpt>
<trkpt lat="47.733314" lon="18.891031">
        <ele>424</ele>
      </trkpt>
<trkpt lat="47.732953" lon="18.891542">
        <ele>430.6</ele>
      </trkpt>
<trkpt lat="47.732963" lon="18.891943">
        <ele>438.4</ele>
      </trkpt>
<trkpt lat="47.732938" lon="18.892063">
        <ele>444.2</ele>
      </trkpt>
<trkpt lat="47.732726" lon="18.892855">
        <ele>449.6</ele>
      </trkpt>
<trkpt lat="47.732775" lon="18.893287">
        <ele>456</ele>
      </trkpt>
<trkpt lat="47.732639" lon="18.893505">
        <ele>457.8</ele>
      </trkpt>
<trkpt lat="47.732283" lon="18.893802">
        <ele>457.4</ele>
      </trkpt>
<trkpt lat="47.731951" lon="18.894262">
        <ele>457</ele>
      </trkpt>
<trkpt lat="47.731618" lon="18.894399">
        <ele>457</ele>
      </trkpt>
<trkpt lat="47.731242" lon="18.894789">
        <ele>456</ele>
      </trkpt>
<trkpt lat="47.731151" lon="18.894816">
        <ele>455</ele>
      </trkpt>
<trkpt lat="47.731027" lon="18.894462">
        <ele>454</ele>
      </trkpt>
<trkpt lat="47.730863" lon="18.894274">
        <ele>453</ele>
      </trkpt>
<trkpt lat="47.730621" lon="18.894661">
        <ele>452</ele>
      </trkpt>
<trkpt lat="47.730347" lon="18.895052">
        <ele>451</ele>
      </trkpt>
<trkpt lat="47.730272" lon="18.895087">
        <ele>450.8</ele>
      </trkpt>
<trkpt lat="47.730212" lon="18.895114">
        <ele>451.6</ele>
      </trkpt>
<trkpt lat="47.729878" lon="18.895103">
        <ele>452.4</ele>
      </trkpt>
<trkpt lat="47.729403" lon="18.894948">
        <ele>453.8</ele>
      </trkpt>
<trkpt lat="47.729126" lon="18.895063">
        <ele>457.2</ele>
      </trkpt>
<trkpt lat="47.728833" lon="18.895362">
        <ele>459.8</ele>
      </trkpt>
<trkpt lat="47.728714" lon="18.895531">
        <ele>462.4</ele>
      </trkpt>
<trkpt lat="47.728451" lon="18.895337">
        <ele>465.6</ele>
      </trkpt>
<trkpt lat="47.728174" lon="18.895298">
        <ele>473.8</ele>
      </trkpt>
<trkpt lat="47.728015" lon="18.895347">
        <ele>480</ele>
      </trkpt>
<trkpt lat="47.727323" lon="18.895536">
        <ele>491.2</ele>
      </trkpt>
<trkpt lat="47.726943" lon="18.895664">
        <ele>508.2</ele>
      </trkpt>
<trkpt lat="47.726370" lon="18.895834">
        <ele>531.8</ele>
      </trkpt>
<trkpt lat="47.724768" lon="18.895451">
        <ele>556.2</ele>
      </trkpt>
<trkpt lat="47.724371" lon="18.895326">
        <ele>581.4</ele>
      </trkpt>
<trkpt lat="47.723993" lon="18.894095">
        <ele>601.6</ele>
      </trkpt>
<trkpt lat="47.723829" lon="18.893675">
        <ele>616</ele>
      </trkpt>
<trkpt lat="47.723455" lon="18.893347">
        <ele>632.2</ele>
      </trkpt>
<trkpt lat="47.723240" lon="18.893062">
        <ele>642</ele>
      </trkpt>
<trkpt lat="47.723047" lon="18.893103">
        <ele>654.2</ele>
      </trkpt>
<trkpt lat="47.722560" lon="18.892717">
        <ele>666.4</ele>
      </trkpt>
<trkpt lat="47.722207" lon="18.892600">
        <ele>675</ele>
      </trkpt>
<trkpt lat="47.721755" lon="18.892717">
        <ele>674.6</ele>
      </trkpt>
<trkpt lat="47.721634" lon="18.892844">
        <ele>678.6</ele>
      </trkpt>
<trkpt lat="47.721593" lon="18.893089">
        <ele>679.4</ele>
      </trkpt>
<trkpt lat="47.721443" lon="18.893343">
        <ele>682.2</ele>
      </trkpt>
<trkpt lat="47.720986" lon="18.893779">
        <ele>688.6</ele>
      </trkpt>
<trkpt lat="47.720633" lon="18.894205">
        <ele>695</ele>
      </trkpt>
<trkpt lat="47.720410" lon="18.894745">
        <ele>696.2</ele>
      </trkpt>
<trkpt lat="47.720134" lon="18.895260">
        <ele>697.2</ele>
      </trkpt>
<trkpt lat="47.720040" lon="18.895276">
        <ele>696.8</ele>
      </trkpt>
<trkpt lat="47.719756" lon="18.895811">
        <ele>696.4</ele>
      </trkpt>
<trkpt lat="47.719800" lon="18.897042">
        <ele>696</ele>
      </trkpt>
<trkpt lat="47.719888" lon="18.897481">
        <ele>695.8</ele>
      </trkpt>
<trkpt lat="47.719853" lon="18.897714">
        <ele>695.8</ele>
      </trkpt>
<trkpt lat="47.719616" lon="18.897904">
        <ele>695.2</ele>
      </trkpt>
<trkpt lat="47.719502" lon="18.897912">
        <ele>694.6</ele>
      </trkpt>
<trkpt lat="47.719051" lon="18.897742">
        <ele>694</ele>
      </trkpt>
<trkpt lat="47.718989" lon="18.897998">
        <ele>694</ele>
      </trkpt>
<trkpt lat="47.718936" lon="18.898063">
        <ele>694</ele>
      </trkpt>
<trkpt lat="47.719007" lon="18.897308">
        <ele>694</ele>
      </trkpt>
</trkseg>
</trk>
</gpx>



