<?xml version="1.0" encoding="UTF-8"?>
<gpx xmlns="http://www.topografix.com/GPX/1/1" creator="turistautak.openstreetmap.hu" version="1.1" xmlns:xsi="http://www.w3.org/2001/XMLSchema-instance" xsi:schemaLocation="http://www.garmin.com/xmlschemas/GpxExtensions/v3 http://www.garmin.com/xmlschemas/GpxExtensions/v3/GpxExtensionsv3.xsd http://www.topografix.com/GPX/1/1 http://www.topografix.com/GPX/1/1/gpx.xsd">
	<metadata>
		<name>1779370242afo0 útvonal</name>
		<desc>1779370242afo0 útvonal</desc>
	</metadata>
<trk>
  <name>utv</name>
<trkseg><trkpt lat="47.763724" lon="18.910986">
        <ele>113</ele>
      </trkpt>
<trkpt lat="47.763744" lon="18.910916">
        <ele>113</ele>
      </trkpt>
<trkpt lat="47.764227" lon="18.909444">
        <ele>113.8</ele>
      </trkpt>
<trkpt lat="47.764842" lon="18.907529">
        <ele>114.6</ele>
      </trkpt>
<trkpt lat="47.764753" lon="18.907358">
        <ele>118</ele>
      </trkpt>
<trkpt lat="47.764331" lon="18.906794">
        <ele>120.6</ele>
      </trkpt>
<trkpt lat="47.763789" lon="18.906283">
        <ele>125.4</ele>
      </trkpt>
<trkpt lat="47.763690" lon="18.905979">
        <ele>130.4</ele>
      </trkpt>
<trkpt lat="47.763760" lon="18.905547">
        <ele>135.4</ele>
      </trkpt>
<trkpt lat="47.763817" lon="18.905312">
        <ele>140</ele>
      </trkpt>
<trkpt lat="47.763952" lon="18.904098">
        <ele>145</ele>
      </trkpt>
<trkpt lat="47.763788" lon="18.903833">
        <ele>148.6</ele>
      </trkpt>
<trkpt lat="47.763632" lon="18.903268">
        <ele>151.8</ele>
      </trkpt>
<trkpt lat="47.763556" lon="18.903006">
        <ele>156</ele>
      </trkpt>
<trkpt lat="47.763418" lon="18.902869">
        <ele>159.4</ele>
      </trkpt>
<trkpt lat="47.762943" lon="18.901754">
        <ele>162.8</ele>
      </trkpt>
<trkpt lat="47.762558" lon="18.901294">
        <ele>165.4</ele>
      </trkpt>
<trkpt lat="47.762264" lon="18.900974">
        <ele>169.6</ele>
      </trkpt>
<trkpt lat="47.762201" lon="18.900820">
        <ele>175</ele>
      </trkpt>
<trkpt lat="47.762169" lon="18.900485">
        <ele>179.6</ele>
      </trkpt>
<trkpt lat="47.762419" lon="18.899719">
        <ele>184.2</ele>
      </trkpt>
<trkpt lat="47.762423" lon="18.899579">
        <ele>192.4</ele>
      </trkpt>
<trkpt lat="47.762380" lon="18.899209">
        <ele>205.2</ele>
      </trkpt>
<trkpt lat="47.762147" lon="18.898764">
        <ele>219</ele>
      </trkpt>
<trkpt lat="47.761610" lon="18.898432">
        <ele>234.8</ele>
      </trkpt>
<trkpt lat="47.760128" lon="18.895996">
        <ele>250.6</ele>
      </trkpt>
<trkpt lat="47.759108" lon="18.894886">
        <ele>267.2</ele>
      </trkpt>
<trkpt lat="47.758545" lon="18.894521">
        <ele>281.8</ele>
      </trkpt>
<trkpt lat="47.758068" lon="18.894481">
        <ele>293.2</ele>
      </trkpt>
<trkpt lat="47.757644" lon="18.894327">
        <ele>302.6</ele>
      </trkpt>
<trkpt lat="47.756234" lon="18.893518">
        <ele>312</ele>
      </trkpt>
<trkpt lat="47.755929" lon="18.893107">
        <ele>318.8</ele>
      </trkpt>
<trkpt lat="47.755748" lon="18.893014">
        <ele>323.8</ele>
      </trkpt>
<trkpt lat="47.755597" lon="18.893027">
        <ele>329.4</ele>
      </trkpt>
<trkpt lat="47.755055" lon="18.892639">
        <ele>335</ele>
      </trkpt>
<trkpt lat="47.754345" lon="18.892144">
        <ele>342.4</ele>
      </trkpt>
<trkpt lat="47.753395" lon="18.891682">
        <ele>348</ele>
      </trkpt>
<trkpt lat="47.753105" lon="18.891651">
        <ele>349.2</ele>
      </trkpt>
<trkpt lat="47.752876" lon="18.891785">
        <ele>349.8</ele>
      </trkpt>
<trkpt lat="47.752896" lon="18.891506">
        <ele>349.6</ele>
      </trkpt>
<trkpt lat="47.752641" lon="18.890975">
        <ele>347.6</ele>
      </trkpt>
<trkpt lat="47.752546" lon="18.890781">
        <ele>345.6</ele>
      </trkpt>
<trkpt lat="47.752381" lon="18.890293">
        <ele>344.8</ele>
      </trkpt>
<trkpt lat="47.752323" lon="18.889495">
        <ele>344</ele>
      </trkpt>
<trkpt lat="47.752239" lon="18.889280">
        <ele>343.4</ele>
      </trkpt>
<trkpt lat="47.751905" lon="18.888880">
        <ele>342.8</ele>
      </trkpt>
<trkpt lat="47.751534" lon="18.888757">
        <ele>341.8</ele>
      </trkpt>
<trkpt lat="47.751198" lon="18.888583">
        <ele>340.8</ele>
      </trkpt>
<trkpt lat="47.750963" lon="18.888000">
        <ele>339.6</ele>
      </trkpt>
<trkpt lat="47.750713" lon="18.887444">
        <ele>339</ele>
      </trkpt>
<trkpt lat="47.750687" lon="18.887040">
        <ele>337.2</ele>
      </trkpt>
<trkpt lat="47.750185" lon="18.886731">
        <ele>337.8</ele>
      </trkpt>
<trkpt lat="47.749739" lon="18.886288">
        <ele>338.4</ele>
      </trkpt>
<trkpt lat="47.749560" lon="18.885991">
        <ele>341.8</ele>
      </trkpt>
<trkpt lat="47.748461" lon="18.884225">
        <ele>345.2</ele>
      </trkpt>
<trkpt lat="47.748212" lon="18.884260">
        <ele>349.8</ele>
      </trkpt>
<trkpt lat="47.747575" lon="18.883517">
        <ele>354</ele>
      </trkpt>
<trkpt lat="47.747453" lon="18.883461">
        <ele>357.2</ele>
      </trkpt>
<trkpt lat="47.747313" lon="18.883397">
        <ele>357.8</ele>
      </trkpt>
<trkpt lat="47.746455" lon="18.882769">
        <ele>358.4</ele>
      </trkpt>
<trkpt lat="47.746077" lon="18.883027">
        <ele>360</ele>
      </trkpt>
<trkpt lat="47.745904" lon="18.883043">
        <ele>362.8</ele>
      </trkpt>
<trkpt lat="47.745704" lon="18.882989">
        <ele>366.6</ele>
      </trkpt>
<trkpt lat="47.744901" lon="18.882534">
        <ele>372.2</ele>
      </trkpt>
<trkpt lat="47.744294" lon="18.881938">
        <ele>377.8</ele>
      </trkpt>
<trkpt lat="47.743941" lon="18.881682">
        <ele>377.8</ele>
      </trkpt>
<trkpt lat="47.743690" lon="18.881675">
        <ele>375</ele>
      </trkpt>
<trkpt lat="47.743307" lon="18.881951">
        <ele>377.6</ele>
      </trkpt>
<trkpt lat="47.742956" lon="18.882166">
        <ele>375.6</ele>
      </trkpt>
<trkpt lat="47.742659" lon="18.882153">
        <ele>380</ele>
      </trkpt>
<trkpt lat="47.742356" lon="18.881938">
        <ele>389</ele>
      </trkpt>
<trkpt lat="47.741760" lon="18.881339">
        <ele>398</ele>
      </trkpt>
<trkpt lat="47.741192" lon="18.880938">
        <ele>401.6</ele>
      </trkpt>
<trkpt lat="47.740917" lon="18.880948">
        <ele>403</ele>
      </trkpt>
<trkpt lat="47.740716" lon="18.881090">
        <ele>401.2</ele>
      </trkpt>
<trkpt lat="47.740662" lon="18.881166">
        <ele>399.4</ele>
      </trkpt>
<trkpt lat="47.740461" lon="18.881642">
        <ele>397.8</ele>
      </trkpt>
<trkpt lat="47.740306" lon="18.882592">
        <ele>396.2</ele>
      </trkpt>
<trkpt lat="47.740169" lon="18.882821">
        <ele>399.6</ele>
      </trkpt>
<trkpt lat="47.739348" lon="18.883252">
        <ele>401.4</ele>
      </trkpt>
<trkpt lat="47.739181" lon="18.883178">
        <ele>403.2</ele>
      </trkpt>
<trkpt lat="47.739078" lon="18.882966">
        <ele>404</ele>
      </trkpt>
<trkpt lat="47.738947" lon="18.882288">
        <ele>404.8</ele>
      </trkpt>
<trkpt lat="47.738777" lon="18.882131">
        <ele>405.6</ele>
      </trkpt>
<trkpt lat="47.738525" lon="18.882140">
        <ele>405.4</ele>
      </trkpt>
<trkpt lat="47.738327" lon="18.882507">
        <ele>405.2</ele>
      </trkpt>
<trkpt lat="47.738286" lon="18.882904">
        <ele>407.6</ele>
      </trkpt>
<trkpt lat="47.738323" lon="18.883166">
        <ele>410</ele>
      </trkpt>
<trkpt lat="47.738433" lon="18.883431">
        <ele>412.4</ele>
      </trkpt>
<trkpt lat="47.738426" lon="18.883929">
        <ele>414.2</ele>
      </trkpt>
<trkpt lat="47.738518" lon="18.884172">
        <ele>416</ele>
      </trkpt>
<trkpt lat="47.738441" lon="18.884448">
        <ele>418.2</ele>
      </trkpt>
<trkpt lat="47.738237" lon="18.884560">
        <ele>420.6</ele>
      </trkpt>
<trkpt lat="47.738129" lon="18.884528">
        <ele>421.4</ele>
      </trkpt>
<trkpt lat="47.737716" lon="18.884920">
        <ele>422.2</ele>
      </trkpt>
<trkpt lat="47.738443" lon="18.885128">
        <ele>423</ele>
      </trkpt>
<trkpt lat="47.739090" lon="18.884997">
        <ele>419.4</ele>
      </trkpt>
<trkpt lat="47.739265" lon="18.885143">
        <ele>422.8</ele>
      </trkpt>
<trkpt lat="47.739460" lon="18.885171">
        <ele>427.8</ele>
      </trkpt>
<trkpt lat="47.739627" lon="18.885321">
        <ele>436.4</ele>
      </trkpt>
<trkpt lat="47.739207" lon="18.885618">
        <ele>445</ele>
      </trkpt>
<trkpt lat="47.739068" lon="18.885700">
        <ele>457.8</ele>
      </trkpt>
<trkpt lat="47.738661" lon="18.886815">
        <ele>463.4</ele>
      </trkpt>
<trkpt lat="47.738637" lon="18.887043">
        <ele>469</ele>
      </trkpt>
<trkpt lat="47.738830" lon="18.887272">
        <ele>471</ele>
      </trkpt>
<trkpt lat="47.738878" lon="18.887386">
        <ele>473</ele>
      </trkpt>
<trkpt lat="47.738801" lon="18.887558">
        <ele>471</ele>
      </trkpt>
<trkpt lat="47.738878" lon="18.887386">
        <ele>469</ele>
      </trkpt>
<trkpt lat="47.738830" lon="18.887272">
        <ele>463.4</ele>
      </trkpt>
<trkpt lat="47.738637" lon="18.887043">
        <ele>457.8</ele>
      </trkpt>
<trkpt lat="47.738661" lon="18.886815">
        <ele>452.2</ele>
      </trkpt>
<trkpt lat="47.739068" lon="18.885700">
        <ele>443.6</ele>
      </trkpt>
<trkpt lat="47.739207" lon="18.885618">
        <ele>436.6</ele>
      </trkpt>
<trkpt lat="47.739133" lon="18.885495">
        <ele>434.4</ele>
      </trkpt>
<trkpt lat="47.738831" lon="18.885342">
        <ele>432.2</ele>
      </trkpt>
<trkpt lat="47.738027" lon="18.885413">
        <ele>428.6</ele>
      </trkpt>
<trkpt lat="47.737439" lon="18.885642">
        <ele>429</ele>
      </trkpt>
<trkpt lat="47.737218" lon="18.885853">
        <ele>427.8</ele>
      </trkpt>
<trkpt lat="47.736922" lon="18.886157">
        <ele>424.4</ele>
      </trkpt>
<trkpt lat="47.736797" lon="18.886433">
        <ele>421</ele>
      </trkpt>
<trkpt lat="47.736785" lon="18.886626">
        <ele>419</ele>
      </trkpt>
<trkpt lat="47.737159" lon="18.888257">
        <ele>415.8</ele>
      </trkpt>
<trkpt lat="47.737171" lon="18.888323">
        <ele>410.6</ele>
      </trkpt>
<trkpt lat="47.737108" lon="18.888472">
        <ele>406.4</ele>
      </trkpt>
<trkpt lat="47.737387" lon="18.889555">
        <ele>402.2</ele>
      </trkpt>
<trkpt lat="47.737346" lon="18.889891">
        <ele>398</ele>
      </trkpt>
<trkpt lat="47.737407" lon="18.889920">
        <ele>396</ele>
      </trkpt>
<trkpt lat="47.737353" lon="18.890134">
        <ele>394.8</ele>
      </trkpt>
<trkpt lat="47.737302" lon="18.890206">
        <ele>394.6</ele>
      </trkpt>
<trkpt lat="47.737275" lon="18.890239">
        <ele>394.4</ele>
      </trkpt>
<trkpt lat="47.737130" lon="18.890624">
        <ele>393</ele>
      </trkpt>
<trkpt lat="47.736999" lon="18.891007">
        <ele>391.6</ele>
      </trkpt>
<trkpt lat="47.736920" lon="18.891207">
        <ele>389.8</ele>
      </trkpt>
<trkpt lat="47.737045" lon="18.891414">
        <ele>387</ele>
      </trkpt>
<trkpt lat="47.737030" lon="18.891698">
        <ele>384.2</ele>
      </trkpt>
<trkpt lat="47.737150" lon="18.891659">
        <ele>380</ele>
      </trkpt>
<trkpt lat="47.737118" lon="18.891877">
        <ele>375.8</ele>
      </trkpt>
<trkpt lat="47.737151" lon="18.891918">
        <ele>370.4</ele>
      </trkpt>
<trkpt lat="47.737141" lon="18.892171">
        <ele>365</ele>
      </trkpt>
<trkpt lat="47.737316" lon="18.892866">
        <ele>359.6</ele>
      </trkpt>
<trkpt lat="47.737327" lon="18.893352">
        <ele>354.6</ele>
      </trkpt>
<trkpt lat="47.737416" lon="18.893449">
        <ele>349.6</ele>
      </trkpt>
<trkpt lat="47.737843" lon="18.893470">
        <ele>347.4</ele>
      </trkpt>
<trkpt lat="47.738020" lon="18.893773">
        <ele>345.2</ele>
      </trkpt>
<trkpt lat="47.738273" lon="18.893848">
        <ele>341.4</ele>
      </trkpt>
<trkpt lat="47.738508" lon="18.893644">
        <ele>339.8</ele>
      </trkpt>
<trkpt lat="47.738659" lon="18.893729">
        <ele>332.2</ele>
      </trkpt>
<trkpt lat="47.738800" lon="18.893942">
        <ele>323.2</ele>
      </trkpt>
<trkpt lat="47.739445" lon="18.893935">
        <ele>313</ele>
      </trkpt>
<trkpt lat="47.741456" lon="18.894524">
        <ele>301.8</ele>
      </trkpt>
<trkpt lat="47.741875" lon="18.894734">
        <ele>287</ele>
      </trkpt>
<trkpt lat="47.742226" lon="18.895362">
        <ele>276.6</ele>
      </trkpt>
<trkpt lat="47.742612" lon="18.896658">
        <ele>267.6</ele>
      </trkpt>
<trkpt lat="47.743091" lon="18.897745">
        <ele>259.8</ele>
      </trkpt>
<trkpt lat="47.743190" lon="18.898046">
        <ele>253.8</ele>
      </trkpt>
<trkpt lat="47.743239" lon="18.898197">
        <ele>251.4</ele>
      </trkpt>
<trkpt lat="47.743360" lon="18.898343">
        <ele>248.6</ele>
      </trkpt>
<trkpt lat="47.743840" lon="18.898343">
        <ele>245.8</ele>
      </trkpt>
<trkpt lat="47.744082" lon="18.898613">
        <ele>241.6</ele>
      </trkpt>
<trkpt lat="47.744226" lon="18.899048">
        <ele>236.4</ele>
      </trkpt>
<trkpt lat="47.744311" lon="18.899488">
        <ele>231.2</ele>
      </trkpt>
<trkpt lat="47.744323" lon="18.899957">
        <ele>226.4</ele>
      </trkpt>
<trkpt lat="47.744227" lon="18.900587">
        <ele>221.6</ele>
      </trkpt>
<trkpt lat="47.743999" lon="18.901180">
        <ele>218.2</ele>
      </trkpt>
<trkpt lat="47.743994" lon="18.901746">
        <ele>217.2</ele>
      </trkpt>
<trkpt lat="47.744053" lon="18.901948">
        <ele>215.2</ele>
      </trkpt>
<trkpt lat="47.744170" lon="18.902083">
        <ele>213.4</ele>
      </trkpt>
<trkpt lat="47.744550" lon="18.902293">
        <ele>211.6</ele>
      </trkpt>
<trkpt lat="47.744722" lon="18.902495">
        <ele>208.8</ele>
      </trkpt>
<trkpt lat="47.745665" lon="18.902586">
        <ele>205.4</ele>
      </trkpt>
<trkpt lat="47.746199" lon="18.902729">
        <ele>201</ele>
      </trkpt>
<trkpt lat="47.746563" lon="18.902758">
        <ele>201</ele>
      </trkpt>
<trkpt lat="47.746846" lon="18.902884">
        <ele>198.4</ele>
      </trkpt>
<trkpt lat="47.747143" lon="18.902887">
        <ele>196.8</ele>
      </trkpt>
<trkpt lat="47.747488" lon="18.903115">
        <ele>193.2</ele>
      </trkpt>
<trkpt lat="47.748188" lon="18.903293">
        <ele>193</ele>
      </trkpt>
<trkpt lat="47.748640" lon="18.903484">
        <ele>187</ele>
      </trkpt>
<trkpt lat="47.749251" lon="18.903430">
        <ele>183.6</ele>
      </trkpt>
<trkpt lat="47.750182" lon="18.903919">
        <ele>180.2</ele>
      </trkpt>
<trkpt lat="47.750665" lon="18.904084">
        <ele>178.2</ele>
      </trkpt>
<trkpt lat="47.751091" lon="18.904097">
        <ele>176.8</ele>
      </trkpt>
<trkpt lat="47.751152" lon="18.904415">
        <ele>180.6</ele>
      </trkpt>
<trkpt lat="47.751637" lon="18.904547">
        <ele>184.4</ele>
      </trkpt>
<trkpt lat="47.751480" lon="18.904840">
        <ele>193.8</ele>
      </trkpt>
<trkpt lat="47.751002" lon="18.905094">
        <ele>207.8</ele>
      </trkpt>
<trkpt lat="47.750500" lon="18.905185">
        <ele>220.8</ele>
      </trkpt>
<trkpt lat="47.749496" lon="18.905070">
        <ele>235.4</ele>
      </trkpt>
<trkpt lat="47.748367" lon="18.905401">
        <ele>250</ele>
      </trkpt>
<trkpt lat="47.748025" lon="18.905567">
        <ele>262</ele>
      </trkpt>
<trkpt lat="47.747908" lon="18.905579">
        <ele>274.4</ele>
      </trkpt>
<trkpt lat="47.747356" lon="18.905721">
        <ele>287.8</ele>
      </trkpt>
<trkpt lat="47.746688" lon="18.906060">
        <ele>297.2</ele>
      </trkpt>
<trkpt lat="47.745707" lon="18.906270">
        <ele>310.6</ele>
      </trkpt>
<trkpt lat="47.744941" lon="18.906723">
        <ele>325.4</ele>
      </trkpt>
<trkpt lat="47.744691" lon="18.907029">
        <ele>337.8</ele>
      </trkpt>
<trkpt lat="47.744336" lon="18.907167">
        <ele>353.4</ele>
      </trkpt>
<trkpt lat="47.743747" lon="18.907335">
        <ele>375</ele>
      </trkpt>
<trkpt lat="47.742986" lon="18.908011">
        <ele>395.6</ele>
      </trkpt>
<trkpt lat="47.742505" lon="18.908963">
        <ele>411.8</ele>
      </trkpt>
<trkpt lat="47.741888" lon="18.910009">
        <ele>428.8</ele>
      </trkpt>
<trkpt lat="47.741314" lon="18.910636">
        <ele>444</ele>
      </trkpt>
<trkpt lat="47.741262" lon="18.910768">
        <ele>453.2</ele>
      </trkpt>
<trkpt lat="47.741029" lon="18.911260">
        <ele>460.8</ele>
      </trkpt>
<trkpt lat="47.740170" lon="18.912118">
        <ele>472.6</ele>
      </trkpt>
<trkpt lat="47.739867" lon="18.912282">
        <ele>481.6</ele>
      </trkpt>
<trkpt lat="47.739557" lon="18.912772">
        <ele>487.2</ele>
      </trkpt>
<trkpt lat="47.739243" lon="18.913023">
        <ele>492.8</ele>
      </trkpt>
<trkpt lat="47.739083" lon="18.913234">
        <ele>497.8</ele>
      </trkpt>
<trkpt lat="47.738824" lon="18.913515">
        <ele>505.2</ele>
      </trkpt>
<trkpt lat="47.738772" lon="18.913540">
        <ele>512.6</ele>
      </trkpt>
<trkpt lat="47.738727" lon="18.913623">
        <ele>523.8</ele>
      </trkpt>
<trkpt lat="47.738425" lon="18.913911">
        <ele>535</ele>
      </trkpt>
<trkpt lat="47.738241" lon="18.914203">
        <ele>548.4</ele>
      </trkpt>
<trkpt lat="47.738099" lon="18.914606">
        <ele>561.6</ele>
      </trkpt>
<trkpt lat="47.737958" lon="18.915312">
        <ele>574.8</ele>
      </trkpt>
<trkpt lat="47.738013" lon="18.915550">
        <ele>584.2</ele>
      </trkpt>
<trkpt lat="47.738413" lon="18.917091">
        <ele>595.4</ele>
      </trkpt>
<trkpt lat="47.738570" lon="18.917586">
        <ele>609.4</ele>
      </trkpt>
<trkpt lat="47.738609" lon="18.917754">
        <ele>617</ele>
      </trkpt>
<trkpt lat="47.739038" lon="18.918600">
        <ele>624.2</ele>
      </trkpt>
<trkpt lat="47.739215" lon="18.919701">
        <ele>631.4</ele>
      </trkpt>
<trkpt lat="47.739462" lon="18.920415">
        <ele>636.8</ele>
      </trkpt>
<trkpt lat="47.739496" lon="18.920645">
        <ele>636.8</ele>
      </trkpt>
<trkpt lat="47.739317" lon="18.920724">
        <ele>636.8</ele>
      </trkpt>
<trkpt lat="47.739496" lon="18.920645">
        <ele>631.4</ele>
      </trkpt>
<trkpt lat="47.739462" lon="18.920415">
        <ele>624.2</ele>
      </trkpt>
<trkpt lat="47.739215" lon="18.919701">
        <ele>617</ele>
      </trkpt>
<trkpt lat="47.739038" lon="18.918600">
        <ele>609.4</ele>
      </trkpt>
<trkpt lat="47.738609" lon="18.917754">
        <ele>595.4</ele>
      </trkpt>
<trkpt lat="47.738570" lon="18.917586">
        <ele>584.2</ele>
      </trkpt>
<trkpt lat="47.738413" lon="18.917091">
        <ele>574.8</ele>
      </trkpt>
<trkpt lat="47.738013" lon="18.915550">
        <ele>561.6</ele>
      </trkpt>
<trkpt lat="47.737958" lon="18.915312">
        <ele>548.4</ele>
      </trkpt>
<trkpt lat="47.738099" lon="18.914606">
        <ele>535</ele>
      </trkpt>
<trkpt lat="47.738241" lon="18.914203">
        <ele>523.8</ele>
      </trkpt>
<trkpt lat="47.738425" lon="18.913911">
        <ele>512.6</ele>
      </trkpt>
<trkpt lat="47.738727" lon="18.913623">
        <ele>505.2</ele>
      </trkpt>
<trkpt lat="47.738772" lon="18.913540">
        <ele>497.8</ele>
      </trkpt>
<trkpt lat="47.738824" lon="18.913515">
        <ele>492.8</ele>
      </trkpt>
<trkpt lat="47.739083" lon="18.913234">
        <ele>487.2</ele>
      </trkpt>
<trkpt lat="47.739243" lon="18.913023">
        <ele>481.6</ele>
      </trkpt>
<trkpt lat="47.739557" lon="18.912772">
        <ele>472.6</ele>
      </trkpt>
<trkpt lat="47.739867" lon="18.912282">
        <ele>460.8</ele>
      </trkpt>
<trkpt lat="47.740170" lon="18.912118">
        <ele>453.2</ele>
      </trkpt>
<trkpt lat="47.741029" lon="18.911260">
        <ele>444</ele>
      </trkpt>
<trkpt lat="47.741262" lon="18.910768">
        <ele>428.8</ele>
      </trkpt>
<trkpt lat="47.741314" lon="18.910636">
        <ele>411.8</ele>
      </trkpt>
<trkpt lat="47.741888" lon="18.910009">
        <ele>395.6</ele>
      </trkpt>
<trkpt lat="47.742505" lon="18.908963">
        <ele>375</ele>
      </trkpt>
<trkpt lat="47.742986" lon="18.908011">
        <ele>353.4</ele>
      </trkpt>
<trkpt lat="47.743747" lon="18.907335">
        <ele>337.8</ele>
      </trkpt>
<trkpt lat="47.744336" lon="18.907167">
        <ele>325.4</ele>
      </trkpt>
<trkpt lat="47.744691" lon="18.907029">
        <ele>310.6</ele>
      </trkpt>
<trkpt lat="47.744941" lon="18.906723">
        <ele>297.2</ele>
      </trkpt>
<trkpt lat="47.745707" lon="18.906270">
        <ele>287.8</ele>
      </trkpt>
<trkpt lat="47.746688" lon="18.906060">
        <ele>274.4</ele>
      </trkpt>
<trkpt lat="47.747356" lon="18.905721">
        <ele>262</ele>
      </trkpt>
<trkpt lat="47.747908" lon="18.905579">
        <ele>250</ele>
      </trkpt>
<trkpt lat="47.748025" lon="18.905567">
        <ele>235.4</ele>
      </trkpt>
<trkpt lat="47.748367" lon="18.905401">
        <ele>220.8</ele>
      </trkpt>
<trkpt lat="47.749496" lon="18.905070">
        <ele>207.8</ele>
      </trkpt>
<trkpt lat="47.750500" lon="18.905185">
        <ele>193.8</ele>
      </trkpt>
<trkpt lat="47.751002" lon="18.905094">
        <ele>183.8</ele>
      </trkpt>
<trkpt lat="47.751480" lon="18.904840">
        <ele>179.4</ele>
      </trkpt>
<trkpt lat="47.751637" lon="18.904547">
        <ele>175</ele>
      </trkpt>
<trkpt lat="47.751738" lon="18.904391">
        <ele>171.6</ele>
      </trkpt>
<trkpt lat="47.751921" lon="18.904242">
        <ele>170.2</ele>
      </trkpt>
<trkpt lat="47.751993" lon="18.904184">
        <ele>168.8</ele>
      </trkpt>
<trkpt lat="47.752118" lon="18.903973">
        <ele>167.4</ele>
      </trkpt>
<trkpt lat="47.752194" lon="18.903924">
        <ele>166</ele>
      </trkpt>
<trkpt lat="47.752229" lon="18.903934">
        <ele>166</ele>
      </trkpt>
<trkpt lat="47.752287" lon="18.904000">
        <ele>166.8</ele>
      </trkpt>
<trkpt lat="47.752275" lon="18.904118">
        <ele>166.2</ele>
      </trkpt>
<trkpt lat="47.752270" lon="18.904216">
        <ele>165.6</ele>
      </trkpt>
<trkpt lat="47.752889" lon="18.904837">
        <ele>166.8</ele>
      </trkpt>
<trkpt lat="47.753198" lon="18.905360">
        <ele>165</ele>
      </trkpt>
<trkpt lat="47.753562" lon="18.905980">
        <ele>162.4</ele>
      </trkpt>
<trkpt lat="47.753651" lon="18.906373">
        <ele>162.4</ele>
      </trkpt>
<trkpt lat="47.753827" lon="18.906607">
        <ele>162.4</ele>
      </trkpt>
<trkpt lat="47.753982" lon="18.906729">
        <ele>160.8</ele>
      </trkpt>
<trkpt lat="47.754193" lon="18.907507">
        <ele>161</ele>
      </trkpt>
<trkpt lat="47.754472" lon="18.907914">
        <ele>159.4</ele>
      </trkpt>
<trkpt lat="47.755113" lon="18.909013">
        <ele>155.6</ele>
      </trkpt>
<trkpt lat="47.755621" lon="18.909585">
        <ele>151.8</ele>
      </trkpt>
<trkpt lat="47.756366" lon="18.910658">
        <ele>147.8</ele>
      </trkpt>
<trkpt lat="47.757333" lon="18.911268">
        <ele>145</ele>
      </trkpt>
<trkpt lat="47.757706" lon="18.911578">
        <ele>142.6</ele>
      </trkpt>
<trkpt lat="47.757738" lon="18.911486">
        <ele>140.6</ele>
      </trkpt>
<trkpt lat="47.757789" lon="18.911326">
        <ele>138.6</ele>
      </trkpt>
<trkpt lat="47.758165" lon="18.911516">
        <ele>135.2</ele>
      </trkpt>
<trkpt lat="47.758973" lon="18.911609">
        <ele>131.6</ele>
      </trkpt>
<trkpt lat="47.759154" lon="18.911688">
        <ele>128.2</ele>
      </trkpt>
<trkpt lat="47.760082" lon="18.912096">
        <ele>125.4</ele>
      </trkpt>
<trkpt lat="47.761176" lon="18.912749">
        <ele>121.8</ele>
      </trkpt>
<trkpt lat="47.761775" lon="18.913055">
        <ele>119.6</ele>
      </trkpt>
<trkpt lat="47.761967" lon="18.913070">
        <ele>116.6</ele>
      </trkpt>
<trkpt lat="47.762231" lon="18.912877">
        <ele>115.4</ele>
      </trkpt>
<trkpt lat="47.762752" lon="18.912219">
        <ele>114.2</ele>
      </trkpt>
<trkpt lat="47.763267" lon="18.911476">
        <ele>113.8</ele>
      </trkpt>
<trkpt lat="47.763509" lon="18.911056">
        <ele>113.4</ele>
      </trkpt>
<trkpt lat="47.763591" lon="18.910970">
        <ele>114</ele>
      </trkpt>
<trkpt lat="47.763661" lon="18.910961">
        <ele>114</ele>
      </trkpt>
<trkpt lat="47.763696" lon="18.910973">
        <ele>114</ele>
      </trkpt>
<trkpt lat="47.763724" lon="18.910986">
        <ele>114</ele>
      </trkpt>
</trkseg>
</trk>
</gpx>



